id,name,slug,type,address,city_id,lat,lng,is_open,is_nfc,cash_in,working_weekends,is_digital,work_hours_week,work_hours_saturday,work_hours_sunday,notes
2,Bolmart Saray qəsəbəsi,bolmart-saray-qesebesi,A,,2,40.521889,49.68898,1,0,0,0,0,,,,
3,"Araz market, Saray qəsəbəsi",araz-market-saray-qesebesi,A,"Abşeron rayonu, Saray qəsəbəsi, Bakı-Sumqayıt yolu",2,40.523826,49.68749,1,1,0,0,0,,,,
4,"Azər City Supermarket, Masazır qəsəbəsi",azer-city-supermarket-masazir-qesebesi,A,"Masazır qəsəbəsi, Bakı-Sumqayıt yolunun 12-ci km",2,40.451086,49.765077,1,1,0,0,0,,,,
5,"Bazarstore, Hökməli qəsəbəsi",bazarstore-hokmeli-qesebesi,A,"Abşeron rayonu, Hökməli qəsəbəsi, Şamaxı yolu 4-cü km 6",2,40.441211,49.748114,1,0,0,0,0,,,,
6,"Araz Market,Ceyranbatan qəsəbəsi",araz-marketceyranbatan-qesebesi,A,"Bakı şəhəri, Ceyranbatan qəsəbəsi, Heydər Əliyev küçəsi 1",2,40.541575,49.661872,1,0,0,0,0,,,,
7,"Saray qəsəbəsi, Əsləm Market",eslem-market-saray-qesebesi,A,"Abşeron rayonu, Saray qəsəbəsi, M. Ə. Rəsulzadə küçəsi",2,40.530241,49.714426,1,0,0,0,0,,,,
8,"Mehdiabad bələdiyyəsi, Mehdiabad qəsəbəsi",mehdiabad-belediyyesi-mehdiabad-qesebesi,A,"Mehdiabad qəsəbəsi, 28 May küçəsi 28",2,40.496761,49.851878,1,1,0,0,0,,,,
9,"Qobu market,Qobu qəsəbəsi",qobu-marketqobu-qesebesi,A,"Abşeron rayonu, Qobu qəsəbəsi",2,40.407074,49.71291,1,0,0,0,0,,,,
10,"AS market, Novxanı qəsəbəsi",as-market-novxani-qesebesi,A,"Abşeron rayonu, Novxanı qəsəbəsi",2,40.532520,49.785090,1,0,0,0,0,,,,
11,"Petrolux YDM, Novxanı qəsəbəsi",petrolux-ydm-novxani-qesebesi,A,"Abşeron rayonu, Novxanı qəsəbəsi",2,40.557274,49.587952,1,0,0,0,0,,,,
14,"Avşar kəndi, Market",avsar-kendi-market,A,"Ağcabədi rayonu, Avşar kəndi",3,39.975206,47.428099,1,0,0,0,0,,,,
15,"Hacıbədəlli kəndi, Yolüstü market",hacibedelli-kendi-yolustu-market,A,"Ağcabədi rayonu, Hacıbədəlli kəndi",3,40.059121,47.339027,1,0,0,0,0,,,,
16,"Taxtakörpü qəsəbəsi, Laçın YDM",agcabedi-rayonu-taxtakorpu-qesebesi,A,"Ağcabədi rayonu, Taxtakörpü qəsəbəsi",3,40.102912,47.516729,1,0,0,0,0,,,,
17,"Ağcabədi şəhəri, Delfin market",agcabedi-seheri-delfin-market,A,"Ağcabədi şəhəri, H. Əliyev prospekti 372",3,40.03167555,47.45174059,1,0,0,0,0,,,,
18,"Qaradolaq kəndi, Ticarət mərkəzi",ticaret-merkezi-agcabedi-rayonu,A,"Ağcabədi rayonu, Qaradolaq kəndi",3,39.937474,47.453459,1,0,0,0,0,,,,
19,"Ticarət Mərkəzi, Ağcabədi rayonu",ticaret-merkezi-agcabedi-rayonu,A,"Ağcabədi rayonu , H. Əliyev prospekti 54",3,40.044434,47.455951,1,0,0,0,0,,,,
20,"Okean market,  Ağcabədi rayonu",okean-market-agcabedi-rayonu,A,"Ağcabədi rayonu, Ü.Hacıbəyov prospekti",3,40.052846,47.440827,1,0,0,0,0,,,,
22,"İkinci Quzanlı qəsəbəsi, Market",ikinci-quzanli-qesebesi-market,A,"Ağdam rayonu, İkinci Quzanlı qəsəbəsi",4,40.16337,47.156344,1,0,0,0,0,,,,
23,"Birinci Quzanlı qəsəbəsi, ""Nar Mobile"" mağazası",birinci-quzanli-qesebesi-nar-mobile-magazasi,A,"Ağdam rayonu, Birinci Quzanlı qəsəbəsi",4,40.155903,47.162843,1,0,0,0,0,,,,
25,"Dördyol kəndi, Dördyol market",dordyol-kendi-dordyol-market,A,"Ağdam rayonu, Dördyol kəndi",4,40.239778,47.079245,1,0,0,0,0,,,,
26,"Qaradağlı kəndi, Yaşıl market",qaradagli-kendi-yashil-market,A,"Ağdam rayonu, Qaradağlı kəndi",4,40.024936,47.071524,1,0,0,0,0,,,,
27,"Xındırıstan kəndi, Market",xindiristan-kendi-market,A,"Ağdam rayonu, Xındırıstan kəndi",4,40.121223,47.105611,1,0,0,0,0,,,,
28,"Dördyol kəndi, Ağdam Qaçqın Düşərgəsi",dordyol-kendi-agdam-qacqin-dushergesi,A,"Ağdam rayonu, Dördyol kəndi",4,40.240611,47.07601,1,0,0,0,0,,,,
29,"Bənövşələr kəndi, ""Azər Təpə"" market",benovsheler-kendi-azer-tepe-market,A,"Ağdam rayonu, Bənövşələr kəndi",4,40.124958,47.080575,1,0,0,0,0,,,,
30,Ağdaş market,agdash-sheheri-agdash-market,A,"Ağdaş rayonu, M.İsayev 16",5,40.647889,47.471253,1,0,0,0,0,,,,
31,Ağdaş filialı,agdashagdash-filiali,A,"Ağdaş rayonu, H. Əliyеv prospеkti 6",5,40.645269,47.474838,1,0,0,0,0,,,,
33,"Ləki kəndi, Vüsal market Ağdaş rayonu",leki-kendi-vusal-market-agdash-rayonu,A,"Ağdaş rayonu, Ləki kəndi, Sabir küçəsi",5,40.547085,47.422867,1,0,0,0,0,,,,
35,"Ağstafa, ""Kəsəmən"" market (Rafiq Əlicanov küçəsi)",agstafa-kesemen-market-rafiq-elicanov-kucesi,A,"Ağstafa şəhəri, Rafiq Əlicanov küçəsi",6,41.123227,45.44737,1,0,0,0,0,,,,
36,"Ağstafa, Dəmiryol vağzalı",agstafa-demiryol-vagzali,A,"Ağstafa şəhəri, M.Ə.Rasulzadə küçəsi 9",6,41.11168927007477,45.44046469831508,1,0,0,0,0,,,,
37,"Ağstafa şəhəri, ""Kəsəmən"" market (H.Əliyev prospekti)",agstafa-sheheri-kesemen-market-heliyev-prospekti,A,"Ağstafa şəhəri, H.Əliyev prospekti 12",6,41.114611,45.447086,1,0,0,0,0,,,,
39,"Ağsu-Gəgəli yolu, ""Elit"" market",agsu-gegeli-yolu-elit-market,A,"Ağsu rayonu, Ağsu-Gəgəli yolu",7,40.558123,48.403908,1,0,0,0,0,,,,
40,Ağstafa rayon,agstafa-rayon-filiali1,A,"Ağstafa rayonu , H. Əliyev prospekti 1, döngə 1",6,41.112658,45.443019,1,0,0,0,0,,,,
43,"Şiyəkəran kəndi, ""Halal"" market",shiyekeran-kendi-halal-market,A,"Astara rayonu, Şiyəkəran kəndi",8,38.597448,48.839881,1,0,0,0,0,,,,
47,"Ağdaş şəhəri, ""Ağdaş"" market",agdash-sheheri-agdash-market-1,A,"Ağdaş şəhəri, M.İsayev küçəsi 16",5,40.065375,47.189633,1,0,0,0,0,,,,
48,"Ağdam filialı, Ağdam rayonu",agdam-filiali-agdam-rayonu1,A,"Ağdam rayonu, Quzanlı qəsəbəsi",4,40.158158,47.161019,1,0,0,0,0,,,,
49,"Ağdaş  filialı, Ağdaş şəhəri",agdash-rayon-filiali-agdash-sheheri1-1,A,"Ağdaş şəhəri, H. Əliyev küçəsi 6",5,39.989894,47.164903,1,0,0,0,0,,,,
56,"Nehrəm kəndi, İcra Nümayəndəliyi",nehrem-kendi-icra-numayendeliyi-236hlaz,A,"Naxçıvan MR, Babək rayonu, Nehrəm kəndi",9,39.120369,45.467632,1,0,0,0,0,,,,
57,Naxçıvan MR DSMF Babək rayon şöbəsi,babek-filiali-5,A,"Naxçıvan MR, Babək rayonu, Babək qəs., H. Əliyev prospekti 3",9,39.158305,45.447734,1,0,0,0,0,,,,
61,Abad market,abad-market,A,Zaqatala ş. Aliabad qəs.,1,41.48853,46.622947,1,0,0,0,0,,,,
62,Bakı Slavyan Universiteti,baki-slavyan-universiteti-1007,A,"Bakı şəhəri, Nəsimi rayonu, Suleyman Rüstəm küçəsi 33",1,40.38403,49.843703,1,0,0,0,0,,,,
63,Alov zavodu,alov-zavodu-1006,A,"Bakı şəhəri, Yasamal rayonu, Moskva prospekti 77",1,40.39679369180102,49.83176287103797,1,0,0,0,0,,,,
64,Mənzil Kommunal İstismar İdarəsi,menzil-kommunal-istismar-idaresi-1003,A,"Bakı şəhəri, Sabunçu rayonu, Kürdəxanı qəsəbəsi",1,40.520695,49.948361,1,0,0,0,0,,,,
65,Cəmşid Naxçıvanski adına Hərbi lisey,cemshid-naxcivanski-adina-herbi-lisey-1002,A,"Bakı şəhəri, Xətai rayonu, Ziğ şossesi",1,40.347999,49.962221,1,0,0,0,0,,,,
66,Rahat Market (Zabrat),rahat-market-zabrat-1001,A,"Bakı şəhəri, Sabunçu rayonu Zabrat ŞTQ Babkək 110H",1,40.35889,49.836771,1,0,1,0,0,,,,
67,Müasir Tikinti Zavodu,muasir-tikinti-zavodu-1000,A,"Bakı şəhəri, Salyan şossesi 47 km",1,40.58595016185355,49.667555907832835,1,0,0,0,0,,,,
68,Caspian Plaza,caspian-plaza-999,A,"Bakı şəhəri, Cəfər Cabbarlı 44",1,40.385096,49.828606,1,0,1,0,0,,,,
69,"Araz market, Məmmədli qəsəbəsi",araz-market-memmedli-qesebesi-994,A,"Bakı şəhəri, Sabunçu rayonu, Məmmədli qəsəbəsi",1,40.497058,49.949655,1,0,1,0,0,,,,
70,Nəsimi filialı,nesimi-filiali-993,A,"Bakı şəhəri, Nəsimi rayonu, İ.Qasımov küçəsi 4",1,40.393474,49.836667,1,0,0,0,0,,,,
72,"Şimal Elektrik Stansiyası MMC, Şüvəlan qəsəbəsi",shimal-elektrik-stansiyasi-mmc-shuvelan-qesebesi-986,A,"Bakı şəhəri, Şüvəlan qəsəbəsi, A.İldırım küçəsi 32",1,40.500191,50.203784,1,0,0,0,0,,,,
73,Landmark,landmark-985,A,"Bakı şəhəri, Nizami küçəsi 96E",1,40.375879,49.849932,1,0,0,0,0,,,,
74,Leyla Şıxlinskaya Klinikası,leyla-shixlinskaya-klinikasi-984,A,"Bakı şəhəri, Yusif Səfərov küçəsi 25",1,40.37789859985199,49.905370261632086,1,0,0,0,0,,,,
75,Socar Petrol,socar-petrol-983,A,"Bakı şəhəri, Babək prospekti 2269-cu məhəllə, bina 1",1,40.391989,49.909949,1,0,0,0,0,,,,
76,Sea Breeze Resort,sea-breeze-resort-981,A,"Bakı şəhəri, Nardaran qəsəbəsi",1,40.591793,49.985786,1,0,0,0,0,,,,
79,Bridge Plaza,bridge-plaza-979,A,"Bakı ş, Nəsimi rayonu, Bakıxanov küçəsi 24",1,40.387106892549255,49.82929348273956,1,0,0,0,0,,,,
80,"Araz Market, Sahil qəsəbəsi",araz-market-sahil-qesebesi-978,A,"Bakı şəhəri, Qaradağ rayonu, Sahil qəsəbəsi, M.Seyidov küçəsi",1,40.225486,49.572477,1,0,1,0,0,,,,
81,Heydər Əliyev Mərkəzi,heyder-eliyev-merkezi-977,A,"Bakı şəhəri, Heydər Əliyev prospekti 1",1,40.396549,49.866436,1,0,1,0,0,,,,
82,ŞüvəlanPark Ticarət Mərkəzi,shuvelanpark-ticaret-merkezi-976,A,"Bakı şəhəri, Xəzər rayonu, Almaz İldırım 68",1,40.38145763001017,49.80940011338679,1,0,0,0,0,,,,
83,Port Baku,port-baku-922,A,"Bakı şəhəri, Neftçilər prospekti 153",1,40.376018215890745,49.86126340740964,1,0,0,0,0,,,,
84,Port Baku,port-baku-974,A,"Bakı şəhəri, Neftçilər prospekti 153",1,40.376018215890745,49.86126340740964,1,0,0,0,0,,,,
85,Paşa Bank Baş Ofis,pasha-bank-bash-ofis-973,A,"Bakı şəhəri, Y.Məmmədəliyev 13",1,40.370912,49.838781,1,0,0,0,0,,,,
86,Bilgəh Beach Hotel,bilgah-beach-hotel,A,"Bakı şəhəri, Xəzər rayonu, Qəbələ küçəsi 94",1,40.576938,50.064011,1,0,0,0,0,,,,
87,Begoc Office,begoc-office-971,A,"Bakı şəhəri, Zərifə Əliyeva küçəsi 41",1,40.372998,49.850034,1,0,0,0,0,,,,
88,SOCAR Metanol Zavodu,socar-metanol-zavodu-969,A,Salyan şossesi 25-ci km,1,40.27758,49.673252,1,0,0,0,0,,,,
91,Bakı Olimpiya stadionu,baki-olimpiya-stadionu-963,A,"Bakı şəhəri, Heydər Əliyev prospekti 323",1,40.40386506361755,49.959494090694214,1,0,1,0,0,,,,
92,Dalğa Beach Aquapark,dalga-beach-aquapark-960,A,"Bakı şəhəri, Xəzər rayonu",1,41.6295218315769,48.688270208703116,1,0,0,0,0,,,,
93,Baku Expo Center,baku-expo-center-957,A,"Bakı şəhəri, Heydər Əliyev prospekti",1,40.438396,50.035534,1,0,0,0,0,,,,
94,Marriott Absheron Baku,marriott-absheron-baku-955,A,"Bakı şəhəri, Azadlıq 674",1,40.373909,49.856295,1,0,0,0,0,,,,
96,İctimai Televiziya və Radio Yayımları Şirkəti,ictimai-televiziya-ve-radio-yayimlari-shirketi-954,A,"Bakı şəhəri, Yasamal rayonu Şərifzadə küçəsi 241",1,40.402113,49.801851,1,0,0,0,0,,,,
97,Gənclik Mall,genclik-mall-953,A,"Fətəli Xan Xoyski pr. 38, Gənclik Mall TM-nin -1-ci mərtəbəsi",1,40.40066171,49.853639,1,0,0,0,0,,,,
98,Intourist Hotel Baku,intourist-hotel-baku-952,A,"Bakı şəhəri, Mikayıl Useynov 51",1,40.41226411043856,49.847247742203166,1,0,0,0,0,,,,
99,Dinamo Hotel Baku,dinamo-hotel-baku-951,A,"Bakı şəhəri, Zərifə Əliyeva küçəsi 32",1,40.378719,49.948181,1,0,0,0,0,,,,
100,"Marine Plaza, Holiday İnn Baku",marine-plaza-holiday-inn-baku-950,A,"Bakı şəhəri, K.Səfərəliyeva küçəsi 5",1,40.376093,49.859117,1,0,0,0,0,,,,
101,Four Season Hotel,four-season-hotel-949,A,"Bakı şəhəri, Neftçilər prospekti 1",1,40.363008,49.834912,1,0,0,0,0,,,,
102,Park Inn Hotel,park-inn-hotel-948,A,"Bakı şəhəri, Azadlıq prospekti 1",1,40.461426,50.070634,1,1,0,0,0,,,,
103,Boulevard Hotel Baku,boulevard-hotel-baku-947,A,"Bakı şəhəri, Xəqani Rüstəmov küçəsi 4C",1,40.375656,49.882931,1,0,0,0,0,,,,
104,Azərbaycan Dillər Universiteti,azerbaycan-diller-universiteti-946,A,"Bakı şəhəri, Nəsimi rayonu, Rəşid Behbudov küçəsi 134",1,40.383758,49.842503,1,0,0,0,0,,,,
106,"Bona-Dea, Hospital 2",bona-dea-hospital-2-943,A,"Bakı şəhəri, Mehdi Abbasov küçəsi 2",1,40.412208,49.930462,1,0,0,0,0,,,,
107,28 Mall (Parking -1 mərtəbə),28-mall-parking-1-mertebe-942,A,"Bakı şəhəri, Nəsimi rayonu, Azadlıq prospekti 15A",1,40.300586241448286,49.65656418994402,1,0,0,0,0,,,,
109,"Bravo market, 28 Mall",bravo-market-28-mall-940,A,"Bakı şəhəri, Azadlıq prospekti 15A (28 Mall)",1,40.394835,49.859829,1,0,0,0,0,,,,
110,Yeni Lənkəran Hotel,yeni-lenkeran-hotel-987,A,"Lənkəran şəhəri, Haftoni kəndi",1,40.376661,49.907014,1,0,1,0,0,,,,
111,"Buta market, Hövsan kəndi",buta-market-hovsan-kendi-937,A,"Bakı şəhəri, Suraxanı rayonu, Hövsan kəndi, Məktəbli küçəsi 18A",1,40.374154,50.085757,1,0,0,0,0,,,,
112,SOCAR Neolit,socar-neolit-934,A,"Bakı şəhəri, Nizami rayonu, Oqtay Vəliyev küçəsi",1,40.42198747926674,49.842495693700705,1,0,1,0,0,,,,
113,VIP filial,vip-filial-933,A,"Bakı şəhəri, Nəsimi rayonu, Bül-bül prospekti 60, Gulustan residence",1,40.38124504,49.8415248,1,0,1,0,0,,,,
114,ATEF,atef-932,A,"Bakı şəhəri, Zığ şössesi, Qaraçuxur qəsəbəsi",1,40.400212,50.00039,1,0,0,0,0,,,,
115,E-GOV Gənclik,e-gov-genclik-930,A,"Bakı şəhəri, Nəsimi rayonu, M.Mirqasımov küçəsi 25A",1,40.40601,49.848583,1,0,0,0,0,,,,
116,Azərbaycan Dövlət İqtisad Universiteti,azerbaycan-dovlet-iqtisad-universiteti-929,A,"Bakı şəhəri, Nəsimi rayonu, Abbas Səhhət küçəsi 45A",1,40.396564,49.835395,1,0,0,0,0,,,,
117,Kənddən Şəhərə mağazası,kendden-shehere-magazasi-926,A,"Bakı şəhəri, Səbail rayonu, Nizami küçəsi 92",1,40.467469,49.842208,1,0,0,0,0,,,,
118,Abşeron 2 Hotel (Marriott Hotel),absheron-2-hotel-marriott-hotel-925,A,"Bakı şəhəri, Səbail rayonu, Azadlıq meydanı 674",1,40.374074,49.857329,1,0,0,0,0,,,,
119,PAŞA Həyat,pasha-heyat-924,A,"Bakı şəhəri, Nərimanov rayonu, Mayakovski küçəsi 15",1,40.401256,49.852004,1,1,0,0,0,,,,
120,Port Baku,port-baku-975,A,"Bakı şəhəri, Neftçilər prospekti 153",1,40.376674,49.86148,1,0,0,0,0,,,,
121,Four Season Hotel,four-season-hotel-949,A,"Bakı şəhəri, Neftçilər prospekti",1,40.39399442580431,49.794918430435146,1,0,0,0,0,,,,
122,Pera Group,pera-group-919,A,"Bakı şəhəri, Nizami rayonu, Keşlə qəsəbəsi",1,40.398622,49.901301,1,0,0,0,0,,,,
123,Excelsior Hotel,excelsior-hotel-918,A,"Bakı şəhəri, Heydər Əliyev prospekti 2",1,40.22541296146857,49.557599224086076,1,0,0,0,0,,,,
124,"SDN Plaza Prokon, Glensol",sdn-plaza-prokon-glensol-917,A,"Bakı şəhəri, Nərimanov rayonu, Ələsgər Qayıbov 12",1,40.4165,49.879314,1,0,0,0,0,,,,
125,Bulvar Otel,bulvar-otel-916,A,"Bakı şəhəri, Xəqani Rüstəmov küçəsi 4C",1,40.375525,49.884571,1,0,0,0,0,,,,
126,Baku Medical Plaza,baku-medical-plaza-914,A,"Bakı şəhəri, Babək prospekti 92N",1,40.394626,49.964683,1,0,0,0,0,,,,
128,Abşeron Hotel,absheron-hotel-910,A,"Bakı şəhəri, Səbail rayonu, Azadlıq meydanı 674",1,40.573780814588275,49.691219526838026,1,0,0,0,0,,,,
129,Paşa Sığorta,pasha-sigorta-909,A,"Bakı şəhəri, Səbail rayonu, M.Useynov 61",1,40.357849,49.834055,1,0,1,0,0,,,,
130,Əmlak Xidməti Məkanı,emlak-xidmeti-mekani-908,A,"Bakı şəhəri, Nizami rayonu, Xəlil Rza Ulutürk küçəsi, 2005 məhəllə",1,40.4155943140722,49.77061639505423,1,0,0,0,0,,,,
132,Neftçilər kart mərkəzi filialı,neftciler-kart-merkezi-filiali-906,A,"Bakı şəhəri, Nizami rayonu, R. Rüstəmov küçəsi, 44D",1,40.4095813,49.94246237,1,0,1,0,0,,,,
135,"AzərEnerji ASC, Səbail rayonu",azerenerji-asc-sebail-rayonu-901,A,"Bakı şəhəri, Səbail rayonu, Əbdül Əlizadə küçəsi 10",1,40.36956088,49.83935212,1,0,0,0,0,,,,
136,"Bravo Hipermarket, Koroğlu metrosu",bravo-hipermarket-koroglu-metrosu-900,A,"Bakı şəhəri, Heydər Əliyev prospekti",1,40.41886323,49.91431502,1,0,0,0,0,,,,
137,SOCAR Neft Kəmərləri İdarəsi,socar-neft-kemerleri-idaresi-899,A,"Bakı şəhəri, Xətai rayonu, Xocalı Prospekti 44",1,40.381973,49.870389,1,0,0,0,0,,,,
139,"Karmen, Xırdalan qəsəbəsi",karmen-xirdalan-qesebesi-896,A,"Şamaxı şossesi, Xırdalan qəsəbəsi",1,40.440216,49.757851,1,0,0,0,0,,,,
140,Çıraq Plaza Otel və Biznes Mərkəzi,ciraq-plaza-otel-ve-biznes-merkezi-895,A,"Bakı şəhəri, Tbilisi prospekti 490",1,40.58595016185355,49.667555907832835,1,0,0,0,0,,,,
141,Avromed Çobanzadə,avromed-cobanzade-894,A,"Bakı şəhəri, Çobanzadə küçəsi 238",1,40.402132,49.936896,1,0,0,0,0,,,,
142,Avromed Babək,avromed-babek-893,A,"Bakı şəhəri, Nizami Abdullayev 4",1,40.5873640064149,49.665076840888254,1,0,0,0,0,,,,
143,"McDonald's , F. X. Xoyski 830",mcdonalds-f-x-xoyski-830-892,A,"Bakı şəhəri, Fətəli Xan Xoyski küçəsi 830",1,40.399553,49.849735,1,0,0,0,0,,,,
144,"Norm Sement zavodu, Qaradağ qəsəbəsi",norm-sement-zavodu-qaradag-qesebesi-891,A,"Bakı şəhəri, Qaradağ qəsəbəsi, Salyan şosesi",1,40.38888306396962,49.86480072498418,1,0,0,0,0,,,,
145,"AzərConnect, Heydər Əliyev prospekti",azerconnect-heyder-eliyev-prospekti-890,A,"Bakı şəhəri, Heydər Əliyev prospekti 106A",1,40.164801785858344,49.46335457651243,1,0,0,0,0,,,,
146,"McDonalds, Nərimanov rayonu",mcdonalds-nerimanov-rayonu-889,A,"Bakı şəhəri, Nərimanov rayonu, Təbriz küç. 1959",1,40.342506,49.839482,1,0,0,0,0,,,,
147,"Bilgəh qəsəbəsi, Zaqulba şossesi",bilgeh-qesebesi-zaqulba-shossesi-888,A,"Bakı ş, Bilgəh qəsəbəsi, Zaqulba şossesi 272",1,40.587663,50.061683,1,0,0,0,0,,,,
148,Dəmirçi Plaza,demirci-plaza-887,A,"Bakı ş, Nizami rayonu, Xocalı prospekti 37",1,40.382958,49.871449,1,0,0,0,0,,,,
149,"Azterminalkompleks, Sabunçu rayonu",azterminalkompleks-sabuncu-rayonu-886,A,"Bakı ş, Sabunçu rayonu, Zabrat-Maştağa şossesi 3",1,40.500666,49.96987,1,0,0,0,0,,,,
150,"Optimal Electronics, Yasamal rayonu",optimal-electronics-yasamal-rayonu-885,A,"Bakı şəhəri, Yasamal rayonu, A.M.Şərifzadə 73",1,40.38917697205029,49.80417105634156,1,0,0,0,0,,,,
152,Azərbaycan Dövlət İqtisad Universiteti - Əsas korpus,azerbaycan-dovlet-iqtisad-universiteti-esas-korpus-884,A,"Bakı şəhəri, Səbail rayonu, İstiqlaliyyət küçəsi 61",1,40.36744,49.831941,1,0,1,0,0,,,,
153,Azərbaycan Dövlət İqtisad Universiteti - 4-cü korpus,azerbaycan-dovlet-iqtisad-universiteti-4-cu-korpus-883,A,"Bakı şəhəri, Nərimanov rayonu, H. Əliyev küçəsi 135A",1,40.404897,49.859765,1,0,0,0,0,,,,
154,Azərsu ASC,azersu-asc-880,A,"Yasamal rayonu, Heydər Əliyev prospekti 67",1,40.404547,49.806573,1,0,0,0,0,,,,
155,Bakı logistika mərkəzi (Abşeron Port),baki-logistika-merkezi-absheron-port-878,A,"Qaradağ rayonu, Lökbatan qəsəbəsi",1,40.326666,49.75998,1,0,1,0,0,,,,
156,Dövlət Miqrasiya Xidməti,dovlet-miqrasiya-xidmeti-876,A,"Bakı şəhəri, Binəqədi rayonu, Binəqədi şossesi 202",1,40.427924,49.840276,1,0,0,0,0,,,,
157,Bakı Dövlət Universiteti Əsas Girişi,baki-dovlet-universiteti-esas-girishi-875,A,"Bakı şəhəri, Yasamal rayonu, Z.Xəlilov küç. 23",1,40.373133,49.812139,1,0,0,0,0,,,,
158,"Dövlət Sərhəd Xidməti, Türkan qəsəbəsi",dovlet-serhed-xidmeti-turkan-qesebesi-874,A,"Bakı şəhəri, Xəzər rayonu, Türkan qəsəbəsi",1,40.363959,50.156772,1,1,0,0,0,,,,
159,Xarici Dillər Universiteti,xarici-diller-universiteti-870,A,"Bakı şəhəri, Nərimanov rayonu, Təbriz küç. 81",1,40.37899641287628,49.847006006925305,1,0,1,0,0,,,,
162,"Bravo filialı 2, (20 Yanvar m-sı yaxınlığı)",bravo-filiali-2-20-yanvar-m-si-yaxinligi-850,A,"Bakı şəh., Nəsimi rayonu, Tbilisi prospekti, məhəllə 3007 (20 Yanvar Bravo hipermarketinin daxilində)",1,40.401538531844544,49.810804473428526,1,0,0,0,0,,,,
163,Yasamal filialı,yasamal-filiali-849,A,"Bakı şəhəri, Yasamal rayonu, Landau küçəsi 6",1,40.37247909866426,49.8169990679617,1,0,0,0,0,,,,
164,Binəqədi Filialı,bineqedi-filiali-848,A,"Nəsimi rayonu, Asif Məhərrəmov küçəsi 174",1,40.40979,49.80797,1,0,0,1,0,,,,
165,24/7 Elektron Xidmət Mərkəzi N1,247-elektron-xidmet-merkezi-n1-846,A,"Nəsimi rayonu, Şamil Əzizbəyov  küçəsi 158",1,40.385146909740925,49.8281260712361,1,0,0,0,0,,,,
166,24/7 Elektron Xidmət Mərkəzi N1,247-elektron-xidmet-merkezi-n1-847,A,"Nəsimi rayonu, Şamil Əzizbəyov  küçəsi 158",1,40.414362,49.903507,1,0,0,0,0,,,,
167,Əhmədli filialı,ehmedli-filiali-841,A,"Xətai rayonu, Sarayevo küçəsi, 7Q",1,40.38656473,49.95714007,1,0,0,0,0,,,,
168,Əhmədli filialı,ehmedli-filiali-842,A,"Xətai rayonu, Sarayevo küçəsi, 7Q",1,40.38656325,49.95704281,1,1,0,0,0,,,,
169,24/7 Elektron Xidmət Mərkəzi N2,247-elektron-xidmet-merkezi-n2-837,A,"Nərimanov rayonu, A.Neymətulla küçəsi 54",1,40.405069,49.870432,1,0,0,0,0,,,,
170,24/7 Elektron Xidmət Mərkəzi N2,247-elektron-xidmet-merkezi-n2-840,A,"Nərimanov rayonu, A.Neymətulla küçəsi 54",1,40.40515751,49.87038923,1,0,0,0,0,,,,
171,"Qara Qarayev filialı, ATM 1",qara-qarayev-filiali-atm-1-839,A,"Nizami rayonu, Qara Qarayev prospekti 29",1,40.41790594,49.93479375,1,0,0,0,0,,,,
172,Qara Qarayev filialı,qara-qarayev-filiali-838,A,"Nizami rayonu, Qara Qarayev prospekti",1,40.41794279,49.93449966,1,0,0,0,0,,,,
173,İçərişəhər filialı,icerisheher-filiali-836,A,"Səbail rayonu, Bünyad Sərdarov küçəsi 14",1,40.50209073214195,49.99385592335687,1,0,0,0,0,,,,
176,Bakıxanov ticarət mərkəzi,bakixanov-ticaret-merkezi-129,A,Sabunçu ray. Ş.Kamilov  Küç 7,1,40.442168,50.092061,1,0,0,0,0,,,,
177,Sabunçu filialı,sabuncu-filiali-128,A,"Sabunçu rayonu, Bаkıхаnov qəsəbəsi, Ə. Ağayev küçəsi 41",1,40.432568,49.960577,1,0,1,0,0,,,,
179,8-ci mikrorayon filialı,8-ci-mikrorayon-filiali,A,"Bakı şəh Binəqədi rayonu, 8 mkr, İ. Dadaşov küçəsi 3158/3156-cı məhəllə",1,40.421959,49.842736,1,0,1,0,0,,,,
180,Binəqədi filialı,bineqedi-filiali-125,A,"Nəsimi rayonu, Asif Məhərrəmov küçəsi 174",1,40.409798,49.80772,1,0,1,1,0,,,,
182,"Kapital Bank, 28 May",kapital-bank-28-may-831,A,"Nəsimi rayonu, Füzuli küçəsi 71",1,40.37927579,49.845022,1,0,0,0,0,,,,
183,"""İQLİM"" EİM-in inzibati binası",iqlim-eim-in-inzibati-binasi-36,A,"Xəzər rayonu, Albalılıq dairəsi, keçid 1349",1,40.528107,50.07001628,1,0,0,0,0,,,,
184,"Kapital Bank, 28 May",kapital-bank-28-may-832,A,"Nəsimi rayonu, Füzuli küçəsi 71",1,40.37927579,49.845022,1,0,0,0,0,,,,
185,"Kapital Bank, 28 May",kapital-bank-28-may-834,A,"Nəsimi rayonu, Füzuli küçəsi 71",1,40.37927579,49.845022,1,0,0,0,0,,,,
186,"Bizim market, Bülbülə",bizim-market-bulbule-826,A,"Surxanı ray., Bülbülə qəs., Səttər Bəhlulzadə küç. 50",1,40.433029,49.983577,1,0,0,0,0,,,,
188,"Yeni Suraxanı qəsəbəsi, Market",yeni-suraxani-qesebesi-market-822,A,"Suraxanı rayonu, Yeni Suraxanı qəsəbəsi, 14 iyul küç.12 (Market)",1,40.37065958,49.83901017,1,0,0,0,0,,,,
189,"Nəsimi rayonu, Araz Market",nesimi-rayonu-araz-market-821,A,"Nəsimi rayonu, S.Vurğun 134 (Araz Market)",1,40.40128,49.831547,1,0,1,0,0,,,,
190,Azərbaycan Tibb Universiteti,azerbaycan-tibb-universiteti-820,A,"Nəsimi rayonu, S.Vurğun 167 (Azərbaycan Tibb Universiteti)",1,40.394917,49.833338,1,0,1,0,0,,,,
191,Bakıxanov filialı,bakixanov-filiali-817,A,Sabunçu ray. Bakıxanov qəs. S. Qocayev küç. 13,1,40.41672924431894,49.96523599558729,1,0,1,0,0,,,,
192,Xəzər  ray. lezzet şirniyyat evi,xezer-ray-lezzet-shirniyyat-evi-815,A,"Bakı şəh. Xəzər ray., Yesenin küç. 56 (“Ləzzət Cake House”)",1,40.487128,50.165265,1,0,1,0,0,,,,
193,Aqrolizinq ASC,aqrolizinq-asc-814,A,Sabunçu  ray.  Bakıxanov qəs.  B. Bünyadov küç. 12,1,40.427352449998786,49.939254852028874,1,0,0,0,0,,,,
194,Azərbaycan Dövlət Mədəniyyət və İncəsənət Universiteti,azerbaycan-dovlet-medeniyyet-ve-incesenet-universiteti-813,A,"Yasamal ray, İnşaatçılar pr. 39 (ADMİU)",1,40.379928,49.820669,1,0,0,0,0,,,,
195,Azərbaycan Dövlət Neft və Sənaye Universiteti,azerbaycan-dovlet-neft-ve-senaye-universiteti-812,A,"Nəsimi  ray, Dilarə Əliyeva küç. 227",1,40.377541,49.84729,1,0,0,0,0,,,,
196,Əmanətlərin Sığortalanması Fondu,emanetlerin-sigortalanmasi-fondu-811,A,Xətai  ray.  Babək pr. 16,1,40.388209,49.876007,1,0,0,0,0,,,,
197,"Araz market, Masazır qəsəbəsi",araz-market-masazir-qesebesi-810,A,"Abşeron rayonu, Masazır qəsəbəsi, Əliağa Vahid küçəsi",1,40.478849,49.75331,1,0,0,0,0,,,,
198,Bravo market,bravo-market-787,A,"Xətai rayonu, Babək prospekti ilə Nəcəfqulu Rəfiyev küçəsinin kəsişməsi",1,40.388256,49.87425,1,0,0,0,0,,,,
199,"Xüsusi Müalicə Sağlamlıq Kompleksi, Badamdar qəsəbəsi",xususi-mualice-saglamliq-kompleksi-badamdar-qesebesi-782,A,"Səbail rayonu, Badamdar qəsəbəsi, 31-ci Badamdar şossesi",1,40.353052,49.809492,1,0,0,0,0,,,,
202,"Araz market, Yeni Günəşli qəsəbəsi",araz-market-yeni-guneshli-qesebesi-774,A,"Suraxanı rayonu, Yeni Günəşli qəsəbəsi, V yaşayış massivi",1,40.383624,49.982603,1,0,0,0,0,,,,
204,"Makromart, Nərimanov",makromart-nerimanov-758,A,"Nərimanov rayonu, Ülvi Bünyadzadə küçəsi 17",1,40.38879,49.849727,1,0,0,0,0,,,,
205,Bilgah Beach Hotel,bilgeh-beach-hotel-972,A,"Xəzər rayonu, Bilgəh qəsəbəsi, Qələbə küçəsi 94",1,40.38631688178687,49.94808675204608,1,0,0,0,0,,,,
206,"Oba Market, M.Ə.Rəsulzadə qəs.",oba-market-meresulzade-qes-754,A,"Binəqədi rayonu, M.Ə. Rəsulzadə qəs., Arif Hüseynov küçəsi",1,40.436135,49.841961,1,0,0,0,0,,,,
207,Bakı Dövlət Universiteti,baki-dovlet-universiteti-751,A,"Yasamal rayonu, Z. Xəlilov küçəsi 23",1,40.374622,49.811245,1,0,0,0,0,,,,
210,Suraxanı Neft Əməliyyat Şirkəti,suraxani-neft-emeliyyat-shirketi-743,A,"Suraxanı rayonu, Əmircan qəsəbəsi, Xanlar Ələkbərov küçəsi 20",1,40.422035,50.004919,1,0,0,0,0,,,,
211,"Bolmart, Salamzadə küçəsi",bolmart-salamzade-kucesi-742,A,"Yasamal rayonu, Ə. Salamzadə küçəsi 1058",1,40.398564,49.815984,1,1,0,0,0,,,,
212,Veysəloğlu Şirkətlər Qrupu,veyseloglu-shirketler-qrupu-739,A,"Nizami rayonu, Keşlə qəsəbəsi, 2-ci Eninə küçəsi 2",1,40.403691,49.89388,1,0,0,0,0,,,,
213,Yasamal Rayon Mühafizə İdarəsi,yasamal-rayon-muhafize-idaresi-738,A,"Yasamal rayonu, Əsəd Əhmədov küçəsi 26B",1,40.39384,49.803719,1,0,0,0,0,,,,
214,Hökümət Evi,hokumet-evi-737,A,"Səbail rayonu, Üzəyir Hacıbəyli küşəsi 80",1,40.374136,49.85196,1,0,0,0,0,,,,
215,Balaxanı Neft Şirkəti,balaxani-neft-shirketi-736,A,"Sabunçu r-nu, Sabunçu qəsəbəsi, Seyid Hüseyn küçəsi 5",1,40.442584,49.945713,1,0,0,0,0,,,,
216,"Araz market, Hövsan",araz-market-hovsan-734,A,"Suraxanı rayonu, Hövsan qəsəbəsi, İlqar Əhlimanov küçəsi 225",1,40.360502,50.080063,1,0,0,0,0,,,,
217,Badamdar filialı,badamdar-filiali-731,A,Badamdar qəsəbəsi Mikayıl Müşfiq küçəsi 1C,1,40.40080875,49.853639,1,0,0,0,0,,,,
218,Azərbaycan avtomobil yolları dövlət agentliyi,azerbaycan-avtomobil-yollari-dovlet-agentliyi-730,A,"Binəqədi rayonu, Biləcəri qəsəbəsi, R. İsmayılov küçəsi 20/25",1,40.423698,49.802321,1,0,0,0,0,,,,
219,Vergilər Nazirliyi yanında Milli Gəlirlər Departamenti,vergiler-nazirliyi-yaninda-milli-gelirler-departamenti-728,A,"Nizami rayonu, Heydər Əliyev prospekti 105",1,40.41212,49.895439,1,0,0,0,0,,,,
220,Azercell Telekom MMC-Müştəri Xidmətləri,azercell-telekom-mmc-mushteri-xidmetleri-727,A,"Yasamal rayonu, Bəsti Bağırova küçəsi 2",1,40.383542,49.823647,1,0,0,0,0,,,,
221,Azərbaycan Memarlıq və İnşaat Universiteti,azerbaycan-memarliq-ve-inshaat-universiteti-726,A,"Yasamal rayonu, A. Sultanova küçəsi 11",1,40.369344,49.812799,1,0,0,0,0,,,,
222,Azərbaycan Dövlət Neft və Sənaye Universiteti giris 1,azerbaycan-dovlet-neft-ve-senaye-universiteti-giris-1-725,A,"Nəsimi rayonu, Azadliq pr 20",1,40.378149,49.848406,1,0,0,0,0,,,,
223,"A.Neymətulla küçəsi 23, Nərimanov",aneymetulla-kucesi-23-nerimanov-724,A,"Nərimanov rayonu, A.Neymətulla küçəsi 23",1,40.397882,49.877167,1,1,0,0,0,,,,
224,"Q.Abbasov küşəsi 13, Bayıl qəsəbəsi",qabbasov-kushesi-13-bayil-qesebesi-723,A,"Səbail rayonu, Bayıl qəsəbəsi, Qurban Abbasov küşəsi 13",1,40.469913,49.62663,1,0,0,0,0,,,,
225,"Tayqa ticarət mərkəzi, Binəqədi rayonu",tayqa-ticaret-merkezi-bineqedi-rayonu-722,A,"Binəqədi rayonu, 7-ci mkr., Abay Kunanbayev küçəsi 312",1,40.431738,49.851662,1,0,0,0,0,,,,
226,Məmmədli İcra nümayəndəliyi,memmedli-icra-numayendeliyi-719,A,Bakı ş. Abşeron ray. Məmmədli qəsəbəsi,1,40.51046924858607,49.91927396735568,1,0,0,0,0,,,,
227,ADA Universiteti,ada-universiteti-941,A,"Nərimanov rayonu, Əhmədbəy Ağaoğlu küçəsi 11",1,40.509253489080784,50.16296028936152,1,0,1,0,0,,,,
228,Bakı Beynəlxalq Dəniz Ticarət Limanı,baki-beynelxalq-deniz-ticaret-limani-714,A,"Qaradağ rayonu, Ələt qəsəbəsi",1,39.979957,49.441303,1,0,0,0,0,,,,
229,"Bravo Hipermarket, Əhmədli qəsəbəsi",bravo-hipermarket-ehmedli-qesebesi-713,A,"Xətai rayonu, Əhmədli qəsəbəsi, Ramiz Quliyev küçəsi 4",1,40.375128,49.945348,1,0,0,0,0,,,,
230,Azərbaycan Texniki Universiteti,azerbaycan-texniki-universiteti-712,A,"Yasamal rayonu, H. Cavid prospekti 25",1,40.369903,49.814939,1,0,1,0,0,,,,
231,Azərbaycan Dövlət Pedaqoji Universiteti,azerbaycan-dovlet-pedaqoji-universiteti-711,A,"Nəsimi rayonu, Ü. Hacıbeyli küçəsi 68",1,40.374269,49.84782,1,0,0,0,0,,,,
232,"Xəzər market, Qaraçuxur qəsəbəsi",xezer-market-qaracuxur-qesebesi-710,A,"Suraxanı rayonu, Qaraçuxur qəs., C. Qurbanov küçəsi, məh. 4057/4060",1,40.490556,49.75337,1,0,0,0,0,,,,
233,Koroğlu metro stansiyası,koroglu-metro-stansiyasi-709,A,"""Koroğlu"" metro stansiyası",1,40.420426,49.917966,1,0,0,0,0,,,,
234,"Makromart, Binəqədi rayonu",makromart-bineqedi-rayonu-705,A,"Binəqədi rayonu, Səttar Bəhlulzadə küçəsi 14",1,40.413083,49.828143,1,0,0,0,0,,,,
235,"Oba Market, Biləcəri qəsəbəsi",oba-market-bileceri-qesebesi-704,A,"Binəqədi rayonu, Biləcəri qəsəbəsi, məhəllə 50-5768",1,40.439613,49.810512,1,0,0,0,0,,,,
236,"Nursell market, Binəqədi rayonu",nursell-market-bineqedi-rayonu-699,A,"Binəqədi rayonu, Əcəmi Naxçıvani küçəsi 18A",1,40.415954,49.839832,1,1,0,0,0,,,,
237,"Qaradağ rayonu, Qobustan qəsəbəsi, Salyan şossesi Tabriz market",qaradag-rayonu-qobustan-qesebesi-salyan-shossesi-tabriz-market-698,A,"Qaradağ rayonu, Qobustan qəsəbəsi, Salyan şossesi",1,40.088136,49.416693,1,0,0,0,0,,,,
238,Qara Qarayev filialı,qara-qarayev-filiali-695,A,"Nizami rayonu, Qara Qarayev prospekti 29",1,40.417904,49.934665,1,0,1,0,0,,,,
239,"Holcim zavod, Sahil qəsəbəsi",holcim-zavod-sahil-qesebesi-693,A,"Bakı şəhəri, Sahil qəsəbəsi, Salyan Şossesi",1,40.251055,49.447787,1,0,0,0,0,,,,
260,"OBA market, Keşlə qəsəbəsi",oba-market-keshle-qesebesi-593,A,"Nizami rayonu, Keşlə qəsəbəsi, Mirzə Ələkbər Sabir küçəsi 33",1,40.394027,49.895175,1,0,0,0,0,,,,
261,"Bolmart, Nəsimi rayonu",bolmart-nesimi-rayonu-585,A,"Bakı şəhəri, Nəsimi rayonu, Səməd Vurğun küçəsi 75",1,40.384029,49.838089,1,0,1,0,0,,,,
262,"Poçt, Balaxanı qəsəbəsi",poct-balaxani-qesebesi-583,A,"Sabunçu r-nu, Balaxanı qəsəbəsi, M.Ə. Sabir küçəsi 1",1,40.45912294703117,49.92292304844001,1,1,0,0,0,,,,
263,"Favorit market, Neapol dairəsinin yanı",poct-5-lokbatan-qesebesi-65,A,"Bakı şəhəri, Xətai rayonu, Ə.Şıxlinski küçəsi 2942A",1,40.381038,49.965178,1,0,0,0,0,,,,
264,Gənclik Mall,genclik-mall-581,A,"Fətəli Xan Xoyski pr. 38, Gənclik Mall TM-nin -1-ci mərtəbəsi",1,40.399986,49.852837,1,0,1,0,0,,,,
265,ATM köşkü,qacqinkom-568,A,"Bakı şəh,Tbilisi pr. 129",1,40.384488,49.787804,1,1,0,0,0,,,,
266,"Qobu Park yaşayış massivi, Qaradağ rayonu",qobu-park-yashayish-massivi-qaradag-rayonu-192,A,"Bakı şəhəri, Qaradağ rayonu, Lökbatan Qaradağ yolu, 3-cü km",1,40.346505,49.749795,1,1,0,0,0,,,,
267,"Rahat market, Binə qəs",rahat-market-bine-qes-173,A,"Xəzər rayonu, Binə qəs., Sovxoz şossəsi 3-cü km",1,40.423066,50.103744,1,0,0,0,0,,,,
268,Yasamal filialı,yasamal-filiali-172,A,"Bakı şəhəri, Yasamal rayonu, Landau küçəsi 6",1,40.37247909866426,49.8169990679617,1,0,1,0,0,,,,
269,"Lukoyl YDM, Digah qəsəbəsi",lukoyl-ydm-digah-qesebesi-170,A,"Abşeron rayonu, Digah qəsəbəsi",1,40.484697,49.865566,1,0,0,0,0,,,,
270,"Rahat market, Maştağa qəsəbəsi",rahat-market-mashtaga-qesebesi-155,A,"Sabunçu rayonu, Maştağa qəsəbəsi, Nizami küçəsi 2B",1,40.528319,49.99792,1,0,0,0,0,,,,
271,Biləcəri dəmiryol stansiyası,bileceri-demiryol-stansiyasi-154,A,"Binəqədi rayonu, Biləcəri qəsəbəsi, Y. Hüseynov küçəsi 18",1,40.432045,49.808092,1,0,0,0,0,,,,
272,Nəsimi Rayon Mühafizə İdarəsi,nesimi-rayon-muhafize-idaresi-151,A,"Nəsimi rayonu, S.Vurğun küçəsi 112",1,40.393862,49.835105,1,0,0,0,0,,,,
273,"5 saylı ASAN xidmət mərkəzi, Nizami rayonu",5-sayli-asan-xidmet-merkezi-nizami-rayonu-149,A,"Nizami rayonu, H.Əliyev prospekti 115",1,40.417519,49.908408,1,0,0,0,0,,,,
274,Azərbaycan Dəmir Yolları QSC,azerbaycan-demir-yollari-qsc-148,A,"Nəsimi rayonu, D.Əliyeva küçəsi 230",1,40.37690989037636,49.835694071011645,1,0,0,0,0,,,,
275,24/7 Elektron Xidmət Mərkəzi N2,247-elektron-xidmet-merkezi-n2-147,A,"Nərimanov rayonu, A.Neymətulla küçəsi 54",1,40.40504312,49.87049888,1,0,1,0,0,,,,
276,"Füzuli market, Qaradağ rayonu",fuzuli-market-qaradag-rayonu-146,A,"Bakı şəhəri, Qaradağ rayonu, Ümid qəsəbəsi",1,40.198405,49.507495,1,0,0,0,0,,,,
277,İçərişəhər filialı,icerisheher-filiali-144,A,"Bakı şəh Səbail rayonu, Bünyad Sərdarov küçəsi 14",1,40.39319784998859,49.92725101157756,1,0,1,0,0,,,,
278,Gənclik filialı,genclik-filiali-143,A,"Nərimanov rayonu, Həsən Əliyev küçəsi, 889-cu məhəllə, ev 82",1,40.401972,49.848212,1,0,1,0,0,,,,
279,Bakıelektrikşəbəkə,bakielektrikshebeke-142,A,"Nərimanov rayonu, Ə. Qayıbov küçəsi 8",1,40.414386,49.880714,1,0,0,0,0,,,,
280,"Rahat market, Nizami rayonu",rahat-market-nizami-rayonu-140,A,"Nizami rayonu, R.Rüstəmov küçəsi ilə Şərifli küçəsinin kəsişməsi",1,40.578384,49.650996,1,0,0,0,0,,,,
281,"Rahat market, Müşfiqabad qəsəbəsi",rahat-market-mushfiqabad-qesebesi-139,A,"Qaradağ rayonu, Müşfiqabad qəsəbəsi, Bakı-Şamaxı yolunun 16-cı km",1,40.460218,49.656112,1,0,0,0,0,,,,
282,Sərham Market,serham-market-137,A,"Sabunçu rayonu, Bakıxanov qəsəbəsi, Y.Əliyev küçəsi 37",1,40.436693,49.959399,1,0,0,0,0,,,,
283,Park Bulvar,park-bulvar-136,A,"Səbail rayonu, Neftçilər prospekti 92",1,40.3907,49.834316,1,0,0,0,0,,,,
284,Qaradağ filialı,qaradag-rayon-filiali-130,A,"Qaradağ rayonu, Lökbatan qəsəbəsi, 28 May küçəsi",1,40.320967,49.737982,1,0,1,0,0,,,,
285,"Sarı Market, Biləcəri qəsəbəsi",sari-market-bileceri-qesebesi-124,A,"Bakı şəhəri, Binəqədi rayonu, Biləcəri qəsəbəsi",1,40.441074,49.832039,1,1,0,0,0,,,,
286,Əhmədli filialı,ehmedli-filiali-123,A,"Xətai rayonu, Sarayevo küçəsi, 7Q",1,40.38656917,49.95700391,1,0,1,0,0,,,,
287,Nərimanov filialı,nerimanov-rayon-filiali-121,A,"Nərimanov rayonu, Əliyar Əliyev küçəsi 15",1,40.401187,49.881676,1,0,1,0,0,,,,
288,Xətai filialı,xetai-filiali-120,A,"Xətai rayonu, S.Orucov küçəsi 12",1,40.379852,49.865684,1,0,1,0,0,,,,
289,Memar Əcəmi metro stansiyası,memar-ecemi-metro-stansiyasi-118,A,"""Memar Əcəmi"" metro stansiyası",1,40.410444,49.814553,1,0,0,0,0,,,,
290,"Araz market, BDU",araz-market-bdu-116,A,"Yasamal rayonu, Z. Xəlilov küçəsi 38A",1,40.37755760606438,49.81214311189182,1,0,0,0,0,,,,
291,"Araz market, Statistika komitəsi",araz-market-statistika-komitesi-115,A,"Yasamal rayonu, İnşaatçılar prospekti 31",1,40.383926,49.822778,1,0,1,0,0,,,,
292,"Araz market, Buzovna qəsəbəsi",araz-market-buzovna-qesebesi-114,A,"Xəzər rayonu, Buzovna qəsəbəsi H. Eyvazov küçəsi 47",1,40.516739,50.101837,1,0,0,0,0,,,,
293,"Araz market, Maştağa qəsəbəsi",araz-market-mashtaga-qesebesi-113,A,"Sabunçu rayonu, Maştağa qəsəbəsi, Zabrat-Maştağa yolu 27 KM",1,40.506678,49.97556,1,0,0,0,0,,,,
294,"Rahat market, Qala qəsəbəsi",rahat-market-qala-qesebesi-112,A,"Xəzər rayonu, Qala qəsəbəsi, Qala küçəsi 15",1,40.474614,50.109534,1,0,0,0,0,,,,
301,"Nicat market, Digah kəndi",nicat-market-digah-kendi,A,"Abşeron rayonu, Digah kəndi, H.Rəhmanov küçəsi 4A",2,40.492508,49.865331,1,0,0,0,0,,,,
302,"Qarabağ market, Ağcabədi rayonu",qarabag-market-agcabedi-rayonu-991,A,"Ağcabədi rayonu, 1 saylı qəsəbə",3,40.052522,47.40919,1,0,0,0,0,,,,
311,Ağcabədi filialı,agcabedi-rayon-filiali-388,A,"Ağcabədi rayon, F. Əlizadə küçəsi 5",3,40.052417,47.460606,1,0,0,0,0,,,,
334,Ağsu  filialı,agsu-rayon-filiali,A,"Ağsu rayon, H. Əliyev küçəsi 109",7,40.567021,48.402823,1,0,0,0,0,,,,
335,"Səncərədi kəndi, Market",senceredi-kendi-market-806,A,"Astara rayonu, Səncərədi kəndi",8,38.465206,48.810206,1,0,0,0,0,,,,
338,"Şahin Supermarket, Kijəbə kəndi",shahin-supermarket-kijebe-kendi-506,A,"Astara rayonu, Kijəbə kəndi",8,38.532666,48.806108,1,0,0,0,0,,,,
339,"Ərçivan kəndi, market",ercivan-kendi-market-505,A,"Astara rayonu, Ərçivan kəndi",8,38.499255,48.830995,1,0,0,0,0,,,,
340,"Astara, ""Yeni"" market",astara-yeni-market-504,A,"Astara şəhəri, H. Əliyev prospekti",8,38.464665179643276,48.87258932312793,1,0,0,0,0,,,,
341,"Pensər kəndi, ""Ballı"" market",penser-kendi-balli-market-503,A,"Astara rayonu, Pensər kəndi",8,38.602874,48.813277,1,0,0,0,0,,,,
342,Astara filialı,astara-rayon-filiali-502,A,"Astara şəhəri, H. Əliyev prospekti 71",8,38.45038,48.874116,1,0,0,0,0,,,,
343,Babək filialı,babekbabek-filiali-989,A,"Naxçıvan MR, Babək rayonu, H. Əliyev prospekti 26",9,39.158048,45.446225,1,0,0,0,0,,,,
345,"Cəhri kəndi, İcra Nümayəndəliyi",cehri-kendi-icra-numayendeliyi-237,A,"Naxçıvan MR, Babək rayonu, Cəhri kəndi",9,39.345470,45.415655,1,0,0,0,0,,,,
348,"Kərimbəyli qəsəbəsi, İcra Nümayəndəliyi",kerimbeyli-qesebesi-icra-numayendeliyi-176,A,"Naxçıvan MR, Babək rayonu, Kərimbəyli kəndi",9,39.255596,45.454198,1,0,0,0,0,,,,
349,Binə Ticarət Mərkəzi,bine-ticaret-merkezi-1012,A,Baki ş. Səlyan şosesi,1,40.409088503283584,49.84755501155645,1,0,0,0,0,,,,
350,Sedərək ticarət söbəsi,sederek-ticaret-sobesi-1011,A,Baki-Ələt-Qazax-Gürcustan yolu 1063,1,40.324262,49.779551,1,0,0,0,0,,,,
353,"""Zift"" Supermarket, Zaqatala şəhəri",zift-supermarket-zaqatala-sheheri-285,A,"Zaqatala şəhəri, Nizami küçəsi 35",68,41.631885,46.650748,1,0,0,0,0,,,,
354,"Bazarstore Supermarket, Zaqatala şəhəri",bazarstore-supermarket-zaqatala-sheheri-284,A,"Zaqatala şəhəri,  Molla Vəli Vidadi küçəsi 3",68,41.629665,46.643903,1,0,0,0,0,,,,
355,Zaqatala  filialı,zaqatala-filiali-283,A,"Zaqatala şəhəri, H. Əliyev prospekti 169",68,41.630385,46.639276,1,0,0,0,0,,,,
356,"Orxan Electronics, Zərdab rayonu",orxan-electronics-zerdab-rayonu-939,A,"Zərdab rayonu, Azərbaycan küçəsi 122",69,40.211689,47.709049,1,0,0,0,0,,,,
357,Sunny market,sunny-market-784,A,"Zərdab şəhəri, Samir Abdullayev 39A",69,40.630144,47.464821,1,0,0,0,0,,,,
358,Zərdab filialı,zerdab-filiali-700,A,"Zərdab rayonu, H.Əliyev prospekti 17",69,40.220648,47.710186,1,0,0,0,0,,,,
359,"""Aydan Telekom"", Zərdab şəhəri",aydan-telekom-zerdab-sheheri-343hlaz,A,"Zərdab şəhəri, H. Əliyev prospekti 1",69,40.22853227080032,47.7069480618074,1,0,0,0,0,,,,
404,"Araz market, Xırdalan şəh",araz-market-xirdalan-sheh-592,A,"Xırdalan şəh., 28 məhəllə, Mehdi Hüseynzadə küçəsi 7",26,40.455727,49.741585,1,0,1,0,0,,,,
405,Improtex Travel,improtex-travel-4,A,"Səbail rayonu, Nizami küçəsi 66",1,40.45351264656224,49.74019896505457,1,0,0,0,0,,,,
406,"Pətək market, Ramanı qəsəbəsi",etek-market-ramani-qesebesi-5,A,"Bakı şəhəri, Ramanı qəsəbəsi, Şuşa şəhərciyi",1,40.468528,50.01434,1,0,0,0,0,,,,
407,"""Azərbaycan"" Nəşriyyatı",azerbaycan-neshriyyati-6,A,"Yasamal rayonu, Mətbuat prospekti 529",1,40.36957232451372,49.809999398272126,1,0,0,0,0,,,,
408,"Zirə, C.Əliyev küçəsi, Market",zire-celiyev-kucesi-market-7,A,"Xəzər rayonu, Zirə qəsəbəsi, Cəlal Əliyev küçəsi",1,40.375522,50.285835,1,1,0,0,0,,,,
409,Xəzər filialı,xezer-filiali-12,A,"Xəzər rayonu, Şüvəlan qəsəbəsi, A.İldırım küçəsi 16",1,40.48635014192187,50.17038722017195,1,0,1,0,0,,,,
410,"Market, Zirə-Pirallahı yolu",market-zire-pirallahi-yolu-13,A,"Xəzər rayonu, Zirə-Pirallahı yolu",1,40.427625,50.208242,1,1,0,0,0,,,,
411,N.Nərimanov metro stansiyası,nnerimanov-metro-stansiyasi-15,A,"""Nəriman Nərimanov"" metro stansiyası",1,40.403011,49.871276,1,0,0,0,0,,,,
412,"Araz market, Binə qəsəbəsi",araz-market-bine-qesebesi-16,A,"Xəzər rayonu, Binə qəsəbəsi, Əli İsazadə küçəsi 5",1,40.449923,50.087725,1,1,0,0,0,,,,
413,"Albalı market, Buzovna qəsəbəsi",albali-market-buzovna-qesebesi-17,A,"Xəzər rayonu,Buzovna qəsəbəsi, M.Ə. Sabir küçəsi 22",1,40.517702,50.070758,1,0,0,0,0,,,,
414,"Favorit Market, Buzovna",favorit-market-buzovna-19,A,"Buzovna qəsəbəsi, Rasim İmanov küçəsi 22A",1,40.527141,50.097978,1,0,0,0,0,,,,
415,Əmlak Məsələləri Dövlət Komitəsi,emlak-meseleleri-dovlet-komitesi-21,A,"Xətai rayonu, Y.Səfərov küçəsi 2",1,40.383338,49.86429,1,0,0,0,0,,,,
416,"Market, Qala qəsəbəsi",market-qala-qesebesi-22,A,"Xəzər rayonu, Qala qəsəbəsi, Sülh küçəsi 36",1,40.439403,50.172426,1,1,0,0,0,,,,
417,Ali Hərbi Məktəb,ali-herbi-mekteb-18,A,"Xətai rayonu, Naximov küçəsi 128",1,40.343227,49.964301,1,0,0,0,0,,,,
418,"56 saylı Poçt şöbəsi, Türkan Türkan qəsəbəsi",56-sayli-poct-shobesi-turkan-turkan-qesebesi-24,A,"Xəzər rayonu, Türkan qəsəbəsi, Xanlar küçəsi 29",1,40.365394,50.22301,1,1,0,0,0,,,,
419,İnşaatçılar metro stansiyası,inshaatcilar-metro-stansiyasi-25,A,"""İnşaatçılar"" metro stansiyası",1,40.391697,49.80231,1,0,0,0,0,,,,
420,"Makromart, Bakıxanov qəs",makromart-bakixanov-qes-26,A,"Sabunçu rayonu, Bakıxanov qəs., S.Mehmandarov küçəsi 28",1,40.424289,49.959763,1,0,1,0,0,,,,
421,"İstiqlaliyyət küç, Nar mobile",istiqlaliyyet-kuc-nar-mobile-30,A,"Səbail rayonu, İstiqlaliyyət küçəsi 43",1,40.324262,49.779551,1,0,0,0,0,,,,
422,"Rahat market, Azadlıq pr.",rahat-market-azadliq-pr-31hl,A,"Binəqədi rayonu, S.S.Axundov küçəsi 3G",1,40.425792,49.843827,1,0,0,0,0,,,,
423,Nəsimi metro stansiyası,nesimi-metro-stansiyasi-33hl,A,"""Nəsimi"" metro stansiyası",1,40.424451,49.823987,1,0,0,0,0,,,,
424,Azadlıq Prospekti metro stansiyası,azadliq-prospekti-metro-stansiyasi-34hl,A,"""Azadlıq Prospekti"" metro stansiyası",1,40.425226,49.842249,1,0,0,0,0,,,,
425,"Sarı Market, Yeni Yasamal",sari-market-yeni-yasamal-38,A,"Yasamal rayonu, Y.Yasamal, Xiyabani 1",1,40.401026,49.797352,1,0,0,0,0,,,,
426,Mincivan ticarət mərkəzi,mincivan-ticaret-merkezi-40,A,"Xətai rayonu, M.Rüstəmov küçəsi 24/20",1,40.387380559181665,49.96159514550303,1,0,0,0,0,,,,
427,"Oba market, 4-cü mkr.",oba-market-4-cu-mkr-41,A,"Nəsimi rayonu, 20 Yanvar küçəsi 40B",1,40.4152,49.814193,1,1,0,0,0,,,,
428,Socar Petrolium,socar-petrolium-42,A,"Pirallahı qəsəbəqəsi, Məşədi Əzizbəyov küçəsi 22",1,40.458197,50.336303,1,0,0,0,0,,,,
429,"Hobby market, Əhmədli",hobby-market-ehmedli-46,A,"Xətai rayonu, Aşıq Ələsgər küçəsi 2",1,40.543586,49.662951,1,1,1,0,0,,,,
430,"Ballı market, Y.Günəşli qəsəbəsi",balli-market-yguneshli-qesebesi-47,A,"Yeni Günəşli qəsəbəsi, D yaşayış massivi, 12 nömrəli binanın arxası",1,40.376322,49.978083,1,1,0,0,0,,,,
431,"Favorit market, Həzi Aslanov",favorit-market-hezi-aslanov-48,A,"Xətai rayonu, Gəncə prospekti, məhəllə 29/42",1,40.367565,49.95975,1,0,0,0,0,,,,
432,Həzi Aslanov metro stansiyası,hezi-aslanov-metro-stansiyasi-49,A,"""Həzi Aslanov"" metro stansiyası",1,40.372059,49.953732,1,0,0,0,0,,,,
433,"Zığ yolu, market",zig-yolu-market-50,A,"Xətai rayonu, Zığ şossesi 29",1,40.36514227286476,49.94861383532852,1,0,0,0,0,,,,
434,Xalqlar Dostluğu metro stansiyası,xalqlar-dostlugu-metro-stansiyasi-51,A,"""Xalqlar Dostluğu"" metro stansiyası",1,40.398286,49.95152,1,0,0,0,0,,,,
435,"Bolmart, 9 mkr.",bolmart-9-mkr-52,A,"Binəqədi rayonu, M. Cəlal küşəsi 314",1,40.421608,49.815091,1,0,0,0,0,,,,
436,Neftçilər metro stansiyası,neftciler-metro-stansiyasi-55,A,Neftçilər metro stansiyası,1,40.411458,49.942292,1,0,0,0,0,,,,
437,Torpaqların Dövlət İdarə Etməsinin Təşkili Üzrə Dövlət Agentliyi,torpaqlarin-dovlet-idare-etmesinin-teshkili-uzre-dovlet-agentliyi-56,A,"Yasamal rayonu, S.Mehdiyev küçəsi 269",1,40.389774,49.815124,1,0,0,0,0,,,,
438,"Bizim Market, K.Günəşli qəsəbəsi",bizim-market-kguneshli-qesebesi-57,A,"Xətai rayonu, Kiçik Günəşli qəsəbəsi, İ.İsmayılov küçəsi 5C",1,40.362785,49.969885,1,0,0,0,0,,,,
439,"Araz market, Biləcəri qəsəbəsi",araz-market-bileceri-qesebesi-58,A,"Binəqədi rayonu, Biləcəri qəsəbəsi, A.Zeynallı küçəsi",1,40.437376,49.802286,1,0,0,0,0,,,,
440,"Binəqədi rayonu, Köşk",bineqedi-rayonu-koshk-61,A,"Binəqədi rayonu, Binəqədi qəsəbəsi, G. Ramazanov küçəsi 33",1,40.465868,49.828174,1,0,0,0,0,,,,
441,Kürdəxanı market,kurdexani-market-60,A,"Sabunçu rayonu, Kürdəxanı qəsəbəsi, M.Adil küçəsi 30",1,40.551918,49.919029,1,0,0,0,0,,,,
442,"Ballı market, Hövsan qəsəbəsi",balli-market-hovsan-qesebesi-62,A,"Suraxanı rayonu, Hövsan qəsəbəsi, Ə. Qasımov 15A",1,40.365221,50.074369,1,1,0,0,0,,,,
443,"Bağlar market, Qaraçuxur qəsəbəsi",baglar-market-qaracuxur-qesebesi-63,A,"Suraxanı rayonu, Qaraçuxur qəsəbəsi, Bağlar küçəsi 2",1,40.392193,49.971728,1,0,0,0,0,,,,
444,"Rahat market, Sabunçu rayonu",rahat-market-sabuncu-rayonu-64,A,"Sabunçu rayonu, Ə. Məmmədəliyev küçəsi 12",1,40.444369,49.943724,1,0,0,0,0,,,,
445,"Poçt 5, Lökbatan qəsəbəsi",poct-5-lokbatan-qesebesi-6,A,"Qaradağ rayonu, Lökbatan qəsəbəsi, N.Nərimanov küçəsi 16",1,40.331178,49.745858,1,1,0,0,0,,,,
446,"Beko mağazası, Sahil qəs.",beko-magazasi-sahil-qes-67,A,"Qaradağ rayonu, Sahil qəsəbəsi, Dostluq küçəsi 41",1,40.224607,49.577107,1,1,0,0,0,,,,
447,"Market, Ələt",market-elet-69,A,"Qaradağ rayonu,Ələt qəsəbəsi, E.İmanov küçəsi",1,39.955937,49.40448,1,0,0,0,0,,,,
448,"Zərgərpalan küç., Market",zergerpalan-kuc-market-70,A,"Yasamal rayonu, Zərgərpalan küçəsi 7",1,40.39005848,49.80290142,1,1,0,0,0,,,,
449,Buzovna pansionatı,buzovna-pansionati-73,A,"Xəzər rayonu, Buzovna qəsəbəsi, R. İmanov küçəsi 5",1,40.54241,50.086167,1,0,0,0,0,,,,
450,Qarabağ Market,qarabag-market-74,A,Abşeron ray. Mehdiabad qəs.Qarant şəhərciyi,1,40.339524,49.779235,1,0,0,0,0,,,,
451,Kimya Sənaye Parkı,kimya-senaye-parki-913,A,"Sumqayıt şəhəri, Kimyaçılar küçəsi 1",55,40.58748,49.622792,1,0,0,0,0,,,,
452,"Favorit market, Şamaxinka",favorit-market-shamaxinka-76,A,"Binəqədi rayonu, 9-cu mkr., Mir Cəlal küçəsi 57",1,40.418549,49.811117,1,0,0,0,0,,,,
453,"Bizim Market, Yasamal rayonu",bizim-market-yasamal-rayonu-78,A,"Yasamal rayonu, Yeni Yasamal, Ə. Əhmədov küçəsi 19",1,40.393885,49.794554,1,0,0,0,0,,,,
454,"Bizim Market, Badamdar qəsəbəsi",bizim-market-badamdar-qesebesi-79,A,"Səbail rayonu, Badamdar qəsəbəsi, R. İsgəndərov küçəsi 4A",1,40.339403,49.805693,1,0,0,0,0,,,,
455,"Premium market, Nəsimi rayonu",premium-market-nesimi-rayonu-80,A,"Nəsimi rayonu, Süleyman Rüstəm küçəsi 61",1,40.393708,49.839605,1,0,1,0,0,,,,
456,Dövlət Reyestr Xidməti,dovlet-reyestr-xidmeti-81,A,"Nərimanov rayonu, Ə.Əliyev küçəsi 13",1,40.400194,49.880111,1,0,0,0,0,,,,
457,Respublika Diaqnostika Mərkəzi,respublika-diaqnostika-merkezi-83,A,"Yasamal rayonu, Tbilisi prospekti 31/66",1,40.40008,49.810708,1,0,0,0,0,,,,
458,"Qara Qarayev filialı, ATM 2",qara-qarayev-filiali-atm-2-85,A,"Nizami rayonu, Qara Qarayev prospekti 29",1,40.391782402255956,49.86842031964507,1,0,0,0,0,,,,
459,"Grandmart, Q.Qarayev prospekti",grandmart-qqarayev-prospekti-86,A,"Nizami rayonu, 8 km, Q. Qarayev prospekti 46",1,40.414324,49.939808,1,0,0,0,0,,,,
460,"Favorit market, Space TV ilə üzbəüz",favorit-market-space-tv-ile-uzbeuz-1,A,"Yasamal rayonu, H.Cavid pr. 17",1,40.366834,49.816215,1,0,0,0,0,,,,
461,"28 Mall, 1-ci mərt.",28-mall-1-ci-mert-90,A,"Nəsimi rayonu, Füzuli küçəsi ilə Azadlıq prospektinin kəsişməsi",1,40.37899641287628,49.847006006925305,1,0,1,0,0,,,,
462,"Bizim Market, Binəqədi rayonu",bizim-market-bineqedi-rayonu-93,A,"Binəqədi rayonu, İ.Dadaşov küçəsi 60",1,40.413944,49.844063,1,0,0,0,0,,,,
463,1 saylı ASAN xidmət mərkəzi,1-sayli-asan-xidmet-merkezi-94,A,"Nəsimi rayonu, Həsən Əliyev küçəsi 36",1,40.399016,49.835053,1,0,0,0,0,,,,
464,"Madeyra mebel dükanı, Zabrat qəsəbəsi",madeyra-mebel-dukani-zabrat-qesebesi-95,A,"Sabunçu rayonu, Zabrat qəsəbəsi, Babək küçəsi 92A",1,40.47571988172781,49.949369144899215,1,0,0,0,0,,,,
465,"Hərbi hissə, Qaradağ rayonu",herbi-hisse-qaradag-rayonu-98,A,"Qaradağ rayonu, Puta qəsəbəsi",1,40.283864,49.673271,1,0,0,0,0,,,,
466,"Aptek, Biləcəri",aptek-bileceri-99,A,"Binəqədi rayonu, Binəqədi qəsəbəsi, Y. Hüseynov küçəsi, 13A",1,40.431633,49.799451,1,0,0,0,0,,,,
467,Penitensiar Xidmət,penitensiar-xidmet-104,A,"Nəsimi rayonu, Nizami küçəsi 114",1,40.377528,49.859036,1,0,0,0,0,,,,
468,"Qarabağ market, Müşfiqabad qəsəbəsi",qarabag-market-mushfiqabad-qesebesi-105,A,"Qaradağ rayonu, Müşfiqabad qəsəbəsi",1,40.473096,49.612583,1,0,0,0,0,,,,
469,4 saylı ASAN xidmət mərkəzi,4-sayli-asan-xidmet-merkezi-106,A,"Sabunçu rayonu, Bakıxanov qəsəbəsi, Sülh küçəsi 8 A",1,40.421448,49.969298,1,0,1,0,0,,,,
470,"Oba Market, Binəqədi rayonu",oba-market-bineqedi-rayonu-107,A,"Binəqədi rayonu, Məsud Davudoğlu küçəsi 6B",1,40.4231289725337,49.8344824349319,1,0,0,0,0,,,,
471,Bakı Beynəlxalq Avtovağzalı,baki-beynelxalq-avtovagzali-108,A,"Binəqədı rayonu, Biləcəri qəs., Bakı-Sumqayıt şossesi, 3-cü km",1,40.418357,49.797663,1,0,0,0,0,,,,
472,"""Aztelekom İB""",aztelekom-ib-109,A,"Yasamal rayonu,Tbilisi prospekti, 3166-cı məhəllə",1,40.402479,49.808387,1,0,0,0,0,,,,
473,Əhmədli metro stansiyası,ehmedli-metro-stansiyasi-117,A,"""Əhmədli"" metro stansiyası",1,40.385949,49.953998,1,0,0,0,0,,,,
475,"ASAN Xidmət, Sumqayıt",asan-xidmet-sumqayit-956,A,Sumqayıt şəhəri,55,40.587351,49.664861,1,0,0,0,0,,,,
476,Delta Qrup C.O. MMC,delta-qrup-co-mmc-732,A,"Sumqayıt şəhəri, Sənayə zonası, Sülh küçəsi, 76-cı məhəllə",55,40.380670760241,49.88771437259052,1,0,0,0,0,,,,
477,Bakı Mühəndislik Universiteti,baki-muhendislik-universiteti-716,A,"Xırdalan şəhəri, Həsən Əliyev küçəsi 120",26,40.47646,49.726354,1,0,0,0,0,,,,
478,"Poçt, Xırdalan şəhəri",poct-xirdalan-sheheri-160,A,"Xırdalan şəhəri, M.Ə.Rəsulzadə küçəsi 5",26,40.381221,49.841364,1,0,0,0,0,,,,
479,"Makromart, Xırdalan şəhəri",makromart-xirdalan-sheheri-166,A,"Xırdalan şəhəri, H.Əliyev prospekti 167",26,40.461222,49.727693,1,0,0,0,0,,,,
480,"Bizim Market, Xırdalan şəhəri",bizim-market-xirdalan-sheheri-718,A,"Xırdalan şəh., 27-ci məhəllə, Qalubiyyə küçəsi 3/14",26,40.454454,49.745091,1,0,0,0,0,,,,
481,Abşeron  filialı,absheron-rayon-filiali-843,A,"Abşeron rayonu, Xırdalan şəhəri, Qəzənfər Musabəyov küçəsi 22",26,40.45274781,49.75126113,1,0,0,0,0,,,,
482,Abşeron  filialı,absheron-rayon-filiali-169,A,"Abşeron rayonu, Xırdalan şəhəri, Qəzənfər Musabəyov küçəsi 22",26,40.45269819,49.75134388,1,0,1,0,0,,,,
483,Abşeron  filialı,absheron-rayon-filiali-844,A,"Abşeron rayonu, Xırdalan şəhəri, Qəzənfər Musabəyov küçəsi 22",26,40.45271,49.751311,1,0,0,0,0,,,,
484,Xızı filialı,xizi-filiali-188,A,"Xızı şəhəri, H.Əliyev prospekti 245",27,40.910855,49.074008,1,0,0,0,0,,,,
485,"Market, Xızı rayonu, Giləzi qəsəbəsi",market-xizi-rayonu-gilezi-qesebesi-189,A,"Xızı rayonu, Giləzi qəsəbəsi, M.Qafarov küçəsi",27,40.868661,49.340957,1,0,0,0,0,,,,
486,Sumqayıt filialı,sumqayit-filiali-191,A,"Sumqayıt şəhəri, C. Cabbarlı küçəsi 1 (40-cı məhəllə)",55,40.580124,49.672601,1,0,1,0,0,,,,
487,Sumqayıt filialı,sumqayit-filiali-845,A,"Sumqayıt şəhəri, C. Cabbarlı küçəsi 1 (40-cı məhəllə)",55,40.58027947,49.6727573,1,0,0,0,0,,,,
488,"""Miss Leyla"" geyim mağazası, Sumqayıt şəhəri",miss-leyla-geyim-magazasi-sumqayit-sheheri-193,A,"Sumqayıt şəhəri,1-ci mkr., N. Nərimanov küçəsi 29/12",55,40.588893,49.676828,1,1,0,0,0,,,,
489,Qartal Tikinti Firması,qartal-tikinti-firmasi-194,A,"Sumqayıt şəhəri, Koroğlu prospekti, 48-ci məhəllə",55,40.560583,49.695148,1,0,0,0,0,,,,
490,"""Liman"" Tibb mərkəzi",liman-tibb-merkezi-195,A,"Sumqayıt şəhəri, 6-cı mkr., S.Vurğun küçəsi 35A",55,40.580617,49.689803,1,0,0,0,0,,,,
491,Bazarstore,bazarstore-877,A,"Sumqayıt şəhəri, Bakı küç 47",55,40.575677,49.679396,1,0,1,0,0,,,,
492,"Qayalı market, 13-cü mkr",qayali-market-13-cu-mkr-753,A,"Sumqayıt şəhəri, 13-cü mkr., ev 55",55,40.568424,49.692415,1,1,0,0,0,,,,
493,Corat qəsəbə bələdiyyəsi,corat-qesebe-belediyyesi-198,A,"Sumqayıt şəhəri, Corat qəsəbəsi, Sülh küçəsi 246",55,40.572788,49.708526,1,0,0,0,0,,,,
494,408 saylı Hərbi Hissə,408-sayli-herbi-hisse-931,A,"Sumqayıt şəhəri, H.Z.Tağıyev qəsəbəsi",55,40.609182,49.543803,1,0,0,0,0,,,,
495,"Qayalı market, H.Z.Tağıyev qəsəbəsi",qayali-market-hztagiyev-qesebesi-199,A,"Sumqayıt şəhəri, H.Z. Tağıyev qəsəbəsi",55,40.619023,49.562511,1,0,0,0,0,,,,
496,Sumqayıt Baş Gömrük İdarəsi,sumqayit-bash-gomruk-idaresi-202,A,"Sumqayıt şəhəri, Sülh prospekti 1",55,40.572358,49.636074,1,0,0,0,0,,,,
497,"Sumqayıt şəhəri, Şöbə 10",sumqayit-sheheri-shobe-10-203,A,"Sumqayıt şəhəri, 3-cü mkr., H. Əliyev pr. 22/54",55,40.61993566,49.5632234,1,1,0,0,0,,,,
498,"""Çörəkçi"" firma mağazası, 5-ci mkr",corekci-firma-magazasi-5-ci-mkr-204,A,"Sumqayıt şəhəri, 5-ci mkr., ev 55A, sahə 10",55,40.56542,49.69659,1,0,0,0,0,,,,
499,"Qayalı market, 11-ci mkr",qayali-market-11-ci-mkr-205,A,"Sumqayıt şəhəri, 11-ci mkr., Şəmsi Bədəlbəyli küçəsi",55,40.569925,49.675325,1,0,0,0,0,,,,
500,"İnşaatçılar qəs., Qubadlı İcra Hakimiyyətinin yanı",inshaatcilar-qes-qubadli-icra-hakimiyyetinin-yani-206,A,"Sumqayıt şəhəri, İnşaatçılar qəsəbəsi, Koroğlu prospekti",55,40.594106,49.651883,1,0,0,0,0,,,,
501,Qubadlı filialı,qubadli-filiali-207,A,"Sumqayıt şəhəri, 17-ci məhəllə, H.Əliyev prospekti 11/38, sahə 7",55,40.590459,49.66699,1,0,1,0,0,,,,
502,Elmlər Akademiyası metro stansiyası,elmler-akademiyasi-metro-stansiyasi-10,A,"""Elmlər Akademiyası"" metro stansiyası",1,40.375211,49.815511,1,0,0,0,0,,,,
503,"Neptun Hipermarket, Xırdalan şəh",neptun-hipermarket-xirdalan-sheh-701,A,"Xırdalan şəh., Binəqədi şosesi, Respublika DYP İdarəsinin yanı",26,40.44803,49.777329,1,0,0,0,0,,,,
504,Sumqayıt Texnologiyalar Parkı,sumqayit-texnologiyalar-parki-966,A,"Sumqayıt şəhəri, H.Z.Tağıyev qəsəbəsi",55,40.602117,49.597468,1,0,0,0,0,,,,
505,"Naxçıvan, İlham Əliyev adına Olimpiya İdman Kompleksi",naxcivan-ilham-eliyev-adina-olimpiya-idman-kompleksi-174,A,"Naxçıvan şəhəri, Ə. Əliyev küçəsi 1",45,39.220826,45.412301,1,0,0,0,0,,,,
506,"Naxçıvan şəhər, 1 saylı Hərbi şəhərcik, Ticarət mərkəzi",naxcivan-sheher-1-sayli-herbi-shehercik-ticaret-merkezi-177,A,"Naxçıvan şəhər, 1 saylı Hərbi şəhərcik, Ticarət mərkəzi",45,39.218664925527506,45.40698871524697,1,0,0,0,0,,,,
507,Azəbaycan Milli Elmlər Akademiyası Naxçıvan Bölməsi,azebaycan-milli-elmler-akademiyasi-naxcivan-bolmesi-178,A,"Naxçıvan şəhəri, H.Əliyev prospekti 76",45,39.219572,45.407868,1,0,0,0,0,,,,
508,"Naxçıvan, NDU Tələbə şəhərciyi",naxcivan-ndu-telebe-sheherciyi-180,A,"Naxçıvan şəhəri, Universitet şəhərciyi",45,39.225207,45.406018,1,0,0,0,0,,,,
509,"""Kapital Bank"" ASC-nin Naxçıvan MR Baş İdarəsi, 1 saylı kassa",kapital-bank-asc-nin-naxcivan-mr-bash-idaresi-1-sayli-kassa-181,A,"Naxçıvan şəhəri, H. Əliyev prospekti 16",45,38.903982,46.019922,1,0,0,0,0,,,,
510,"Çəmən supermarket, Babək məhəlləsi",cemen-supermarket-babek-mehellesi-580,A,"Naxçıvan şəhəri, Babək məhəlləsi 2",45,39.193308,45.410215,1,0,0,0,0,,,,
511,"Naxçıvan, ""Naxçıvan"" market",naxcivan-naxcivan-market-183,A,"Naxçıvan şəhəri, Təbriz küçəsi, 1",45,39.25289548988086,45.4273127805319,1,0,0,0,0,,,,
512,"Naxçıvan şəhəri, İnternet mərkəzi",naxcivan-sheheri-internet-merkezi-184,A,"Naxçıvan şəhəri, Atatürk küçəsi 2",45,39.212638,45.406276,1,0,0,0,0,,,,
513,"Naxçıvan, ""Sizin"" market",naxcivan-sizin-market-185,A,"Naxçıvan şəhəri, H.Əliyev prospekti 19",45,39.213774,45.407909,1,0,0,0,0,,,,
514,"Naxçıvan, ""Cahan"" Ticarət Mərkəzi",naxcivan-cahan-ticaret-merkezi-796,A,"Naxçıvan şəhəri, Ə. Əliyev küçəsi 20",45,39.206108,45.424892,1,0,0,0,0,,,,
515,Naxçıvan filialı,nakhichevannaxcivan-filiali-1008,A,"Naxçıvan şəhəri, İstiqlal küçəsi 85",45,39.212427,45.41017225,1,0,0,0,0,,,,
516,"Qaraçuq qəsəbəsi, İcra Nümayəndəliyi",qaracuq-qesebesi-icra-numayendeliyi-187,A,"Naxçıvan şəhəri, Qaraçuq kəndi",45,39.187877,45.378305,1,0,0,0,0,,,,
517,Detal Aluminium zavodu,detal-aluminium-zavodu-208,A,"Gəncə şəhəri, Yevlax şossesi 53",20,40.734034,46.862837,1,0,0,0,0,,,,
519,"Gəncə, Təbriz Market",gence-tebriz-market-210,A,"Gəncə şəhəri, Təbriz küçəsi 16",20,40.672257,46.340705,1,0,0,0,0,,,,
520,"Gəncə şəhəri, Orxan market",gence-sheheri-orxan-market-211,A,"Gəncə şəhəri, Heydər Əliyev prospekti 22",20,40.709507,46.366796,1,0,0,0,0,,,,
521,"Gəncə şəhəri, ""Gold Əminə"" market",gence-sheheri-gold-emine-market-222,A,"Gəncə şəhəri, Atatürk prospekti 10",20,40.68919828156471,46.38310343370113,1,0,0,0,0,,,,
522,"Gəncə, Mərkəzi kitabxana",gence-merkezi-kitabxana-214,A,"Gəncə şəhəri, Nizami küçəsi 81",20,40.680955,46.362315,1,0,0,0,0,,,,
523,"Gəncə, Fama market",gence-fama-market-215,A,"Gəncə şəhəri, Azərbaycan Əsgəri küçəsi",20,40.718738,46.353777,1,0,0,0,0,,,,
524,"Gülüstan qəsəbəsi, Əminə market",gulustan-qesebesi-emine-market-763,A,"Gəncə şəhəri, Gülüstan qəsəbəsi, AKTA-nın 6 saylı yataqxanası",20,40.628613,46.343316,1,0,0,0,0,,,,
525,"Gəncə, Əminə market",gence-emine-market-218,A,"Gəncə şəhəri, Ə.Mehmandarov küçəsi",20,40.686381,46.334536,1,0,0,0,0,,,,
526,"Gəncə, Azərbaycan Dövlət Aqrar Universiteti",gence-azerbaycan-dovlet-aqrar-universiteti-219,A,"Gəncə şəhəri, Ozan küçəsi 102",20,40.669301,46.346841,1,0,0,0,0,,,,
527,"Gəncə, Bazarstore Supermarket",gence-bazarstore-supermarket-220,A,"Gəncə şəhəri, N. Nərimanov prospekti 76",20,40.674755,46.370005,1,0,0,0,0,,,,
528,"Gəncə, 22 saylı poçt şöbəsi",gence-22-sayli-poct-shobesi-221,A,"Gəncə şəhəri, Azərbaycan küçəsi 38",20,40.68078169812552,46.322023813527565,1,0,0,0,0,,,,
529,"Sevinc qəsəbəsi, market",sevinc-qesebesi-market-212,A,"Gəncə şəhəri, Sevinc qəsəbəsi",20,40.44534418520137,46.63518298781769,1,0,0,0,0,,,,
530,"Gəncə, “Fariz” MMC (Xanımın Maqazini)",gence-fariz-mmc-xanimin-maqazini-223,A,"Gəncə şəhəri, Şah İsmayıl Xətai küçəsi 84",20,40.686394,46.387137,1,0,0,0,0,,,,
531,"Gülüstan qəsəbəsi, Sakit market",gulustan-qesebesi-sakit-market-589,A,"Gəncə şəhəri, Gülüstan qəsəbəsi",20,40.638959,46.344042,1,0,0,0,0,,,,
532,Kəpəz filialı,kepez-filiali-226,A,"Gəncə şəhəri, Kəpəz rayonu, N.Gəncəvi prospekti 24B",20,40.67869117691602,46.38076257480987,1,0,0,0,0,,,,
533,"Gəncə şəhəri, Market (Totanlı küçəsi)",gence-sheheri-market-totanli-kucesi-227,A,"Gəncə şəhəri, Totanlı küçəsi 2",20,40.661102,46.340475,1,0,0,0,0,,,,
534,"Kəpəz rayonu, market",kepez-rayonu-market-228,A,"Gəncə şəhəri, Kəpəz rayonu, Yeni qəsəbə 2",20,40.665521,46.453036,1,0,0,0,0,,,,
535,"Nur market, Kəpəz rayonu, Sadıllı qəsəbəsi",nur-market-kepez-rayonu-sadilli-qesebesi-764,A,"Gəncə şəhəri, Kəpəz rayonu, Sadıllı qəs., məhəllə e-3, sahə 19",20,40.708537,46.355603,1,0,0,0,0,,,,
536,"Yeni Kəlbəcər qəsəbəsi, Ekonom market",yeni-kelbecer-qesebesi-ekonom-market-217,A,"Gəncə şəhəri, Yeni Kəlbəcər qəsəbəsi",20,40.684356,46.418098,1,0,0,0,0,,,,
537,"Gəncə filialı, 24 7 Elektron Xidmət Mərkəzi",gence-filiali-24-7-elektron-xidmet-merkezi-807,A,"Gəncə şəhəri, Cavadxan küçəsi 24",20,40.675464,46.360352,1,0,1,0,0,,,,
538,"Gəncə filialı, 24 7 Elektron Xidmət Mərkəzi",gence-filiali-24-7-elektron-xidmet-merkezi-851,A,"Gəncə şəhəri, Cavadxan küçəsi 24",20,40.67540329,46.36036991,1,0,0,0,0,,,,
539,"Gəncə Dövlət Unversiteti, Gəncə şəhəri",gence-dovlet-unversiteti-gence-sheheri-862,A,"Gəncə şəhəri, Bayraq meydanı 225",20,40.677623,46.369374,1,0,0,0,0,,,,
540,Goranboy filialı,goranboy-filiali-365,A,"Goranboy şəhəri, H. Əliyev prospekti 9",21,40.607796,46.788992,1,0,0,0,0,,,,
541,"Bolmart, Gəncə şəhəri",bolmart-gence-sheheri-863,A,"Gəncə şəhəri, Xətai prospekti ilə Ü.Hacıbəyov kəsişməsi",20,40.697944,46.373645,1,0,0,0,0,,,,
542,"Dəliməmmədli şəhəri, Ticarət mərkəzi",delimemmedli-sheheri-ticaret-merkezi-367,A,"Goranboy rayonu, Dəliməmmədli şəhəri, T. Əkbəri küçəsi",21,40.69862,46.566165,1,0,0,0,0,,,,
543,"Borsunlu kəndi, ""Final"" market",borsunlu-kendi-final-market-368,A,"Goranboy rayonu, Borsunlu kəndi",21,40.648815,46.666155,1,0,0,0,0,,,,
544,"Qızılhacılı qəsəbəsi, ""İdeal"" market",qizilhacili-qesebesi-ideal-market-369,A,"Goranboy rayonu, Qızılhacılı qəsəbəsi, H.Aslanov küçəsi",21,40.574636,46.849581,1,0,0,0,0,,,,
545,"Goranboy, Ticarət mərkəzi (S. Civəzadə küçəsi)",goranboy-ticaret-merkezi-s-civezade-kucesi-370,A,"Goranboy şəhəri, S. Civəzadə küçəsi",21,40.603654,46.784288,1,0,0,0,0,,,,
546,"Xoylu kəndi, market",xoylu-kendi-market-372,A,"Goranboy rayonu, Xoylu kəndi",21,40.647504,46.532156,1,0,0,0,0,,,,
547,"Səfikürd kəndi, Ticarət mərkəzi",sefikurd-kendi-ticaret-merkezi-373,A,"Goranboy rayonu, Səfikürd kəndi",21,40.541866,46.766865,1,0,0,0,0,,,,
548,"Xanqərvənd kəndi, Ticarət mərkəzi",xanqervend-kendi-ticaret-merkezi-374,A,"Goranboy rayonu, Xanqərvənd kəndi",21,40.500213,46.90601,1,0,0,0,0,,,,
549,"Aşağı Ağcakənd qəsəbəsi, ""Ağcakənd"" market",ashagi-agcakend-qesebesi-agcakend-market-375,A,"Goranboy rayonu, Aşağı Ağcakənd qəsəbəsi",21,40.420993,46.570486,1,0,0,0,0,,,,
550,"Gəncə Mall, Gəncə şəhəri",gence-mall-gence-sheheri-881,A,Gəncə şəhəri. Heydər Əliyev prospekti ilə Həsən Əliyev küçəsinin kəsişməsi,21,40.600975,46.776794,1,0,0,0,0,,,,
551,"Goranboy, Ticarət Mərkəzi (H. Əliyev prospekti 15)",goranboy-ticaret-merkezi-h-eliyev-prospekti-15-366,A,"Goranboy şəhəri, H. Əliyev prospekti 15",21,40.599041,46.781947,1,0,0,0,0,,,,
552,Gəncə Mall,gence-mall-962,A,"Gəncə şəhəri, Heydər Əliyev prospekti 433",21,40.714039254353004,46.36677675982596,1,0,0,0,0,,,,
553,Naftalan Hotel,naftalan-hotel-961,A,"Naftalan şəhəri, Şirvan prospekti 34",44,40.69667339916367,46.32905536934971,1,0,0,0,0,,,,
554,Naftalan şəhər filialı,naftalan-sheher-filiali-401,A,"Naftalan şəhəri, H. Əliyev prospekti 11",44,40.505818,46.813953,1,0,0,0,0,,,,
555,"Naftalan, Ticarət Mərkəzi",naftalan-ticaret-merkezi-402,A,"Naftalan şəhəri, R. Zülfüqarov küçəsi 95",21,40.507587,46.815581,1,0,0,0,0,,,,
556,"Göygöl rayonu, ""Əminə"" Market",goygol-rayonu-emine-market-535,A,"Göygöl şəhəri, H. Əliyev prospekti 15",23,40.591726,46.320296,1,0,0,0,0,,,,
557,"Göygöl, Tikinti materialları mağazası",goygol-tikinti-materiallari-magazasi-536,A,"Göygöl şəhəri, A. Kazımov küçəsi",23,40.584385,46.327204,1,0,0,0,0,,,,
558,"Çinar Otel, Naftalan",cinar-otel-naftalan-923,A,Naftalan şəhəri,44,40.500193,46.819889,1,0,0,0,0,,,,
559,Göygöl filialı,goygol-rayon-filiali-538,A,"Göygöl şəhəri, H.Əliyev prospekti 45",23,40.588908,46.318286,1,0,0,0,0,,,,
560,Daşkəsən filialı,dashkesen-rayon-filiali-539,A,"Daşkəsən şəhəri, M. Əsədov küçəsi 14",17,40.521369,46.082766,1,0,0,0,0,,,,
561,"""Ceyhun Petrol"" YDM, Daşkəsən rayonu",ceyhun-petrol-ydm-dashkesen-rayonu-540,A,"Daşkəsən rayonu ,T. İsmayılov küçəsi",17,40.517166,46.089504,1,0,0,0,0,,,,
562,"AzərGold, Çovdar kəndi",azergold-covdar-kendi-997,A,"Daşkəsən rayonu, Çovdar kəndi",17,40.596002,46.091179,1,0,1,0,0,,,,
563,Samux filialı,samux-rayon-filiali-542,A,"Samux rayonu, Nəbiağalı qəsəbəsi, Nəriman Nərimanov küçəsi 9",52,40.765613,46.404742,1,0,0,0,0,,,,
564,"YDM, Qarayeri kəndi",ydm-qarayeri-kendi-543,A,"Samux rayonu, Qarayeri kəndi",52,40.786262,46.329482,1,0,0,0,0,,,,
565,"Ordubad şəhəri, ""Emin"" market",ordubad-sheheri-emin-market-238,A,"Naxçıvan MR, Ordubad şəhəri, H. Əliyev prospekti",48,38.905476,46.019493,1,0,0,0,0,,,,
566,"Ordubad, Ticarət mərkəzi (Mərkəzi Bazarın yanı)",ordubad-ticaret-merkezi-merkezi-bazarin-yani-794,A,"Naxçıvan MR, Ordubad şəhəri, H. Əliyev prospekti",48,38.903586,46.016952,1,0,0,0,0,,,,
567,Culfa rayon filialı,culfa-rayon-filiali-239,A,"Naxçıvan MR, Culfa şəhəri, H. Əliyev prospekti 43",16,38.956239,45.633797,1,0,0,0,0,,,,
568,"Mərkəzi Xəstəxanası, Culfa şəhəri",merkezi-xestexanasi-culfa-sheheri-240,A,"Naxçıvan MR, Culfa şəhəri, Elşad Nağıyev küçəsi 27",16,38.955319,45.634662,1,0,0,0,0,,,,
569,"Yaycı kəndi, İcra Nümayəndəliyi",yayci-kendi-icra-numayendeliyi-241,A,"Naxçıvan MR, Culfa rayonu, Yaycı kəndi",16,38.937283,45.730275,1,0,0,0,0,,,,
570,"Əbrəqunus kəndi, İcra Nümayəndəliyi",ebrequnus-kendi-icra-numayendeliyi-242,A,"Naxçıvan MR, Culfa rayonu, Əbrəqunus kəndi",16,39.13801,45.636297,1,0,0,0,0,,,,
571,"""Bahar"" kinoteatrı, Şərur",bahar-kinoteatri-sherur-243,A,"Naxçıvan MR, Şərur şəhəri, H.Əliyev prospekti 44B",61,39.557025,44.985193,1,0,0,0,0,,,,
572,Şərur Arxiv İdarəsi,sherur-arxiv-idaresi-244,A,"Naxçıvan MR, Şərur şəhəri, Şəhriyar küçəsi",61,39.55283,44.978755,1,0,0,0,0,,,,
573,"Aşağı Aralıq kəndi, İcra Nümayəndəliyi",ashagi-araliq-kendi-icra-numayendeliyi-245,A,"Naxçıvan MR, Şərur rayonu, Aşağı Aralıq kəndi",61,39.531455,45.01396,1,0,0,0,0,,,,
574,"Mahmudkənd kəndi, İcra Nümayəndəliyi",mahmudkend-kendi-icra-numayendeliyi-246,A,"Naxçıvan MR, Şərur rayonu, Mahmudkənd kəndi",61,39.579013,45.027443,1,0,0,0,0,,,,
575,"Vərməziyar kəndi, İcra Nümayəndəliyi",vermeziyar-kendi-icra-numayendeliyi-248,A,"Naxçıvan MR, Şərur rayonu, Vərməziyar kəndi",57,39.490402,45.003226,1,0,0,0,0,,,,
576,Şahbuz rayon filialı,shahbuz-rayon-filiali-249,A,"Şahbuz şəhəri, H.Əliyev prospekti 15",57,39.404974,45.568689,1,0,0,0,0,,,,
577,"Şahbuz, Avtovağzal",shahbuz-avtovagzal-250,A,"Naxçıvan MR, Şahbuz şəhəri, H.Əliyev prospekti 28",57,39.408531,45.577033,1,0,0,0,0,,,,
578,Sədərək rayon filialı,sederek-rayon-filiali-251,A,"Naxçıvan MR, Sədərək rayonu, Heydərəbad qəsəbəsi",53,39.723701,44.849782,1,0,0,0,0,,,,
579,"Sədərək qəsəbəsi, Sədərək Rayon Rabitə Evi",sederek-qesebesi-sederek-rayon-rabite-evi-252,A,"Naxçıvan MR, Sədərək rayonu, Sədərək qəsəbəsi",53,39.704816,44.883002,1,0,0,0,0,,,,
580,"Hirkan kəndi, İcra Nümayəndəliyi",hirkan-kendi-icra-numayendeliyi-270,A,"Lənkəran rayonu, Hirkan kəndi",41,38.658804,48.803221,1,0,0,0,0,,,,
581,Fədək market,fedek-market-271,A,"Lənkəran şəhəri, Z. Əliyeva prospekti 2",41,38.759038,48.843705,1,0,0,0,0,,,,
582,"Lənkəran, Makromart",lenkeran-makromart-277,A,"Lənkəran şəhəri, Şiləvar kəndi, 21-ci məhəllə",41,38.7586,48.834777,1,0,0,0,0,,,,
583,"Lənkəran, Makromart (Mir Mustafaxan küçəsi)",lenkeran-makromart-mir-mustafaxan-kucesi-802,A,"Lənkəran şəhəri, Mir Mustafaxan küçəsi",41,38.753945,48.849568,1,0,0,0,0,,,,
584,"Liman şəhəri, Pibon market",liman-sheheri-pibon-market-274,A,"Lənkəran rayonu, Liman şəhəri, M.Ə. Rəsulzade küçəsi",41,38.877792,48.807639,1,0,0,0,0,,,,
585,"Şağlaser kəndi, ""Ay İşığı"" market",shaglaser-kendi-ay-ishigi-market-275,A,"Lənkəran rayonu, Şağlaser kəndi",41,38.856452,48.748296,1,0,0,0,0,,,,
586,"Şürük kəndi, Favorit market",shuruk-kendi-favorit-market-276,A,"Lənkəran rayonu, Şürük kəndi",41,38.696517,48.819331,1,0,0,0,0,,,,
587,"Boladi kəndi, Moskva market",boladi-kendi-moskva-market-982,A,"Lənkəran şəhəri, Boladi kəndi",41,38.89367,48.773508,1,0,0,0,0,,,,
588,"Girdəni kəndi, ""Tikinti materialları"" dükanı",girdeni-kendi-tikinti-materiallari-dukani-278,A,"Lənkəran rayonu, Girdəni kəndi",41,38.800111,48.78475,1,0,0,0,0,,,,
589,Lənkəran şəhər filialı,lenkeran-sheher-filiali-279,A,"Lənkəran şəhəri, M. Nəsirli küçəsi 3",41,38.753045,48.852885,1,0,0,0,0,,,,
590,Lənkəran şəhər filialı,lenkeran-sheher-filiali-852,A,"Lənkəran şəhəri, M. Nəsirli küçəsi 3",41,38.753286,48.853045,1,0,0,0,0,,,,
591,"Lənkəran, ""Dostluq"" mebel salonu (Kiçik Bazar)",lenkeran-dostluq-mebel-salonu-kicik-bazar-280,A,"Lənkəran şəhəri, H. Əliyev prospekti 39",41,38.730263341579665,48.776227709337604,1,0,0,0,0,,,,
592,"Aşağı Nüvədi qəsəbəsi, Makromart",ashagi-nuvedi-qesebesi-makromart-282,A,"Lənkəran rayonu, Aşağı Nüvədi qəsəbəsi",41,38.7059,48.823597,1,0,0,0,0,,,,
593,"Lənkəran, ""Xəzər"" market",lenkeran-xezer-market-273,A,"Lənkəran şəhəri, Füzuli küçəsi 101A",41,38.739655,48.82702,1,0,0,0,0,,,,
594,Masallı filialı,masalli-rayon-filiali-415,A,"Masallı şəhəri, H.Əliyev prospekti 91",42,39.06825081370427,48.68804062786065,1,0,0,0,0,,,,
595,"Oba market, Masallı rayonu",oba-market-masalli-rayonu-422,A,"Masallı rayonu , Füzuli küçəsi",42,39.02757,48.677936,1,0,0,0,0,,,,
596,"Ərkivan kəndi, ""Şahin"" market",erkivan-kendi-shahin-market-418,A,"Masallı rayonu, Ərkivan kəndi",42,39.011283,48.650954,1,0,0,0,0,,,,
597,"Yeddioymaq kəndi, ""Səməd"" market",yeddioymaq-kendi-semed-market-419,A,"Masallı rayonu, Yeddioymaq kəndi",42,39.01963,48.75745,1,0,0,0,0,,,,
598,"Şərəfə kəndi, Şərəfə ATS",sherefe-kendi-sherefe-ats-420,A,"Masallı rayonu, Şərəfə kəndi",42,39.111512360964696,48.70661354130018,1,0,0,0,0,,,,
599,"Türkoba kəndi, ""Yağmur"" market",turkoba-kendi-yagmur-market-421,A,"Masallı rayonu, Türkoba kəndi",42,38.918133,48.7071,1,0,0,0,0,,,,
600,"Masallı, Makromart",masalli-makromart-417,A,"Masallı şəhəri, H.Əliyev prospekti 30A",42,39.038546,48.675567,1,0,0,0,0,,,,
601,"Təklə kəndi, market",tekle-kendi-market-423,A,"Masallı rayonu, Təklə kəndi",42,39.124902,48.657824,1,0,0,0,0,,,,
602,"Qızılavar kəndi, ""E.R. Petrol"" YDM",qizilavar-kendi-er-petrol-ydm-424,A,"Masallı rayonu, Qızılavar kəndi",42,38.969423,48.668877,1,0,0,0,0,,,,
603,"Market, Masallı rayonu, Yeni Alvadı kəndi",market-masalli-rayonu-yeni-alvadi-kendi-425,A,"Masallı rayonu, Yeni Alvadı kəndi",42,39.083683,48.611558,1,0,0,0,0,,,,
604,"Mollaba kəndi, Masallı rayonu",mollaba-kendi-masalli-rayonu-803,A,Masallı rayonu,42,38.929421260232196,48.70738322961835,1,0,0,0,0,,,,
605,"""Masallı ASAN xidmət mərkəzi"" Kapital Bank-ın şöbəsi",masalli-asan-xidmet-merkezi-kapital-bank-in-shobesi-756,A,"Masallı şəhəri, H.Əliyev prospekti",42,39.020413,48.691325,1,0,0,0,0,,,,
606,Lerik filialı,lerik-filiali-491,A,"Lerik şəhəri, Camal Şahiyev küçəsi 3A",40,38.770104,48.420396,1,0,0,0,0,,,,
607,"Lerik, market",lerik-market-492,A,"Lerik şəhəri, İsmayıl Yaqubov küçəsi 5A",40,38.772346,48.41667,1,0,0,0,0,,,,
608,"Şingədulan kəndi, Market",shingedulan-kendi-market-493,A,"Lerik rayonu, Şingədulan kəndi",40,38.858457,48.394512,1,0,0,0,0,,,,
609,"Piran kəndi, ""Fərid"" market",piran-kendi-ferid-market-804,A,"Lerik rayonu, Piran kəndi",42,38.734629,48.657217,1,0,0,0,0,,,,
610,"Çayüzü kəndi, ""Valeh"" market",cayuzu-kendi-valeh-market-495,A,"Yardımlı rayonu, Çayüzü kəndi",66,38.88746,48.191232,1,0,0,0,0,,,,
611,"Market, Yardımlı şəhəri",market-yardimli-sheheri-497,A,"Yardımlı şəhəri, H. Əliyev prospekti",66,38.906796,48.242121,1,0,0,0,0,,,,
612,"Şəfəqli kəndi, ""Şəfəq"" market",shefeqli-kendi-shefeq-market-805,A,"Yardımlı rayonu, Şəfəqli kəndi",66,39.02366388,48.36766837,1,0,0,0,0,,,,
613,"Sırıq kəndi, YDM",siriq-kendi-ydm-499,A,"Yardımlı rayonu, Sırıq kəndi",66,38.914598,48.306708,1,0,0,0,0,,,,
614,Yardımlı filialı,yardimli-filiali-500,A,"Yardımlı şəhəri, H. Əliyev prospekti 41",66,38.90343,48.236396,1,0,0,0,0,,,,
615,"Hamarkənd kəndi, Poçt şöbəsi",hamarkend-kendi-poct-shobesi-501,A,"Yardımlı rayonu, Hamarkənd kəndi",66,38.864434,48.276622,1,0,0,0,0,,,,
616,Beyləqan  filialı,beyleqan-rayon-filiali-286,A,"Beyləqan şəhəri, G.Əsədov küçəsi 46",11,39.77288,47.61632,1,0,0,0,0,,,,
617,"Ticarət mərkəzi, Dünyamalılar kəndi",ticaret-merkezi-dunyamalilar-kendi-287,A,"Beyləqan rayonu, Dünyamalılar kəndi 7 m. 9",11,39.770387,47.763691,1,0,0,0,0,,,,
618,"Davud market, Birinci Şahsevən kəndi",davud-market-birinci-shahseven-kendi-288,A,"Beyləqan rayonu, Birinci Şahsevən kəndi",11,39.629864,47.710816,1,0,0,0,0,,,,
619,"Beyləqan, Ərzaq mağazası",beyleqan-erzaq-magazasi-289,A,"Beyləqan şəhəri, S. Qazıyeva küçəsi 42",11,39.76751494220041,47.59512491341034,1,0,0,0,0,,,,
620,"Beyləqan, ""Cavid"" market",beyleqan-cavid-market-290,A,"Beyləqan şəhəri, Magistral yolun kənarında (S.İmrəliyev küçəsi)",11,39.774341,47.622768,1,0,0,0,0,,,,
621,"Birinci Şahsevən kəndi, ""Anar Petrol"" YDM",birinci-shahseven-kendi-anar-petrol-ydm-293,A,"Beyləqan rayonu, Birinci Şahsevən kəndi",11,39.644217,47.690852,1,0,0,0,0,,,,
622,"Milabad kəndi, N saylı hərbi hissə",milabad-kendi-n-sayli-herbi-hisse-294,A,"Beyləqan rayonu, Milabad kəndi",11,39.660712,47.659063,1,0,0,0,0,,,,
623,"500 ailəlik Xocavənd qəsəbəsi, İcra Nümayəndəliyi",500-ailelik-xocavend-qesebesi-icra-numayendeliyi-779,A,"Beyləqan rayonu, 500 ailəlik Xocavənd qəsəbəsi",11,39.748753,47.528732,1,0,0,0,0,,,,
624,"Qaralılar kəndi, Market",qaralilar-kendi-market-295,A,"Beyləqan rayonu, Qaralılar kəndi",11,39.76653,47.875585,1,0,0,0,0,,,,
625,"Örənqala qəsəbəsi, market",orenqala-qesebesi-market-771,A,"Beyləqan rayonu, Örənqala qəsəbəsi",11,39.88803,47.496082,1,0,0,0,0,,,,
626,"ASAN Xidmət, İmişli rayonu",asan-xidmet-imisli-rayonu,A,"İmişli rayonu, F.Səfərəliyev 1",29,39.87789,48.084233,1,0,0,0,0,,,,
627,İmişli filialı,imishli-rayon-filiali-460,A,"İmişli şəhəri, H. Əliyev prospekti 45",29,39.869929,48.060152,1,0,0,0,0,,,,
628,"Sarıxanlı kəndi, Sarıxanlı bələdiyyəsi",sarixanli-kendi-sarixanli-belediyyesi-461,A,"İmişli rayonu, Sarıxanlı kəndi",29,39.817084,47.927306,1,0,0,0,0,,,,
629,"Yaşıl market, Çaxırlı kəndi",yashil-market-caxirli-kendi-935,A,"İmişli rayonu, Çaxırlı kəndi",29,39.743179,48.001846,1,0,0,0,0,,,,
630,"Qaralar kəndi, Market",qaralar-kendi-market-464,A,"İmişli rayonu, Qaralar kəndi",29,39.86263,48.034477,1,0,0,0,0,,,,
631,"""Orbita"" mağazası, İmişli rayonu",orbita-magazasi-imishli-rayonu-467,A,"İmişli şəhəri, H. Əliyev prospekti 85",29,39.87156,48.064033,1,0,0,0,0,,,,
632,"Market, İmişli rayonu",market-imishli-rayonu-466,A,"İmişli rayonu, Məşədi Əzizbəyov küçəsi",29,39.860241,48.063135,1,0,0,0,0,,,,
633,"""Kamran"" market, İmişli rayonu",kamran-market-imishli-rayonu-465,A,"İmişli şəhəri, N.Nərimanov küçəsi 130",29,39.868012,48.062933,1,0,0,0,0,,,,
634,"Qaradonlu kəndi, ""Elvin"" market",qaradonlu-kendi-elvin-market-468,A,"İmişli rayonu, Qaradonlu kəndi",29,39.78817,48.066981,1,0,0,0,0,,,,
635,"Yeni Bəhramtəpə kəndi, market",yeni-behramtepe-kendi-market-469,A,"İmişli rayonu, Yeni Bəhramtəpə kəndi",29,39.755025,47.953305,1,0,0,0,0,,,,
636,"Market, Aranlı kəndi",market-aranli-kendi-1005,A,"İmişli rayonu, Aranlı kəndi",29,39.697694,48.101413,1,0,0,0,0,,,,
637,Füzuli filialı,fuzuli-rayon-filiali-768,A,"Füzuli rayonu, Horadiz şəhəri, 20 Yanvar küçəsi 12",18,39.447553,47.338966,1,0,0,0,0,,,,
638,"1 saylı qəsəbəsi, Market",1-sayli-qesebesi-market-550,A,"Füzuli rayonu, 1 saylı qəsəbə",18,39.612245,47.65782,1,0,0,0,0,,,,
639,"Aranqala qəsəbəsi, Nicat market",aranqala-qesebesi-nicat-market-551,A,"Füzuli rayonu, Aranqala qəsəbəsi",18,39.63760594614041,47.684543800048864,1,0,0,0,0,,,,
640,"Ticarət mərkəzi, Zobucuq qəsəbəsi",ticaret-merkezi-zobucuq-qesebesi-553,A,"Füzuli rayonu, Zobucuq qəsəbəsi",18,39.568902,47.404823,1,0,0,0,0,,,,
641,"Əhmədbəyli kəndi, Market",ehmedbeyli-kendi-market-554,A,"Füzuli rayonu, Əhmədbəyli kəndi",18,39.563254,47.556916,1,0,0,0,0,,,,
642,"Böyük Bəhmənli kəndi, ""Şəms"" geyim mağazası",boyuk-behmenli-kendi-shems-geyim-magazasi-555,A,"Füzuli rayonu, Böyük Bəhmənli kəndi",29,39.515812,47.499294,1,0,0,0,0,,,,
643,"Elçin market, Horadiz qəsəbəsi",elcin-market-horadiz-qesebesi-556,A,"Füzuli rayonu, Horadiz şəhəri",18,39.460999,47.327257,1,0,0,0,0,,,,
644,"Bala Bəhmənli kəndi, Ticarət mərkəzi",bala-behmenli-kendi-ticaret-merkezi-557,A,"Füzuli rayonu, Bala Bəhmənli kəndi",18,39.558,47.564321,1,0,0,0,0,,,,
645,"Yuxarı Kürdmahmudlu kəndi, YDM",yuxari-kurdmahmudlu-kendi-ydm-558,A,"Füzuli rayonu, Yuxarı Kürdmahmudlu kəndi",18,39.64104061779837,46.553992743410475,1,0,0,0,0,,,,
646,Ağcabədi 2,aghjabadi-2-566,A,"Ağcabədi rayonu, Taxta Körpü qəsəbəsi",3,39.79040297840796,47.64853996959087,1,0,0,0,0,,,,
647,"Cocuq mərcanlı kəndi, Polis məntəqəsi",cocuq-mercanli-kendi-polis-menteqesi-14,A,"Cəbrayıl rayonu, Cocuq mərcanlı kəndi, Polis məntəqəsi",14,39.397123,47.306946,1,0,0,0,0,,,,
648,Hacıqabul  filialı,haciqabul-rayon-filiali-323,A,"Hacıqabul şəhəri, İ. Qayıbov küçəsi 19",24,40.022442,48.938096,1,0,0,0,0,,,,
649,"Hacıqabul, ""Hacıqabul"" market",haciqabul-seheri-h-eliyev-kucesi-32,A,Haciqabul-Haciqabul-market-324,24,40.032521676084194,48.934937773953024,1,0,0,0,0,,,,
650,"Kaspi YDM, Hacıqabul rayonu",kaspi-ydm-haciqabul-rayonu-325,A,"Hacıqabul rayonu, Mərkəzi dairəvi yol",24,40.044188,48.936404,1,0,0,0,0,,,,
651,"""Muğan"" Firması, Muğan qəsəbəsi",mugan-firmasi-mugan-qesebesi-327,A,"Hacıqabul rayonu, Muğan kəndi",24,40.083775,48.837902,1,0,0,0,0,,,,
652,"Nuran market, Navahı qəsəbəsi",nuran-market-navahi-qesebesi-988,A,"Navahı qəsəbəsi, Hacıqabul rayonu",24,40.009937,49.152148,1,0,0,0,0,,,,
653,Udulu kəndi,udulu-kendi-996,A,"Hacıqabul rayonu, Udulu kəndi",24,40.238827,48.903361,1,0,0,0,0,,,,
654,Biləsuvar filialı,bilesuvar-rayon-filiali-377,A,"Biləsuvar şəhəri, H. Əliyev küçəsi 42",13,39.45476124,48.54648468,1,0,0,0,0,,,,
655,"Biləsuvar, Cavid market",bilesuvar-cavid-market-378,A,"Biləsuvar şəhəri, H. Əliyev prospekti",13,39.459997,48.542048,1,0,0,0,0,,,,
656,"Biləsuvar, Ağacdələn mebel dükanı",bilesuvar-agacdelen-mebel-dukani-379,A,"Biləsuvar şəhəri, H. Əliyev prospekti",13,39.453616309389055,48.603496511520646,1,0,0,0,0,,,,
657,"Ağalıkənd kəndi, Ticarət mərkəzi",agalikend-kendi-ticaret-merkezi-380,A,"Biləsuvar rayonu, Ağalıkənd kəndi",13,39.37760688476944,48.57157868055443,1,0,0,0,0,,,,
658,"Biləsuvar, Aran Market",bilesuvar-aran-market-381,A,"Biləsuvar şəhəri, H. Əliyev prospekti 36",13,39.454035,48.54728,1,0,0,0,0,,,,
659,"Biləsuvar, Nur market",bilesuvar-nur-market-383,A,"Biləsuvar şəhəri, M.İbrahimov küçəsi 108H",13,39.461854,48.561303,1,0,0,0,0,,,,
660,"Abışabad kəndi, ""Cəlal"" market",abishabad-kendi-celal-market-426,A,"Cəlilabad rayonu, Abışabad kəndi",15,39.25988,48.409878,1,0,0,0,0,,,,
661,Cəlilabad filialı,celilabad-rayon-filiali-427,A,"Cəlilabad şəhəri, Azərbaycan küçəsi 121",15,39.21788574,48.52243882,1,0,0,0,0,,,,
662,"Rahat market, Cəlilabad şəhəri",rahat-market-celilabad-sheheri-783,A,"Cəlilabad şəhəri, H. Əliyev prospekti 464D",15,39.206571,48.483666,1,0,0,0,0,,,,
663,Cəlilabad filialı,celilabad-rayon-filiali-854,A,"Cəlilabad şəhəri, Azərbaycan küçəsi 121",15,39.211708,48.505422,1,0,0,0,0,,,,
664,"""Asiman"" market, Göytəpə qəsəbəsi",asiman-market-goytepe-qesebesi-430,A,"Cəlilabad rayonu, Göytəpə şəhəri, Qurtuluş küçəsi 104",15,39.118077,48.594406,1,0,0,0,0,,,,
665,"Alar kəndi, ""2002"" market",alar-kendi-2002-market-431,A,"Cəlilabad rayonu, Alar kəndi",15,39.314519,48.529224,1,0,0,0,0,,,,
666,Qızıltac market,qiziltac-market-791,A,"Cəlilabad rayonu, Mehdi Hüseyn küç. Yeni yaş. mas. 89-109",15,39.215914,48.502532,1,0,0,0,0,,,,
667,"Privolnoye kəndi, ""İnşaat malları"" mağazası",privolnoye-kendi-inshaat-mallari-magazasi-765,A,"Cəlilabad rayonu, Privolnoye kəndi",15,39.128288,48.534912,1,0,0,0,0,,,,
668,Uzuntəpə kəndi,uzuntepe-kendi-995,A,"Cəlilabad rayonu, Uzuntəpə kəndi",15,39.225913,48.601002,1,0,0,0,0,,,,
669,"Cəbrayıl 1 saylı şəhərciyi, Biləsuvar rayonu",cebrayil-1-sayli-sheherciyi-bilesuvar-rayonu-864,A,"Biləsuvar rayonu, 1 Saylı Qaçqın Şəhərciyi",13,39.722753,48.031174,1,0,0,0,0,,,,
670,Cəbrayıl rayon filialı,cebrayil-rayon-filiali-591,A,"Biləsuvar rayonu, 8 saylı qəsəbə",14,39.644818,48.132216,1,0,0,0,0,,,,
671,Balakən  filialı,balaken-rayon-filiali-472,A,"Balakən şəhəri, M. Əsədov küçəsi 21",10,41.722491,46.402946,1,0,0,0,0,,,,
672,"Balakən, ""Azercell"" telefon mağazası",balaken-azercell-telefon-magazasi-475,A,"Balakən şəhəri, H. Əliyev prospekti 28",10,41.719985276015095,46.41742599983351,1,0,0,0,0,,,,
673,"Katex kəndi, Balakən rayonu",katex-kendi-balaken-rayonu-869,A,"Balakən rayonu, Katex kəndi",10,41.649385,46.515456,1,0,0,0,0,,,,
674,İsmayıllı  filialı,ismayilli-rayon-filiali-513,A,"İsmayıllı şəhəri, M.F. Axundov küçəsi 53A",30,40.782087,48.155486,1,0,0,0,0,,,,
675,"Yurd market, İsmayıllı rayonu",yurd-market-ismayilli-rayonu-514,A,"İsmayıllı şəhəri, Cavanşir küçəsi 4",30,40.78831645340933,48.14834972354701,1,0,0,0,0,,,,
676,"Lahıc qəsəbəsi, Lahıc bələdiyyəsi",lahic-qesebesi-lahic-belediyyesi-515,A,"İsmayıllı rayonu, Lahıc qəsəbəsi",30,40.845966,48.382121,1,0,0,0,0,,,,
677,"İvanovka kəndi, ""İvanovka Petrol"" YDM",ivanovka-kendi-ivanovka-petrol-ydm-790,A,"İsmayıllı rayonu, İvanovka kəndi, Qaraməryəm yolu",30,40.77105,48.0703,1,0,0,0,0,,,,
678,"Meqa market, Göyçay rayonu",meqa-market-goycay-rayonu-516,A,"Göyçay şəhəri, H. Əliyev prospekti, 69",22,40.649267,47.744976,1,0,0,0,0,,,,
679,"Göyçay, ""Final"" market",goycay-final-market-517,A,"Göyçay şəhəri, Nizami küçəsi 183",22,40.65035589,47.73814781,1,0,0,0,0,,,,
680,Göyçay filialı,goycay-filiali-519,A,"Göyçay şəhəri, H.Z. Tağıyev küçəsi",22,40.64699,47.747666,1,0,0,0,0,,,,
681,"Sor-Sor kəndi, N saylı hərbi hissə",sor-sor-kendi-n-sayli-herbi-hisse-407,A,"Kürdəmir rayonu, Sor-Sor kəndi",32,40.284024,48.147702,1,0,0,0,0,,,,
682,Bərdə filialı,berde-rayon-filiali-256,A,"Bərdə şəhəri, M.Rəsulzаdə küçəsi 11",12,40.38529321,47.12469014,1,0,0,0,0,,,,
683,"""Piramida"" market, Bərdə rayonu",piramida-market-berde-rayonu-257,A,"Bərdə şəhəri, Bakı küçəsi",12,40.382819,47.134655,1,0,0,0,0,,,,
684,"Bərdə, Bazarstore Supermarket",berde-bazarstore-supermarket-259,A,"Bərdə şəhəri, Bakı küçəsi 2A",12,40.376306,47.134542,1,0,0,0,0,,,,
685,"Bərdə, ""İlqar"" market",berde-ilqar-market-260,A,"Bərdə şəhəri, H. Aslanov küçəsi",12,40.380139,47.11171,1,0,0,0,0,,,,
686,Bərdə filialı,berde-rayon-filiali-261,A,"Bərdə şəhəri, M.Rəsulzаdə küçəsi 11",12,40.38529321,47.12469014,1,0,0,0,0,,,,
687,"Şirvanlı kəndi, Şirvanlı kənd poçt şöbəsi",shirvanli-kendi-shirvanli-kend-poct-shobesi-262,A,"Bərdə rayonu, Şirvanlı kəndi",12,40.315671,47.126382,1,0,0,0,0,,,,
688,"Birinci Qaradəmirçi kəndi, ""Lək"" market",birinci-qarademirci-kendi-lek-market-263,A,"Bərdə rayonu, Birinci Qaradəmirçi kəndi",12,40.359952,47.142093,1,0,0,0,0,,,,
689,"Divanlı kəndi, Bolmart",divanli-kendi-bolmart-264,A,"Bərdə rayonu, Divanlı kəndi",12,40.401051,47.124563,1,0,0,0,0,,,,
690,"Mustafaağalı kəndi, Ticarət mərkəzi",mustafaagali-kendi-ticaret-merkezi-265,A,"Bərdə rayonu, Mustafağalı kəndi",12,40.318945,47.284386,1,0,0,0,0,,,,
691,"Cəyirli kəndi, N saylı hərbi hissə",ceyirli-kendi-n-sayli-herbi-hisse-266,A,"Bərdə rayonu, Cəyirli kəndi",12,40.44089,47.124426,1,0,0,0,0,,,,
692,"""Ruzi"" market, Bərdə rayonu",ruzi-market-berde-rayonu-267,A,"Bərdə şəhəri, Ü. Hacıbəyov küşəsi 10",12,40.374679,47.122385,1,0,0,0,0,,,,
693,"Bərdə, ASAN xidmət mərkəzi",berde-asan-xidmet-merkezi-268,A,"Bərdə şəhəri, H.Əliyev prospekti 89",12,40.394466,47.124156,1,0,0,0,0,,,,
694,"Lənbəran kəndi, ""Planet Petrol"" YDM",lenberan-kendi-planet-petrol-ydm-692,A,"Bərdə rayonu, Lənbəran kəndi",12,40.205752,47.229432,1,0,0,0,0,,,,
695,"LUX market, Yeni Daşkənd",lux-market-yeni-dashkend-859,A,"Bərdə rayonu, Yeni Daşkənd kəndi",12,40.36945,47.041758,1,0,0,0,0,,,,
696,"Oba Market, Cəyirli kəndi",oba-market-ceyirli-kendi-920,A,"Bərdə rayonu, Cəyərli kəndi, Qaçqın qəsəbəsi",12,40.449422,47.112891,1,0,0,0,0,,,,
698,Gədəbəy filialı,gedebey-rayon-filiali-526,A,"Gədəbəy şəhəri, 20 Yanvar küçəsi 4",19,40.576204,45.810228,1,0,0,0,0,,,,
699,"Saratovka kəndi, Market",saratovka-kendi-market-527,A,"Gədəbəy rayonu, Saratovka kəndi",19,40.597878,45.600331,1,0,0,0,0,,,,
700,"Düz Rəsullu kəndi, ""Mahir"" market",duz-resullu-kendi-mahir-market-770,A,"Gədəbəy rayonu, Düz Rəsullu kəndi",19,40.65277378,45.49262264,1,0,0,0,0,,,,
701,Gədəbəy filialı,gedebey-rayon-filiali-855,A,"Gədəbəy şəhəri, 20 Yanvar küçəsi 4",19,40.576186,45.810225,1,0,0,0,0,,,,
702,Şirvan şəhər filialı,shirvan-sheher-filiali-296,A,"Şirvan şəhəri, M. Ə. Rəsulzadə küçəsi 1",62,39.95262,48.94413,1,0,0,0,0,,,,
703,Şirvan şəhər filialı,shirvan-sheher-filiali-853,A,"Şirvan şəhəri, M. Ə. Rəsulzadə küçəsi 1",62,39.952423,48.944524,1,0,0,0,0,,,,
704,"Şirvan şəhəri, Şirvan Dəmiryol Stansiyası",shirvan-sheheri-shirvan-demiryol-stansiyasi-297,A,"Şirvan şəhəri, Gülbala Şıxbalaoğlu küçəsi 1",62,39.933965,48.921462,1,0,0,0,0,,,,
705,"Şirvan şəhəri, ""Ailəm"" market",shirvan-sheheri-ailem-market-798,A,"Şirvan şəhəri, H. Əliyev prospekti",62,39.969544,48.943313,1,0,0,0,0,,,,
706,Şirvan şəhər Mərkəzi Xəstəxanası,shirvan-sheher-merkezi-xestexanasi-299,A,"Şirvan şəhəri, H.Əliyev prospekti 16",62,39.952287,48.935929,1,0,0,0,0,,,,
707,Şirvan İstilik Elektrik Stansiyası MMC,shirvan-istilik-elektrik-stansiyasi-mmc-928,A,"Şirvan şəhəri, DRES ərazisi",62,39.892318,48.922895,1,0,0,0,0,,,,
708,"Şirvan şəhəri, Dəniz market",shirvan-sheheri-deniz-market-766,A,"Şirvan şəhəri, Taləh Ələkbərov küçəsi 1",62,39.942812,48.931368,1,0,0,0,0,,,,
709,"Qarabağlı kəndi, “Samir Şirkəti” MMC",qarabagli-kendi-samir-shirketi-mmc-301,A,"Salyan rayonu, Qarabağlı kəndi",51,39.780099,48.965653,1,0,0,0,0,,,,
710,"Xələc kəndi, ""Toğrul"" market",xelec-kendi-togrul-market-797,A,"Salyan rayonu, Xələc kəndi",51,39.735325,49.012286,1,0,0,0,0,,,,
711,"""Dərələyəz"" market, Salyan rayonu",dereleyez-market-salyan-rayonu-304,A,"Salyan rayonu, Salyan-Şirvan yolu",51,39.76979,48.976274,1,0,0,0,0,,,,
712,"Xıdırlı kəndi, ""Azər"" market",salyan-rayonu-xidirli-kendi,A,"Salyan rayonu, Xıdırlı kəndi",51,39.843837,49.324227,1,0,0,0,0,,,,
713,"Moranlı kəndi, Natiq market",moranli-kendi-natiq-market-702,A,"Sabirabad rayonu, Moranlı kəndi",50,39.792619,48.741135,1,0,0,0,0,,,,
714,Sabirabad filialı,sabirabad-rayon-filiali-305,A,"Sabirabad şəhəri, H. Əliyev prospekti 33",50,40.004669,48.470555,1,0,0,0,0,,,,
715,"Sabirabad şəhəri, ""Çinar"" market",sabirabad-sheheri-cinar-market-306,A,"Sabirabad şəhəri, Qalağayın dairəsi",50,39.978963,48.457284,1,0,0,0,0,,,,
716,Sabirabad  filialı,sabirabad-rayon-filiali-307,A,"Sabirabad şəhəri, H. Əliyev prospekti 33",50,40.006246,48.471119,1,0,0,0,0,,,,
717,"Həşimxanlı kəndi, Bolmart",heshimxanli-kendi-bolmart-800,A,"Həşimxanlı kəndi, Bolmart",50,40.031815,48.680749,1,0,0,0,0,,,,
718,"Cavad kəndi, ""Avtoehtiyyat hissələri"" mağazası",cavad-kendi-avtoehtiyyat-hisseleri-magazasi-308,A,"Sabirabad rayonu, Cavad kəndi",50,40.027262,48.455552,1,0,0,0,0,,,,
719,"Ulacalı kəndi, Ticarət mərkəzi",ulacali-kendi-ticaret-merkezi-309,A,Sabırabad ray Ulacalı kəndi,50,40.07425,48.583677,1,0,0,0,0,,,,
720,"Nizami kəndi, Market",nizami-kendi-market-310,A,"Sabirabad rayonu, Nizami kəndi",50,39.919574,48.753017,1,0,0,0,0,,,,
721,"Quruzma kəndi, ""Kür"" market",quruzma-kendi-kur-market-311,A,"Sabirabad rayonu, Quruzma kəndi",50,40.081215,48.623821,1,0,0,0,0,,,,
722,"Minbaşı kəndi, Rahat market",minbashi-kendi-rahat-market-312,A,"Sabirabad rayonu, Minbaşı kəndi",50,39.92129,48.875051,1,0,0,0,0,,,,
723,"Sabirabad, ASAN xidmət mərkəzi",sabirabad-asan-xidmet-merkezi-313,A,"Sabirabad şəhəri, H.Əliyev prospekti 128",50,40.017385,48.4766,1,0,0,0,0,,,,
724,"Cəngən kəndi, ""Cəngən"" market",cengen-kendi-cengen-market-801,A,"Sabirabad rayonu, Cəngən kəndi",50,39.72647,48.939721,1,0,0,0,0,,,,
725,"Yeni market, Sabirabad rayonu",yeni-market-sabirabad-rayonu-767,A,"Sabirabad şəhəri, H. Əliyev prospekti 25",50,40.001171,48.469964,1,0,0,0,0,,,,
726,"Məzrəli kəndi, Həsən market",mezreli-kendi-hesen-market-703,A,"Saatlı rayonu, Məzrəli kəndi",49,39.910304,48.244153,1,0,0,0,0,,,,
727,"Mərkəzi Poçt, Saatlı rayon",merkezi-poct-saatli-rayon-316,A,"Saatlı rayon, Gənclər meydanı, 9",49,39.927959,48.358756,1,0,0,0,0,,,,
728,Saatlı  filialı,saatli-rayon-filiali-314,A,"Saatlı şəhəri, H. Əliyev prospekti 131",49,39.938975,48.372213,1,0,0,0,0,,,,
729,Saatlı filialı,saatli-filiali-866,A,"Saatlı rayonu, Cəfər Cabbarlı küçəsi 9",49,39.93902628946893,48.37259913498364,1,0,0,0,0,,,,
730,"Nadir Market, Qara Nuru kəndi",nadir-market-qara-nuru-kendi-318,A,"Saatlı rayonu, Qara Nuru kəndi",49,39.9172,48.507776,1,0,0,0,0,,,,
731,"Saatlı şəhəri, ""Elton"" market",saatli-sheheri-elton-market-319,A,"Saatlı şəhəri, H.Əliyev prospekti 185",49,39.936187,48.361521,1,0,0,0,0,,,,
732,"Şirinbəy kəndi, ""Paşa"" market",shirinbey-kendi-pasha-market-320,A,"Saatlı rayonu, Şrinbəy kəndi",49,39.884195,48.539216,1,0,0,0,0,,,,
733,"Qırağlı kəndi, ""Şamo MMC"" pambıq satışı şirkəti",qiragli-kendi-shamo-mmc-pambiq-satishi-shirketi-322,A,"Saatlı rayonu, Qırağlı kəndi",49,39.954199,48.404891,1,0,0,0,0,,,,
734,"Salyan, Market",salyan-market-328,A,"Salyan şəhəri, Ələt-Astara-İran yolu",51,39.594604,48.969276,1,0,0,0,0,,,,
735,Poçt şöbəsi,poct-shobesi-879,A,"Salyan rayonu, Heydər Əliyev prospekti 94",51,39.56657762,48.9314738945136,1,0,0,0,0,,,,
736,Salyan filialı,salyan-rayon-filiali-330,A,"Salyan şəhəri, H.Əliyev küçəsi 90",51,39.59732264,48.984725,1,0,0,0,0,,,,
737,"Yenikənd kəndi, ""İdeal"" Ticarət mərkəzi",yenikend-kendi-ideal-ticaret-merkezi-302,A,"Salyan rayonu, Yenikənd kəndi",51,39.711031,49.082491,1,0,0,0,0,,,,
738,"Sarvan kəndi, ""Avtoehtiyyat hissələri"" dükanı",sarvan-kendi-avtoehtiyyat-hisseleri-dukani-331,A,"Salyan rayonu, Sarvan kəndi",51,39.477554,48.902718,1,0,0,0,0,,,,
739,"Çuxanlı kəndi, N saylı hərbi hissə",cuxanli-kendi-n-sayli-herbi-hisse-332,A,"Salyan rayonu, Çuxanlı kəndi",51,39.601488,48.961642,1,0,0,0,0,,,,
740,"""Ay İşığı"" Supermarket, Salyan şəhəri",ay-ishigi-supermarket-salyan-sheheri-333,A,"Salyan şəhəri, Bakı-Astara yolunun 130-cu km",51,39.580639,48.969289,1,0,0,0,0,,,,
741,"Sübhan market, Şorsulu kəndi",subhan-market-shorsulu-kendi-871,A,"Salyan rayonu, Şorsulu kəndi",51,39.429493,48.839288,1,0,0,0,0,,,,
742,Neftçala filialı,neftcala-rayon-filiali-433,A,"Neftçala rayon, H.Əliyev prospekti 33A",46,39.389091,49.246212,1,0,0,0,0,,,,
743,"Həsənabad kəndi, ""Fərid"" market",hesenabad-kendi-ferid-market-435,A,"Neftçala rayonu, Həsənabad kəndi",46,39.333744,49.216172,1,0,0,0,0,,,,
744,"Aşağı Qaramanlı kəndi, ""Bizim"" market",ashagi-qaramanli-kendi-bizim-market-436,A,"Neftçala rayonu, Aşağı Qaramanlı kəndi",46,39.432312,49.026748,1,0,0,0,0,,,,
745,"Bankə qəsəbəsi, ""Bankə"" market",banke-qesebesi-banke-market-437,A,"Neftçala rayonu, Bankə qəsəbəsi",46,39.415794,49.253185,1,0,0,0,0,,,,
746,"Xol Qaraqaşlı kəndi, ""Qarağac"" Ticarət mərkəzi",xol-qaraqashli-kendi-qaragac-ticaret-merkezi-438,A,"Neftçala rayonu, Xol Qaraqaşlı kəndi",46,39.311373,48.813479,1,0,0,0,0,,,,
747,"Neftçala, Mərkəzi Bazar",neftcala-merkezi-bazar-440,A,"Neftçala şəhəri, H. Əliyev prospekti 45",46,39.392438,49.244535,1,0,0,0,0,,,,
748,"Aşağı Surra kəndi, Poçt şöbəsi",ashagi-surra-587,A,"Neftçala rayonu, Aşağı Surra kəndi",46,39.483453,49.002887,1,0,0,0,0,,,,
749,Xaçmaz filialı,xacmaz-rayon-filiali-452,A,"Xaçmaz şəhəri, H. Z. Tağıyev küçəsi 9",25,41.46699,48.80243,1,0,0,0,0,,,,
750,"Xaçmaz, Poçt",xacmaz-poct-453,A,"Xaçmaz şəhəri, N. Nərimanov küçəsi 10",25,41.45941,48.797038,1,0,0,0,0,,,,
751,"Xudat şəhəri, Ailə market",xudat-sheheri-aile-market-454,A,"Xaçmaz rayonu, Xudat şəhəri, M. F. Axundov küçəsi",25,41.622472,48.686972,1,0,0,0,0,,,,
752,"Market, Nərəcan kəndi",market-nerecan-kendi-455,A,"Xaçmaz rayonu, Nərəcan kəndi",25,41.528954,48.745028,1,0,0,0,0,,,,
753,"Yalama Aqropark, Xaçmaz rayonu",yalama-aqropark-xacmaz-rayonu-865,A,"Xaçmaz rayonu, Yalama qəsəbəsi, Samur-Yalama yolu",25,41.745129,48.558282,1,0,0,0,0,,,,
754,"Qaraqurdlu kəndi, Ticarət mərkəzi",qaraqurdlu-kendi-ticaret-merkezi-456,A,"Xaçmaz rayonu, Qaraqurdlu kəndi",25,41.461291,48.82129,1,0,0,0,0,,,,
755,"Qusarçay kəndi, Rafaello market",qusarcay-kendi-rafaello-market-457,A,"Xaçmaz rayonu, Qusarçay kəndi",25,41.565243,48.721335,1,0,0,0,0,,,,
756,"Yalama kəndi, Ticarət mərkəzi",yalama-kendi-ticaret-merkezi-458,A,"Xaçmaz rayonu, Yalama kəndi, Yalama-Xanoba yolu",25,41.75771,48.585458,1,0,0,0,0,,,,
757,"Xaçmaz-Xudat yolu, market",xacmaz-xudat-yolu-market-459,A,"Xaçmaz şəhəri, Xaçmaz-Xudat yolu",25,41.453779,48.789236,1,0,0,0,0,,,,
758,"Xaçmaz, EkoMart supermarket",xacmaz-ekomart-supermarket-762,A,"Xaçmaz şəhəri, H. Z. Tağıyev küçəsi 73",25,41.459617,48.78831,1,0,0,0,0,,,,
759,Qalaaltı Hotel,qalaalti-hotel-964,A,"Şabran rayonu, Qalaaltı Hotel",56,41.089495,48.937185,1,0,0,0,0,,,,
760,Xudat şəhəri,xudat-qesebesi-970,A,Xudat şəhəri,25,41.632753,48.681523,1,0,0,0,0,,,,
761,Qusar filialı,qusar-rayon-filiali-351,A,"Qusar şəhəri, H.Əliyev prospekti 127",38,41.418555,48.417061,1,0,0,0,0,,,,
762,"Eynar market, Qusar rayonu",eynar-market-qusar-rayonu-352,A,"Qusar şəhəri, N.Şərifov küçəsi",38,41.432827860333425,48.43450154089336,1,0,0,0,0,,,,
763,"Hil kəndi, Ruslan market",hil-kendi-ruslan-market-353,A,"Qusar rayonu, Hil kəndi",38,41.470398,48.343526,1,0,0,0,0,,,,
764,"Qusar şəhəri, Real market",qusar-sheheri-real-market-354,A,"Qusar şəhəri, Qazi Məmməd küçəsi",38,41.426418,48.424032,1,0,0,0,0,,,,
765,"Qusar rayonu, SDK market",qusar-rayonu-sdk-market-590,A,"Qusar rayonu, Samur qəsəbəsi, Bakı-Quba-Rusiya yolu",38,41.634901,48.426604,1,0,0,0,0,,,,
766,"Həzrə kəndi, market",hezre-kendi-market-356,A,"Qusar rayonu, Həzrə kəndi",38,41.507012,48.245843,1,0,0,0,0,,,,
767,"Maqnit Mağazası ,Qusar rayonu",maqnit-magazasi-qusar-rayonu-358,A,"Qusar şəhəri, Elza İbrahimova küçəsi 6A",38,41.42346,48.433802,1,0,0,0,0,,,,
768,"Qusar rayonu, Pik Palace Şahdağ Oteli",qusar-rayonu-pik-palace-shahdag-oteli-708,A,"Qusar rayonu, Kuzun kəndi, Qusar-Ləzə yolunun 29-cu km",38,41.318181,48.135352,1,0,1,0,0,,,,
769,Zirvə Otel,zirve-otel-959,A,"Qusar rayonu, Laza kəndi",38,41.32219,48.148682,1,0,0,0,0,,,,
770,Shahdag Hotel and Spa,shahdag-hotel-and-spa-958,A,"Qusar rayonu, Laza kəndi",38,41.319537,48.136508,1,0,0,0,0,,,,
772,"Siyəzən,""Qızıl Burun"" inşaat materialları mağazası",siyezenqizil-burun-inshaat-materiallari-magazasi-400,A,"Siyəzən şəhəri, H. Əliyev küçəsi 116",54,41.07774197134098,49.11869559637312,1,0,0,0,0,,,,
773,Paşa Bank Quba filialı,pasha-bank-quba-filiali-980,A,"Quba şəhəri, Natavan küçəsi 15",37,41.36965329,48.51319599,1,0,0,0,0,,,,
774,Şabran filialı,shabran-filiali-408,A,"Şabran şəhəri, M. Ə. Rəsulzadə küçəsi 16B",56,41.200455,48.983217,1,0,0,0,0,,,,
775,"Şabran, ""Klassik 339"" market",shabran-klassik-339-market-409,A,"Şabran şəhəri, H.Əliyev prospekti",56,41.214218,49.003322,1,0,0,0,0,,,,
776,"Gəndov kəndi, market",gendov-kendi-market-410,A,"Şabran rayonu, Gəndov kəndi",56,41.259942,48.902229,1,0,0,0,0,,,,
777,"Aygünlü kəndi, Ticarət mərkəzi",aygunlu-kendi-ticaret-merkezi-411,A,"Şabran rayonu, Aygünlü kəndi",56,41.295471,48.850501,1,0,0,0,0,,,,
778,Rəhimli kəndi,rehimli-kendi-944,A,"Şabran rayonu, Rəhimli kəndi",56,41.394536,48.845567,1,0,0,0,0,,,,
779,Quba filialı,quba-rayon-filiali-441,A,"Quba şəhəri, H. Əliyev prospekti 23",37,41.358805,48.503524,1,0,0,0,0,,,,
780,"Quba, Favorit market",quba-favorit-market-442,A,"Quba şəhəri, H. Əliyev prospekti",37,41.362584,48.522964,1,0,0,0,0,,,,
781,"Market, Qam-Qam kəndi",market-qam-qam-kendi-443,A,"Quba rayonu, Qam-Qam kəndi",37,41.253511090490264,48.585066706709476,1,0,0,0,0,,,,
782,"Quba-Qəçrəş yolu, Favorit minimarketi",quba-qecresh-yolu-favorit-minimarketi-444,A,"Quba şəhəri, Quba-Qəçrəş yolu",37,41.358769,48.493837,1,0,0,0,0,,,,
783,"Qonaqkənd kəndi, Ticarət mərkəzi",qonaqkend-kendi-ticaret-merkezi-445,A,"Quba rayonu, Qonaqkənd kəndi",37,41.073043,48.609583,1,0,0,0,0,,,,
784,"Timiryazev qəsəbəsi, Yeni avtovağzal",timiryazev-qesebesi-yeni-avtovagzal-446,A,"Quba şəhəri, Timiryazev qəsəbəsi",37,41.33746203369878,48.54361500004403,1,0,0,0,0,,,,
785,"Arzu kəndi, market",arzu-kendi-market-447,A,"Quba rayonu, Arzu kəndi",37,41.402349,48.697547,1,0,0,0,0,,,,
786,"Market, Quba rayonu",market-quba-rayonu-720,A,"Quba şəhəri, Səkinə Xanım küçəsi 37",37,41.36237349754688,48.50327681413009,1,0,0,0,0,,,,
787,"Qırmızı qəsəbə, Piramida market",qirmizi-qesebe-piramida-market-449,A,"Quba rayonu, Qırmızı qəsəbə, Fətəlixan küçəsi",37,41.372063,48.520288,1,0,0,0,0,,,,
788,"24 Saat market, Quba",24-saat-market-quba-448,A,"Quba şəhəri, H. Əliyev prospekti",37,41.362407,48.528044,1,0,0,0,0,,,,
789,"2-ci Nüqədi kəndi, Qardaşlar Ticarət mərkəzi",2-ci-nuqedi-kendi-qardashlar-ticaret-merkezi-451,A,"Quba rayonu, 2-ci Nüqədi kəndi",37,41.318055,48.580599,1,0,0,0,0,,,,
790,"Aşağı Atuc kəndi, Daxili Qoşunların hərbi hissə",ashagi-atuc-kendi-daxili-qoshunlarin-herbi-hisse-759,A,"Quba rayonu, Aşağı Atuc kəndi",37,41.453909,48.566074,1,0,0,0,0,,,,
791,Rixos Quba Hotel,rixos-quba-hotel-752,A,"Quba rayonu, Nərimanabad kəndi",37,41.331675,48.498553,1,0,1,0,0,,,,
792,Quba şəh ASAN Xidmət,quba-sheh-asan-xidmet-818,A,Quba şəh. H. Əliyev prospekti. ASAN Xidmət,37,41.364695,48.555218,1,0,1,0,0,,,,
793,"Şəki şəhəri, Ticarət mərkəzi (M.Ə.Rəsulzadə küçəsi)",sheki-sheheri-ticaret-merkezi-meresulzade-kucesi-476,A,"Şəki şəhəri, M.Ə.Rəsulzadə küçəsi 166",59,41.19801,47.176086,1,0,0,0,0,,,,
794,"""Yenilik"" Ticarət mərkəzi, Şəki şəhəri",yenilik-ticaret-merkezi-sheki-sheheri-477,A,"Şəki şəhəri, H. Əliyev prospekti 4",59,41.20208,47.177904,1,0,0,0,0,,,,
795,"Şəki, Bazarstore Supermarket",sheki-bazarstore-supermarket-772,A,"Şəki şəhəri, Sabit Rəhman küçəsi 27",59,41.201376,47.167838,1,0,0,0,0,,,,
796,Şəki filialı,sheki-rayon-filiali-479,A,"Şəki şəhəri, M.Müşfiq küçəsi 40",59,41.1995273,47.17730072,1,0,0,0,0,,,,
797,"Aşağı Göynük kəndi, ""Anar"" market",ashagi-goynuk-kendi-anar-market-481,A,"Şəki rayonu, Aşağı Göynük kəndi",59,41.271117,47.012063,1,0,0,0,0,,,,
798,"Şəki şəhəri, Şəki Məhkəmə Kompleksi",sheki-sheheri-sheki-mehkeme-kompleksi-478,A,"Şəki şəhəri, Salman Mümtaz küçəsi 1",59,41.185165,47.158511,1,0,0,0,0,,,,
799,"Kiş kəndi, Marxal İstirahət kompleksi",kish-kendi-marxal-istirahet-kompleksi-588,A,"Şəki rayonu, Kiş kəndi",59,41.245175,47.202249,1,0,0,0,0,,,,
800,"12 saylı DƏDRX, Şəki şəhəri",12-sayli-dedrx-sheki-sheheri-809,A,"Şəki şəhəri, Heydər Əliyev prospekti 9A",59,41.206244,47.17048,1,0,0,0,0,,,,
801,Oğuz filialı,oguz-rayon-filiali-470,A,"Oğuz rayon , H. Aslanov küçəsi 10",47,41.071963,47.463227,1,0,0,0,0,,,,
802,"""Oğuz Store"" market, Oğuz rayonu",oguz-store-market-oguz-rayonu-471,A,"Oğuz şəhəri, H. Əliyev prospekti 16",47,41.064597,47.463658,1,0,0,0,0,,,,
803,Qax filialı,qax-rayon-filiali-483,A,"Qax şəhəri, Ü. Hacıbəyov küçəsi 10",33,41.422216,46.914099,1,0,0,0,0,,,,
805,Stopshop market,stopshop-market-486,A,"Qax rayonu, Qorağan kəndi",33,41.390583,46.745045,1,0,0,0,0,,,,
806,Şamaxı  filialı,shamaxi-rayon-filiali-489,A,"Şamaxı şəhəri, Gənclər küçəsi 33",58,40.633387,48.642768,1,0,0,0,0,,,,
807,"Şamaxı, ""VİP"" market",shamaxi-vip-market-490,A,"Şamaxı şəhəri, S. Ə. Şirvani və C. Cabbarlı küç. kəsişməsi",58,40.626145,48.647021,1,0,0,0,0,,,,
808,"Şamaxı, Ocaq market",shamaxi-ocaq-market-721,A,"Şamaxı şəhəri, M.Ə.Rəsulzadə küçəsi 28",58,40.642124,48.635717,1,0,0,0,0,,,,
809,Shamaxi Palace,shamaxi-palace-965,A,"Şamaxı rayonu, Şamaxı Palas Otel",58,40.625617,48.469508,1,0,0,0,0,,,,
810,Qobustan  filialı,qobustan-rayon-filiali-487,A,"Qobustan şəhəri, Yeni massiv 1, ev 11",36,40.52933,48.938007,1,0,0,0,0,,,,
811,"""Ramil"" market, Qobustan rayonu",ramil-market-qobustan-rayonu-488,A,"Qobustan şəhəri, H. Əliyev prospekti 1",36,40.53518,48.91401,1,0,0,0,0,,,,
812,Kürdəmir rayon filialı,kurdemir-rayon-filiali-403,A,"Kürdəmir rayonu, Babək küçəsi 47",32,40.352759,48.163345,1,0,0,0,0,,,,
813,"Kürdəmir, Kürdəmir Poçt Filialı",kurdemir-kurdemir-poct-filiali-404,A,"Kürdəmir şəhəri, H. Əliyev prospekti 3",32,40.345445,48.147566,1,0,0,0,0,,,,
814,"""Asi"" market, Kürdəmir rayonu",asi-market-kurdemir-rayonu-406,A,"Kürdəmir şəhəri, Bakı prospekti 33",32,40.336288,48.151029,1,0,0,0,0,,,,
815,Qəbələ filialı,qebele-rayon-filiali-361,A,"Qəbələ şəhəri, İ. Qutqaşınlı küçəsi 50",35,40.976474,47.844597,1,0,0,0,0,,,,
816,Qəbələ Telekommunikasiya Qovşağı,qebele-telekommunikasiya-qovshagi-362,A,"Qəbələ şəhəri, H.Əliyev küçəsi 39",35,40.976897,47.852908,1,0,0,0,0,,,,
817,"Zarağan kəndi, ""Makromart"" Market",zaragan-kendi-makromart-market-363,A,"Qəbələ rayonu, Zarağan kəndi",35,40.92802,47.80167,1,0,0,0,0,,,,
818,"Xəzər market, Vəndam kəndi",xezer-market-vendam-kendi-364,A,"Qəbələ rayonu, Vəndam kəndi, Qaraməryam-İsmayıllı-Şəki yolu",35,40.946482,47.941951,1,0,0,0,0,,,,
819,Yevlax filialı,yevlax-filiali-520,A,"Yevlax şəhəri, H.Əliyev prospekti 20",67,40.616445,47.147981,1,0,0,0,0,,,,
820,"""Ruzi"" market, Yevlax şəhəri",ruzi-market-yevlax-sheheri-521,A,"Yevlax şəhəri, H. Əliyev prospekti 101",67,40.59733,47.144402,1,0,0,0,0,,,,
821,"""313 Məişət avadanlıqları"", Yevlax şəhəri",313-meishet-avadanliqlari-yevlax-sheheri-522,A,"Yevlax şəhəri, Ceyhun Mustafayev küçəsi 19",67,40.60604745450954,47.13906156050382,1,0,0,0,0,,,,
822,"Tural market, Yevlax şəhəri",tural-market-yevlax-sheheri-523,A,"Yevlax şəhəri, Nizami pr. 76",67,40.613751,47.152258,1,0,0,0,0,,,,
823,"2-ci Aran qəsəbəsi, Ticarət mərkəzi",2-ci-aran-qesebesi-ticaret-merkezi-524,A,"Yevlax şəhəri, 2-ci Aran qəsəbəsi",67,40.631746,46.987481,1,0,0,0,0,,,,
824,"Xaldan kəndi, Ticarət mərkəzi",xaldan-kendi-ticaret-merkezi-525,A,"Yevlax rayonu, Xaldan kəndi",67,40.713897,47.218449,1,0,0,0,0,,,,
825,"Yevlax rayonu, Yevlax mərkəzi rayon xəstəxanası",yevlax-rayonu-yevlax-merkezi-rayon-xestexanasi-882,A,"Yevlax rayonu, Yevlax mərkəzi rayon xəstəxanası",67,40.597528,47.158139,1,0,0,0,0,,,,
826,Mingəçevir filialı,mingecevir-filiali-231,A,"Mingəçevir şəhəri, V.Hüseynov küçəsi 10/97",43,40.771459,47.039832,1,0,0,0,0,,,,
827,"Mingəçevir, 5+ Supermarket",mingecevir-5-supermarket-230,A,"Mingəçevir şəhəri, Nizami küçəsi 13",43,40.761517,47.05868,1,0,0,0,0,,,,
828,"Mingəçevir, Makromart",mingecevir-makromart-229,A,"Mingəçevir şəhəri, H. Əliyev prospekti 31",43,40.77247,47.047832,1,0,0,0,0,,,,
829,Mingəçevir filialı,mingecevir-filiali-830,A,"Mingəçevir şəhəri, V.Hüseynov küçəsi 10/97",43,40.771463,47.039805,1,0,0,0,0,,,,
830,"Əli İnşaat dükanı, Mingəçevir Tibb Kollecinin yaxınlığı",eli-inshaat-dukani-mingecevir-tibb-kollecinin-yaxinligi-232,A,"Mingəçevir rayonu, AzDres qəsəbəsi, Naxçıvan küçəsi",43,40.769927638832876,46.99843049123096,1,0,0,0,0,,,,
831,"Mingəçevir, Qaçqın və Məcburi Köçkünlərin şəhərciyi",mingecevir-qacqin-ve-mecburi-kockunlerin-sheherciyi-233,A,"Mingəçevir şəhəri, Qaçqın və Məcburi Köçkünlərin şəhərciyi",43,40.756217,47.083537,1,0,0,0,0,,,,
832,"5+ Supermarket, Mingəçevir şəhəri",5-supermarket-mingecevir-sheheri-858,A,"Mingəçevir şəhəri, M.Maqomayev 16/1",43,40.766947,47.045803,1,0,0,0,0,,,,
833,Mingəçevir ASAN Xidmət,mingecevir-asan-xidmet-873,A,"Mingəçevir şəhəri, H.Əliyev prospekti 380",43,40.771213,47.035243,1,0,1,0,0,,,,
834,Azərbaycan İstilik Elektrik Stansiyası MMC,azerbaycan-istilik-elektrik-stansiyasi-mmc-927,A,"Mingəçevir şəhəri, C.Əliyev küçəsi 2",43,40.779295,46.989449,1,0,0,0,0,,,,
835,Tərtər filialı,terter-rayon-filiali-334,A,"Tərtər şəhəri, E.Hüseynov küçəsi 9",63,40.342122,46.93021,1,0,0,0,0,,,,
836,Tərtər filialı,terter-filiali-829,A,"Tərtər şəhəri, E.Hüseynov küçəsi 9",63,40.342309,46.930374,1,0,0,0,0,,,,
837,"Ticarət mərkəzi, Tərtər şəhəri",ticaret-merkezi-terter-sheheri-336,A,"Tərtər şəhəri, Nizami küçəsi 40B",63,40.417868,46.945762,1,0,0,0,0,,,,
838,"Tərtər şəhəri, Tərtər Poçt Filialı",terter-sheheri-terter-poct-filiali-335,A,"Tərtər şəhəri, H. Əliyev prospekti 44",63,40.343616,46.932064,1,0,0,0,0,,,,
839,"""Anar"" market, E. Səfərov küçəsi",anar-market-e-seferov-kucesi-339,A,"Tərtər rayonu, E. Səfərov küçəsi",63,40.339148,46.952328,1,0,0,0,0,,,,
840,"Viva Mall, Terter rayonu",viva-mall-tert-rayonu-992,A,"Tərtər rayonu, Qaçqın və məcburi köçkünlər qəsəbəsi",63,40.342059,46.912116,1,0,0,0,0,,,,
841,Ucar rayon filialı,ucar-rayon-filiali-510,A,"Ucar rayonu, Oğuz küçəsi 44",65,40.509422,47.655833,1,0,0,0,0,,,,
842,"Qazyan kəndi, Ucar rayonu",qazyan-kendi-ucar-rayonu-867,A,"Ucar rayonu, Qazyan kəndi",65,40.420632,47.671854,1,0,0,0,0,,,,
843,"Qarabok kəndi, Ucar rayonu",qarabok-kendi-ucar-rayonu-868,A,"Qarabok kəndi, Ucar rayonu",65,40.494747,47.664817,1,0,0,0,0,,,,
844,Tovuz filialı,tovuz-filiali-528,A,"Tovuz şəhəri, Sabir küçəsi 19",64,40.992351,45.617609,1,0,0,0,0,,,,
845,"Qovlar şəhəri, Makromarket",qovlar-sheheri-makromarket-530,A,"Tovuz rayonu, Qovlar şəhəri",64,40.94681,45.741702,1,0,0,0,0,,,,
846,"Sultan market, Tovuz şəhəri",sultan-market-tovuz-sheheri-531,A,"Tovuz şəhəri, Sabir küçəsi",64,40.991636,45.616082,1,0,0,0,0,,,,
847,"Əyyublu kəndi, ""Qardaşlar İnşaat"" mağazası",eyyublu-kendi-qardashlar-inshaat-magazasi-533,A,"Tovuz rayonu, Əyyublu kəndi",64,40.928045,45.816659,1,0,0,0,0,,,,
848,"Dondar Quşçu kəndi, Rahat market",dondar-qushcu-kendi-rahat-market-534,A,"Tovuz rayonu, Dondar Quşçu kəndi",64,40.967836,45.654882,1,0,0,0,0,,,,
849,"Grand Market, Aşağı Öysüzlü kəndi",grand-market-ashagi-oysuzlu-kendi-789,A,"Tovuz rayonu, Aşağı Öysüzlü kəndi",64,40.986743,45.604483,1,0,0,0,0,,,,
850,"Əlimərdanlı kəndi, ""Hüseyn"" market",elimerdanli-kendi-huseyn-market-808,A,"Tovuz rayonu, Əlimərdanlı kəndi",64,41.042957,45.675578,1,0,0,0,0,,,,
851,Qazax filialı,qazax-rayon-filiali-253,A,"Qаzах şəhəri, H.Əliyеv prospеkti 65А",34,41.088782,45.356587,1,0,0,0,0,,,,
852,"Qazax, ""Əsədoğlu"" market",qazax-esedoglu-market-254,A,"Qazax şəhəri, H.Əliyev prospekti 1A",34,41.088731,45.347264,1,0,0,0,0,,,,
853,"H. Əliyev prospekti, Qazax rayonu",h-eliyev-prospekti-qazax-rayonu-255,A,"Qazax şəhəri, H. Əliyev prospekti 171",34,41.097174,45.376989,1,0,0,0,0,,,,
854,"""IK"" market, Qazax rayonu",ik-market-qazax-rayonu-788,A,"Qazax rayonu, Əliağa Şıxlınski küçəsi 15E",34,41.096488,45.350443,1,0,0,0,0,,,,
855,"Qala Market, 2-ci Şıxlı kəndi",qala-market-2-ci-shixli-kendi-872,A,"Qazax rayonu, 2-ci Şıxlı kəndi",34,41.327095,45.077929,1,0,0,0,0,,,,
856,Şəmkir filialı,shemkir-filiali-828,A,"Şəmkir şəhəri, 20 Yanvar küçəsi 2",60,40.829128,46.023876,1,0,0,0,0,,,,
857,Şəmkir filialı,shemkir-filiali-344,A,"Şəmkir şəhəri, 20 Yanvar küçəsi 2Şəmkir şəhəri, 20 Yanvar küçəsi 2",60,40.829046,46.023986,1,0,0,0,0,,,,
858,"Şəmkir şəhəri, Makromart",shemkir-sheheri-makromart-345,A,"Şəmkir şəhəri, Elşən Allahverdiyev küçəsi 1",60,40.840945,46.039048,1,0,0,0,0,,,,
859,"Kür qəsəbəsi, Poçt şöbəsi",kur-qesebesi-poct-shobesi-346,A,"Şəmkir rayonu, Kür qəsəbəsi, M. Ə. Rəsulzadə küçəsi",60,40.906065,46.18355,1,0,0,0,0,,,,
860,"Çinarlı qəsəbəsi, Göysu Market",cinarli-qesebesi-goysu-market-347,A,"Şəmkir rayonu, Çinarlı qəsəbəsi",60,40.78077,46.109706,1,0,0,0,0,,,,
862,"Aşağı Seyfəli kəndi, Əlihüseynli market",ashagi-seyfeli-kendi-elihuseynli-market,A,"Şəmkir rayonu, Aşağı Seyfəli kəndi",60,40.758165,46.132171,1,0,0,0,0,,,,
863,"Dəllər qəsəbəsi, Dəllər dəmiryol stansiyası",deller-qesebesi-deller-demiryol-stansiyasi-350,A,"Şəmkir rayonu, Dəllər qəsəbəsi",60,40.868067,46.036204,1,0,0,0,0,,,,
864,Kəngərli filialı,kengerli-filiali-562,A,"Kəngərli rayonu, Qıvraq qəsəbəsi",60,39.412287,45.120821,1,0,0,0,0,,,,
865,Qıvraq bələdiyyəsi,qivraq-belediyyesi-564,A,"Kəngərli rayonu, Qıvraq qəsəbəsi",31,39.40038,45.112929,1,0,0,0,0,,,,
866,"Qarabağlar kəndi, İcra Nümayəndəliyi",qarabaglar-kendi-icra-numayendeliyi-565,A,"Kəngərli rayonu, Qarabağlar kəndi",31,39.423568,45.193251,1,0,0,0,0,,,,
926,Buta market,buta-market,A,Bakı-Qazax 152 km,7,40.573304,48.390068,1,0,0,0,0,,,,
927,Biləcəri Bələdiyyəsi,bileceri-belediyyesi,A,Binəqədi rayonu Biləcəri qəsəbəsi,1,40.43965607077665,49.809151135983896,1,0,0,0,0,,,,
928,Xocasən bələdiyyəsi,xocasen-belediyyesi,A,Binəqədi rayonu Sulutəpə qəsəbəsi,1,40.41302975,49.76604214,1,0,0,0,0,,,,
929,Azərbaycan Qida Təhlükəsizliyi İnstutu,az-qida-tehlukesizliyi-instutu,A,"Binəqədi rayonu, Süleyman Sani Axundov 73C",1,40.428501,49.842706,1,0,0,0,0,,,,
930,XL Ticarət Mərkəzi,xl-ticaret-merkezi,A,"Goycay, Bərgüşad yolu",22,40.635093,47.758069,1,0,0,0,0,,,,
931,İBİS otel,ibis-otel,A,Xocalı prospekti 40,1,40.382621,49.875308,1,0,0,0,0,,,,
932,EFİ Ticarət Mərkəzi,efi-ticaret-merkezi,A,"Kürdəmir rayonu, İmişli şosesi, Atakişili kəndi",32,40.32822,48.14816,1,0,0,0,0,,,,
933,Rahat Market Müşfiqabad 2,rahat-market-musfiq,A,"Qaradağ rayonu Müşfiqabad qəsədəbəsi 2, küçə 2C",1,40.463833,49.629643,1,1,0,0,0,,,,
934,Goyce Market Qazax,goyce-market-qazax,A,"Qazax rayonu, vağzal binası",34,41.089403,45.352774,1,0,0,0,0,,,,
935,Qədiroğlu Market,qadiroglu-market,A,"Mingəçevir şəhəri, Qres qəsəbəsi Naxçıvan prospekti",43,40.769761,46.989424,1,0,0,0,0,,,,
936,Mediland Hospitalla üzbəüz aptek,mediland-hospital-aptek,A,Sabit Orucov küçəsi 18,1,40.38392483,49.87082338,1,1,0,0,0,,,,
937,Möcüzə Market,mocuze-market,A,Sabunçu rayonu bakıxanov qəsəbəsi,1,40.430556,49.957722,1,0,0,0,0,,,,
938,"İlham Market, Siyəzən",ilham-market,A,"Siyəzən şəhəri, H. Əliyev küçəsi 44",54,41.071087,49.116152,1,0,0,0,0,,,,
939,AB Yaşayış Sahəsi,ab-yashayish-sahesi,A,Suraxanı rayonu Yeni günəşli qəsəbəsi,1,40.382285,49.978013,1,0,0,0,0,,,,
940,Fayton market,fayton-market,A,"Şamaxı rayonu, Heydər Əliyev prospekti 127",58,40.632068,48.62924,1,0,0,0,0,,,,
941,Polis Akademiyası,polis-akademiyasi,A,"Şüvəlan qəsəbəsi, Almas İldırım3",1,40.48717029,50.1679594,1,0,0,0,0,,,,
942,Ailem Market,ailem-market,A,"Tovuz rayonu, Hezi Aslanov küçəsi",64,40.991012,45.615762,1,0,0,0,0,,,,
943,Neptun Market,neptun-market,A,Yeni yevlax küçəsi 2,67,40.613963,47.145994,1,0,0,0,0,,,,
944,BNA,bna,A,Ziya Bünyadov pr. 111,1,40.41930279656612,49.84657374457092,1,0,0,0,0,,,,
946,Buta market,buta-market-agsu,A,Bakı-Qazax 152 km,7,40.580875,48.394856,1,0,0,0,0,,,,
947,"Oba Market, Fatmayı",oba-market-fatmayi,A,"Abşeron rayonu, Fatmayı qəsəbəsi, Oba Market",1,40.52925,49.846551,1,0,0,0,0,,,,
948,"Uni Mart, Cəbrayıl",unimart-cebrayil,A,"Biləsuvar rayonu, 6 saylı qəsəbə, Unimart",13,40.97718,47.48304,1,0,0,0,0,,,,
949,"Bal Market, Göygöl",bal-market-goygol,A,"Göygöl rayonu, Sabir küçəsi 3, Bal market",23,40.580879,46.323155,1,0,0,0,0,,,,
950,"Pioner Market, Qusar",pioner-market-qusar,A,"Qusar rayonu, Pioner market",38,41.43115693866039,48.44291444035192,1,0,0,0,0,,,,
951,Zümrüd market,zumrud-market-shemkir,A,"Şəmkir şəhəri Səməd Vurğun küç 1, Zümrüd market",60,40.808487,46.011832,1,0,0,0,0,,,,
952,Araz supermarket - Bərdə,araz-supermarket-berde,A,"Bərdə rayonu, Araz supermarket",12,40.399238,47.122892,1,0,0,0,0,,,,
953,Optimal Electronics - Neftçala,optimal-elektroniks-neftcala,A,"Neftçala rayonu, Optimal electronics",46,39.380268703150726,49.24761620141431,1,0,0,0,0,,,,
954,Gold Market Beyləqan,gold-market-beyleqan,A,"Beyləqan rayonu, Gold Market",11,39.769127,47.605823,1,0,0,0,0,,,,
955,“De Luxe” market,deluxe-market-pirshagi,A,"Pirşağı qəsəbəsi, DeLuxe Market",1,40.554539,49.886921,1,0,0,0,0,,,,
956,Binəqədi Gənclər Şəhərciyi,bineqedi-gencler-sheherciyi,A,"Abşeron rayonu, Mehdiabad qesebesi, Binəqədi Gənclər Şəhərciyi",2,40.482367,49.837105,1,1,0,0,0,,,,
957,Əsədoğlu Market - Qazax,esedoglu-market-qazax,A,"Qazax rayonu Daş Salahlı kəndi, “Əsədoğlu” market",34,40.81564279173731,46.117022996660374,1,0,0,0,0,,,,
958,"İmişli rayonu,  – “Araz market”",araz-market-imishli,A,"İmişli rayonu,  – “Araz market”",29,39.86823,48.059762,1,0,0,0,0,,,,
959,Tovuz ASAN Xidmət Mərkəzi,asan-xidmet-tovuz,A,"Tovuz rayonu, Heydər Əliyev küç., ASAN Xidmət Mərkəzi",64,40.98161,45.657414,1,0,0,0,0,,,,
960,BOKT Nəsimi,bokt-nesimi,A,"Bakı şəhəri, Nəsimi rayonu, Hüseynbala Əliyev küçəsi, 80E, BOKT Nəsimi",1,40.411173,49.818396,1,1,0,0,0,,,,
961,BOKT Xətai,bokt-xetai,A,"Bakı şəhəri, Xətai rayonu, Məhəmməd Hadi küçəsi 73, BOKT Xətai",1,40.38842865,49.95386199,1,1,0,0,0,,,,
962,BOKT Yasamal,bokt-yasamal,A,"Bakı şəhəri, Yasamal rayonu, Hüseyn Cavid prospekti, 556A/57-ci məhəllə, BOKT Yasamal",1,40.452859659623414,49.782665880015934,1,1,0,0,0,,,,
963,Cengen Market,cengen-market-shirvan,A,"Şirvan şəhəri, Cengen market",62,39.964121,48.942076,1,0,0,0,0,,,,
964,"Oba Market, Malbinəsi kəndi",oba-market-malbinesi,A,"Yevlax şəhəri, Malbinəsi kəndi, Oba Market",67,40.504656,47.093779,1,0,0,0,0,,,,
965,"Yeni Bakı Yaşayış Kompleksi, Kənd bazarı",kend-bazari-yenibaki,A,"Bakı şəhəri, Masazır qəsəbəsi, Yeni Baki Yaşayış Kompleksi, Kənd Bazarı",1,40.491325,49.748677,1,1,0,0,0,,,,
966,Xirdalan Grandmart,grandmart-xirdalan,A,"Abşeron rayonu, Xirdalan şəhəri, Grandmart Supermarket",26,40.454202,49.739113,1,1,0,0,0,,,,
967,Nərimanov Grandmart,grandmart-narimanov,A,"Bakı şəhəri, Nərimanov rayonu, R. Qafurov 20, Grandmart Supermarket",1,40.399006,49.8603,1,1,0,0,0,,,,
968,Yasamal Grandmart,grandmart-yasamal-1,A,"Bakı şəhəri, Yasamal rayonu, Şəfaət Mehdiyev küçəsi, Grandmart supermarket",1,40.38646447,49.84419032,1,1,0,0,0,,,,
969,Yasamal Grandmart,grandmart-yasamal-2,A,"Bakı şəhəri, Yasamal rayonu, 589-cu məhəllə, Grandmart supermarket",1,40.383672,49.810044,1,1,0,0,0,,,,
970,Qaraçuxur Grandmart,grandmart-qaracuxur,A,"Bakı şəhəri, Suraxanı rayonu, Qaraçuxur qəsəbəsi, Grandmart Supermarket",1,40.401864,49.980459,1,1,0,0,0,,,,
971,"Grandmart, Ş. Qurbanov",grandmart-shqurbanov,A,"Bakı şəhəri, Ş. Qurbanov küç 2, Grandmart Supermarket",1,40.55503247690898,50.022624386509854,1,1,0,0,0,,,,
972,Rahat Market,rahat-market-tselimov,A,"Bakı şəhəri, T. Səlimov küç 7, Rahat Market",1,40.401131,49.821962,1,1,0,0,0,,,,
973,"Ağdam, Əfətli Market",efetli-market-agdam,A,"Ağdam rayonu, Əfətli kəndi, Əfətli Market",4,40.011973,47.092033,1,0,0,0,0,,,,
974,"Maştağa, AL Market",al-market-mashtaga,A,"Maştağa qəsəbəsi, Axund Mirzə Abdulkərim, AL Market",1,40.329048,49.78185,1,1,0,0,0,,,,
975,"Xızı, Sorabad Market",sorabad-market-xizi,A,"Xızı rayonu, Sorabad market",27,40.817045,49.465746,1,1,0,0,0,,,,
976,"Aran Ticarət Mərkəzi, Ucar",aran-ticaret-merkezi-ucar,A,"Ucar rayonu, Aran Ticarət Mərkəzi",65,40.517979,47.649549,1,0,0,0,0,,,,
977,"ASAN Xidmət, Ağcabədi",asan-xdimet-agcabedi,A,"Ağcabədi rayonu, Asan Xidmət",3,40.055036,47.416138,1,0,0,0,0,,,,
978,Kapital Bank - Bakıxanov filialı,kb-bakixanov-filiali-atm,A,"Bakı şəhəri, Sabunçu rayonu, Bakıxanov qəsəbəsi, S. Qocayev küçəsi 13, Kapital Bank Bakıxanov filialı",1,40.366279,48.168139,1,1,0,0,0,,,,
979,"Araz Market, Sabunçu",araz-market-sabuncu,A,"Bakı şəhəri, Sabunçu rayonu, Bəhruz Kəngərli küçəsi, Araz Market",1,40.444967,49.943564,1,1,0,0,0,,,,
980,"Yurdum Market, Kürdəmir",yurdum-market-kurdemir,A,"Kürdəmir rayonu, Məcburi köçkünlər Yaşayiş Kompleksi, Yurdum Market",32,40.339742,48.133077,1,0,0,0,0,,,,
981,"Sultan Market, Qazmalar",sultan-market-qazmalar,A,"Balakən rayonu, Qazmalar kəndi,  “Sultan market”",10,41.7211611,46.41844499,1,0,0,0,0,,,,
982,"Market, Güzdək",market-guzdek,A,"Abşeron rayonu, Güzdək qəsəbəsi",2,40.369851,49.678786,1,1,0,0,0,,,,
983,"Ticarət Mərkəzi, Baharlı",ticaret-merkezi-baharli,A,"Ağdam rayonu, Baharlı qəsəbəsi, Ticarət Mərkəzi",4,40.10199,47.064206,1,0,0,0,0,,,,
984,"Zeytun Market, Nəsimi",zeytun-market-nesimi,A,"Nəsimi rayonu, Ceyhun bəy Hacibəyli 37A, Zeytun market",1,40.390293,49.846395,1,1,0,0,0,,,,
985,Kapital Bank - Qubadlı filialı,qubadli-filiali-2,A,"Sumqayıt şəhəri, Heydər Əliyev prospekti 11/38, 17-ci məhəllə, Sahə 7, Kapital Bank Qubadlı filialı",55,40.59060139,49.66692472,1,1,0,0,0,,,,
986,Kapital Bank - Suraxanı filialı,kb-suraxani-filiali-atm,A,"Bakı şəhəri, Suraxanı rayonu, Əmircan qəsəbəsi, V. Balandin küçəsi 44, Suraxanı filialı",1,40.42175105,50.00145505,1,1,0,0,0,,,,
988,Kapital Bank - Qaradağ filialı,qaradag-filiali-atm,A,"Bakı şəhəri, Qaradağ rayonu, Lökbatan qəsəbəsi, 28 May küçəsi, Qaradağ filialı",1,40.32092138,49.73800778,1,1,0,0,0,,,,
990,"Qarabağ Market, Masazır",qarabag-market-masazir,A,"Masazır qəsəbəsi, Zəngilan Qaçqın şəhərciyi, Qarabağ market",1,40.484883,49.781685,1,1,0,0,0,,,,
991,Hava Limanı - Kargo,hava-limani-karqo,A,"Bakı şəhəri, Xəzər rayonu, Heydər Əliyev adına aeroport-Kargo",1,40.461414,50.07073,1,1,1,0,0,,,,
992,Hava Limanı - Silkway ofisi,hava-limani-silkway,A,"Bakı şəhəri, Xəzər rayonu, Heydər Əliyev adına hava limanı - Silkway ofis",1,40.46496642,50.05154376,1,1,0,0,0,,,,
993,"""Jurnalist Evi"" MMC",jurnalist-evi-mmc,A,"Bakı şəhəri, Bayıl qəsəbəsi, “Jurnalist evi MMC”",1,40.326019,49.82298,1,1,0,0,0,,,,
994,"Grandmart Supermarket, Zabrat",grandmart-supermarket-zabrat,A,"Zabrat qəsəbəsi, Zabrat dairəsi,  “Grandmart” Supermarket",1,40.491315,49.954371,1,1,0,0,0,,,,
995,"BroMart, Cərdaxan",bromart-jardahan,A,"Tovuz rayonu, Cərdaxan kəndi, “BroMart”",64,41.025899,45.602315,1,0,0,0,0,,,,
996,"Turan Market, Qobu",turanmarket-qobu,A,"Qobu qəsəbəsi, “Turan market”",2,40.410174,49.702938,1,1,0,0,0,,,,
997,"Paşa Sığorta, Sahil Plaza",pasha-sigorta-sahilplaza,A,"Bakı şəhəri, Səbail rayonu, M. Hüseynov 61, Sahil Plaza, Paşa Sığorta",1,40.358427,49.834154,1,1,0,0,0,,,,
998,ADPU-nun Şəki filialı,adpu-shaki,A,"Şəki şəhəri, M. Rəsulzadə 305, ADPU-nun Şəki filialı",59,41.22261,47.178232,1,0,0,0,0,,,,
999,"ASAN Xidmət, Balakən",asan-xidmet-balaken,A,"Balakən rayonu, ASAN Xidmət Mərkəzi",10,41.706932,46.423358,1,0,0,0,0,,,,
1000,Delta Telekom,delta-telecom,A,"Yasamal rayonu, Şərifzadə kücəsi, Delta Telekom",1,40.403628070426464,49.87263053202031,1,1,0,0,0,,,,
1001,"Qayalı Supermarket, Sumqayıt",qayali-supermarket,A,"Sumqayıt şəhəri, Şərifzadə küçəsi, Qayalı Supermarket",55,40.561645,49.694239,1,1,0,0,0,,,,
1002,"Optimal Electronics, Nərimanov",optimal-elektroniks-narimanov,A,"Nərimanov rayonu, Təbriz kücəsi 79, Optimal Electronics",1,40.399589,49.866345,1,1,0,0,0,,,,
1003,"Ballı market, Lənkəran",balli-market-lankaran,A,"Lənkəran rayonu, Şürük kəndi, Ballı market",41,38.730263341579665,48.776227709337604,1,0,0,0,0,,,,
1004,FHN hospital,fhn-hospital,A,"Zığ yolu, 27-ci km, FHN Modul tipli hospital",1,40.383647082976424,49.804122124426975,1,1,0,0,0,,,,
1005,"Səhliyalı KM, Xırdalan",sahliyalikm-xirdalan,A,"Abşeron rayonu, Xırdalan şəhəri, 28-ci məhəllə ev 18, Səhliyalı KM",26,40.447988,49.711321,1,1,0,0,0,,,,
1006,"Murad Market, Novxanı",murad-market-novxani,A,"Bakı şəhəri, Novxanı qəsəbəsi, Murad Market",1,40.561237,49.778349,1,1,0,0,0,,,,
1010,ARAZ MARKET Xırdalan 4,ot-xirdalan-arazmarket4,A,"Abşeron r., Xırdalan ş. M. Hüseynzadə küç,1-ci mərtəbə",26,40.45662,49.74158,1,0,0,0,0,,,,
1011,ARAZ MARKET BİNƏ 1,ot-bine-arazmarket1,A,"Bakı ş.,Əzizbəyov rayonu Binə qəsəbəsi Ə.İsazadə kucəsi 5",1,40.45036,50.08906,1,0,0,0,0,,,,
1012,ARAZ MARKET BİLƏCƏRİ,ot-bineqedi-arazmarket-bileceri,A,"Bakı şəhəri Binəqədi r. Biləcəri qəs, Mehdi Hüseynzadə 17",1,40.43625,49.80342,1,0,0,0,0,,,,
1013,ARAZ MARKET (SAVALAN),ot-mashtaga-arazmarket-savalan,A,"Bakı ş.,Sabuncu r. Maştağa qəs., Zabrat -Maştağa şössesi",1,40.50661,49.97543,1,0,0,0,0,,,,
1014,Araz Market (BUZOVNA),ot-xezer-arazmarket-buzovna,A,Xəzər rayonu buzovna qəsəbəsi Heydər Eyvazov kucəsi 47,1,40.40128,49.83154,1,0,0,0,0,,,,
1015,ARAZ MARKET (BDU),ot-yasamal-arazmarket-bdu,A,"Bakı şəhəri, Yasamal Rayonu, Firuddin Ağayev küçəsi 9 ünvani",1,40.37455,49.81163,1,0,0,0,0,,,,
1016,ARAZ MARKET (SARAY),ot-saray-arazmarket,A,"Abşeron rayonu, Saray qəsəbəsi",2,40.52429,49.68744,1,0,0,0,0,,,,
1017,ARAZ MARKET (CEYRANBATAN),ot-absheron-arazmarket-ceyranbatan,A,"Abşeron rayonu, Ceyranbatan qəsəbəsi, Bakı-Sumqayıt şossesi",2,40.54368,49.66297,1,0,0,0,0,,,,
1018,ARAZ MARKET (HÖVSAN),ot-hovsan-arazmarket,A,"Bakı şəhəri, Suraxanı rayonu,Hövsan qəsəbəsi,İ.Əhlimanov küçəsi 225",1,40.36069,50.08003,1,0,0,0,0,,,,
1019,DANYERİ AVM,ot-danyeri-avm,A,Naxçıvan şəhəri Ə.Əliyev kç. 46,45,39.21264,45.42209,1,0,0,0,0,,,,
1021,Xan Market Goranboy,ot-xan-market-goranboy-tapqaraqoyunlu-kendi,A,"Goranboy ray, Tapqaraqoyunlu kəndi",21,40.43153,46.76967,1,0,0,0,0,,,,
1022,Favorit market,ot-favorit-market-buzovna,A,"Bakı. Xəzər rayonu, Buzovna ŞTQ. Rasim İmanov küç 22a",1,40.52716,50.09811,1,0,0,0,0,,,,
1023,Araz Market Sumqayit,ot-araz-market-sumqayit,A,"Sumqayit şəhəri, 9 mkr, Üzeyir Hacibəyov küçəsi 25C",55,40.57021,49.68913,1,0,0,0,0,,,,
1024,Araz Market Masazir 2,ot-araz-market-masazir-2,A,"Abşeron r., Masazır ş., Əliağa Vahid kücəsi",2,40.47901,49.75255,1,0,0,0,0,,,,
1025,Araz market Olimpik,araz-market-olimpik,A,Nəsimi rayonu Mərdanov qardaşlari 137,1,40.40128,49.83154,1,0,0,0,0,,,,
1026,Araz Market Sahil,ot-araz-market-sahil,A,"Bakı ş., Qaradağ r., Sahil qəs., Məhərrəm Seyidov küç15",1,40.22518,49.57233,1,0,0,0,0,,,,
1028,Araz Market Sabuncu,ot-araz-market-sabuncu,A,"Sabunçu qəs., Ə.Məmmədəliyev küç. 18A (Sabunçu xəstəxanasının yaxınlığı)",1,40.44604,49.91651,1,0,0,0,0,,,,
1029,İmişli Araz Market,ot-araz-market-imishli,A,İmişli r. Qabil İsmayılzadə küç.,29,39.86757,48.06013,1,0,0,0,0,,,,
1030,Araz Market Bərdə,ot-araz-market-berde,A,"Bərde ş., Heyder Eliyev pr.",12,40.39921,47.12290,1,0,0,0,0,,,,
1031,Araz Nerimanov 2,ot-araz-nerimanov-2,A,"Nərimanov rayonu,Ağa nemətulla, ev 70a",1,40.39679,47.87904,1,0,0,0,0,,,,
1032,Zaur market,ot-zaur-market,A,"Xaçmaz rayonu, Nabran qəsəbəsi",25,41.76446,48.67856,1,0,0,0,0,,,,
1033,Araz market Şərifzadə,ot-araz-market-sherifzade,A,"Bakı şəhəri, Şərfizadə küçəsi ünvanı",1,40.38211,49.80426,1,0,0,0,0,,,,
1034,MİDA,ot-mida,A,Hovsan yasayis kompleksi,1,40.38189,50.06812,1,0,0,0,0,,,,
1035,Oba market,ot-oba-market,A,"Ağcabədi rayonu, Qarabağ küçəsi 55",1,40.05325,47.45539,1,0,0,0,0,,,,
1037,Sulumart market,ot-sulumart-market,A,"Binəqədi rayonu, Sulutəpə qəsəbəsi",1,40.43012,49.77281,1,0,0,0,0,,,,
1038,Zeytun Market,ot-zeytun-market,A,"Bakı ş., Nəsimi r., Ceyhun Hacıbəyli 37A",1,40.38606,49.84808,1,0,0,0,0,,,,
1039,Azercell Plaza,ot-azercell-plaza,A,"Bakı ş., Yasamal r., Tbilisi pr. 149",1,40.40007,49.80954,1,0,0,0,0,,,,
1040,Favorit Xəzər,ot-favorit-xezer-market,A,Bakı şəhəri Gəncə prospekti 2942 saylı məhəllə korpus 3,1,40.38110,49.96518,1,0,0,0,0,,,,
1041,Bolmart Super market  9-cu mkr.,ot-bolmart-market-9-mkr,A,Bakı ş. Binəqədi r. M.Cəlal küç 314,1,40.42128,49.81493,1,0,0,0,0,,,,
1042,Favorit Neapol,ot-favorit-market-neapol,A,Bakı şəhəri General Şıxlınski küçəsi 55,1,40.38365,49.96660,1,0,0,0,0,,,,
1043,Araz Nerimanov-3,ot-araz-market-nerimanov3,A,"Bakı şəhəri, Nərimanov Rayonu, Nazim Hacıyev küçəsi ilə Faiq Yusifov küçələrinin kəsişməsi, 1950 ci məhəllə",1,40.40210,49.87407,1,0,0,0,0,,,,
1044,Sumqayıt Qayalı Market,ot-qayali-market,A,"Sumqayıt ş, H.Z.Tağıyev qəs.",55,40.61906,49.56253,1,0,0,0,0,,,,
1045,SUMQAYIT QAYALI MARKET-2,ot-qayali-market-sumqayit,A,"Sumqayıt ş., 11mkr.Ş.Bədəlbəyli küç.",55,40.56999,49.67535,1,0,0,0,0,,,,
1046,"Araz 6 mkr, 2 express",araz-market-6mkr-2express,A,"Bakı şəhəri,Binəqədi rayonu,Svetlana Məmmədova küçəsi 209F",1,40.42574,49.82926,1,0,0,0,0,,,,
1047,Araz Xirdalan-3,ot-araz-market-xirdalan-aaf,A,"Xırdalan şəh., AAAF Park yaşayış kompleksi",1,40.45726,49.72300,1,0,0,0,0,,,,
1048,Şəmkir Zümrüd Market 2,ot-shemkir-zumrud-market-deller,A,Şəmkir r. Dəlilər kəndi,60,40.87790,46.02825,1,0,0,0,0,,,,
1049,Araz Neftçiler,ot-araz-market-neftciler,A,Nizami rayonu Şərifli kucəsi 25,1,40.41339,49.94951,1,0,0,0,0,,,,
1050,Araz Təbriz capayev,ot-araz-market-capayev,A,"Bakı ş., Nərimanov r-nu, Qarabağ küçəsi    ",1,40.38894,49.85726,1,0,0,0,0,,,,
1051,Araz Gunəşli-5,ot-araz-market-guneshli,A,"Bakı ş., Suraxanı r-nu, Yeni Günəşli qəs., AB yaşayış sahəsi 127                                                    ",1,40.36900,49.97575,1,0,0,0,0,,,,
1053,Araz 8-km,ot-araz-market-8km,A,"Bakı şəhəri Nizami rayonu Bəhruz Nuriyev ev. 32, 2-ci blok 1 ci Mərtəbə",1,40.40212,49.95533,1,0,0,0,0,,,,
1055,"Market, Tağıyev qəsəbəsi",ot-market-tagiyev-qes,A,Sumqayıt ş. H.Z.Tağıyev qəs.  F.Qeyibov küç. 14,55,40.62240,49.55488,1,0,0,0,0,,,,
1056,Nursel market,ot-nursel-market,A, Binəqədi r. Ə.Naxçıvani küç 18/A,1,40.41622,49.84114,1,0,0,0,0,,,,
1057,Tayga market,ot-tayga-market-dernegul,A,Binəqədi r. Dərnəgül qəs. ev 19 aşırım,1,40.41603,49.84957,1,0,0,0,0,,,,
1058,Tayga market,ot-tayga-market-binegedi,A,Binəqədi r. Binəqədi şossesi 308 c,1,40.43179,49.85184,1,0,0,0,0,,,,
1059,Stimul Hospital,ot-stimul-market,A,Sabunçu r. Bakıxanov q. Yavər Əliyev küç. 26,1,40.43384,49.95631,1,0,0,0,0,,,,
1060,Mini market,ot-mini-market,A,Bakı ş. Gəncə pr. 20 A,1,40.36823,49.96003,1,0,0,0,0,,,,
1061,Myshops,ot-myshops,A,Azadlıq pr.18,1,40.37850,49.84793,1,0,0,0,0,,,,
1062,MERYEM PLAZA,ot-meryem-plaza,A,"Bakı şəhəri, Bəsti Bağırova 12",1,40.38597,49.83333,1,0,0,0,0,,,,
1063,Bolmart Mehdiabad,ot-bolmart-mehdiabad,A,Bakı ş. Abşeron r. Mehdiabat qəs.,2,40.50096,49.85618,1,0,0,0,0,,,,
1064,BOLMART S.VURGUN KUCH.,ot-bolmart-semed-vurgun75,A,BAKI SH. NESIMI RAY. S.VURGUN KUCH.75,1,40.38371,49.83799,1,0,0,0,0,,,,
1065,BOLMART Yasamal,ot-bolmart-market-salamzade,A,BAKI SH. YASAMAL RAY. A.SALAMZADE KUCH.1058,1,40.39866,49.81619,1,0,0,0,0,,,,
1066,Bolmart Zabrat,ot-bolmart-market-zabrat,A,"Bakı ş, Zabrat qəs, Montin küç 21",1,40.49166,49.95307,1,0,0,0,0,,,,
1067,GrandMart Zabrat,ot-grandmart-zabrat,A,Bakı ş. Zabrat qəs. Zabrat dairəsi,1,40.49136,49.95456,1,0,0,0,0,,,,
1068,AvroMart,ot-avromart-market,A,Bakı şəh. Nəsimi ray. Nizami küç. 129e,1,40.37716,49.85501,1,0,0,0,0,,,,
1069,MASTAGA 24 SAAT MARKET,ot-mashataga-market,A,"Bakı şəhəri, Sabunçu rayonu Maştaga qəsəbəsi",1,40.53251,50.00469,1,0,0,0,0,,,,
1070,Grandmart market,ot-grandmart-yasamal,A,Bakı şəh. Yasamal ray. 589-cu məhəllə H. Məcidov küç.,1,40.38358,49.81011,1,0,0,0,0,,,,
1071,Grandmart Bakıxanov,ot-grandmart-bakixanov,A,Sabunçu ray. B.Bünyadov küç. 134,1,40.42752,49.93948,1,0,0,0,0,,,,
1072,Qayali market Sumqayit,ot-qayali-market-sumqayit-10mkr,A,Sumqayıt Şəh.10cu mk.Babək küç.,55,40.56854,49.69181,1,0,0,0,0,,,,
1073,Grandmart Sumqayıt,ot-grandmart-sumqayit,A,SUMQAYIT S.VURGUN küç. 6 .6.mkr,55,40.57922,49.69366,1,0,0,0,0,,,,
1074,Grandmart Asiman,ot-grandmart-market-asiman,A,Xətai rayonu ilqar abbasov küç 7a,1,40.37585,49.92769,1,0,0,0,0,,,,
1075,Bolmart Neftçilər,ot-bolmart-market-neftciler,A,Rüstəm Rüstəmov küç. 23,1,40.40836,49.93870,1,0,0,0,0,,,,
1076,Grandmart Supermarket,ot-bolmart-market-qarayev,A,Q.QARAYEV PR.46 GRANDMART SUPERMARKET,1,40.41417,49.93985,1,0,0,0,0,,,,
1077,Grand Mart Af centr S,ot-grandmarket-afcenter,A,"Səməd Vurgun 34, Af centr. altı.Toys Shop yanı",1,40.37631,49.84188,1,0,0,0,0,,,,
1078,Bolmart Saray,ot-bolmart-market-saray,A,"Bakı - Sumqayıt yolu, Saray postu",1,40.52210,49.68911,1,0,0,0,0,,,,
1079,Oğuz Mart,ot-oguzmart,A,"Oğuz şəhəri,Cavanşir küçəsi 44.",47,41.07185,47.46340,1,0,0,0,0,,,,
1080,Şöhrət market,ot-shohret-market,A,"Bakı ş, Xətayi rayonu general Şıxlinski 42A",1,40.36957,49.96363,1,0,0,0,0,,,,
1081,Sabirabad Ulacali Market,ot-ulacali-market,A,Sabirabad Ulacali kendi,50,40.07268,48.59251,1,0,0,0,0,,,,
1082,Araz Market - GLASS PLAZA,ot-araz-market-glassplaza,A,Bakı şəhəri Yasamal rayonu Hüseyn Cavid prospekti 17,1,40.36661,49.81684,1,0,0,0,0,,,,
1083,Hacıqabul Talış T.M,ot-haciqabul-talis-ticaret-merkezi,A,HACIQABUL rayon  Talış kəndi,24,40.03886,48.92142,1,0,0,0,0,,,,
1084,Araz Market Y. Yasamal-1,ot-araz-market-yasamal1,A,"Baki seheri Yasamal rayonu Yeni Yasamal-1 kuc, 14",1,40.38198,49.80717,1,0,0,0,0,,,,
1085,Ekonom market,ot-ekonom-market-qax,A,"Qax şəhəri  H.Əliyev  pr.,4",33,41.4192877,46.9171469,1,0,0,0,0,,,,
1086,Şəki Store market,ot-shekistore,A,Şəki şəhəri M.Ə.Rəsulzadə küç 166 B,59,41.19804,47.17607,1,0,0,0,0,,,,
1087,Araz market Yasamal-2,ot-araz-market-yasamal2,A,"Baki seheri,Yasamal rayonu, M.Seyidov kuc 23",1,40.38023,49.80725,1,0,0,0,0,,,,
1088,Oba Market,ot-oba-market-sabirabad,A,"Sabirabad rayonu, Nizami kəndi",50,40.01952,48.47804,1,0,0,0,0,,,,
1089,Araz market Elmlər,ot-araz-elmler,A,Yasamal rayon Şəhriyar kucəsi 6 nomrəli binanin 1 ci mərtəbəsi,1,40.37733,49.81053,1,0,0,0,0,,,,
1090,"Araz Market, Nizami-1",ot-araz-market-nizami1,A,"Yasamal rayonu, 422-ci məhəllə, Mirzə İbrahimov küç. 53, 1-ci mərtəbə",1,40.38592,49.80835,1,0,0,0,0,,,,
1091,Araz Market Yasamal,ot-araz-yasamal,A,"Yasamal rayonu, H.Zərdabi pr. 593-cü məhəllə",1,40.38592,49.80859,1,0,0,0,0,,,,
1092,İl market,ot-il-market,A,"Sabunçu rayonu, Kürdəxanı qəsəbəsi",1,40.54752,49.91097,1,0,0,0,0,,,,
1093,Favorit market Bayil (20-ci sahe),ot-favorit-market-bayil,A,Bakı şəhəri Səbail rayonu Salyan şössesi 20-ci ünvan,1,40.32894,49.81885,1,0,0,0,0,,,,
1094,Araz Market Badamdar-2,ot-araz-badamdar,A,"Baki şəhəri, Səbail ray., Badamdar qəs., T.Məmmədov 3 və 5 unvanında yerləşən 18 mərtəbəli binanın 1-ci mərtəbəsi",1,40.33899,49.80744,1,0,0,0,0,,,,
1095,Grand market,ot-grandmart-shusha,A,Şuşa şəhəri,74,39.75322,46.74633,1,0,0,0,0,,,,
1097,Araz Market Badamdar,ot-araz-market-badamdar,A,"Bakı şəhəri, Səbail Rayonu, Badamdar qəsəbəsi, 1 yaşayış massivi",1,40.35114,49.81062,1,0,0,0,0,,,,
1098,Araz market Sulutəpə-3,ot-araz-market-sulutepe3,A,"Bakı ş., Binəqədi r-nu, Sulutəpə qəs., R.Allahverdiyev küçəsi, ev 25F   ",1,40.43297,49.77141,1,0,0,0,0,,,,
1099,Sakit Market,ot-sakit-market,A,"Gəncə ş., Gülüstan qəsəbəsi, 37 saylı binanın cənub küç.",20,40.63896,46.34411,1,0,0,0,0,,,,
1100,Favorit market Rəsulzadə,ot-favorit-market-resulzade,A,"Bakı şəhəri, Binəqədi rayonu, Azadlıq prospekti 157",1,40.43632,49.84574,1,0,0,0,0,,,,
1101,Spar market Rəsulzadə,ot-spar-market-resulzade,A,"Bakı şəhəri, Binəqədi rayonu, M.Ə.Rəsulzadə qəsəbəsi, Binəqədi şosesi 195 E",1,40.43628,49.84424,1,0,0,0,0,,,,
1102,Araz market 6 Mkr 1,araz-market-6mkr1,A,"Bakı şəhəri, Binəqədi rayonu, 6 - cı mikrorayon, İsrafil Həşimov küçəsi ev 1 a",1,40.42639,49.83223,1,0,0,0,0,,,,
1103,Araz Market 9 Mkr,araz-market-9mkr,A,"Bakı şəhəri, Binəqədi rayonu, 9 mkr, H.Seyidzadə küçəsi 38",1,40.42034,49.80946,1,0,0,0,0,,,,
1104,Araz Market Binəqədi,araz-market-binegedi,A,"Bakı şəhəri, Binəqədi rayonu, Binəqədi ŞTQ 2-ci mədən",1,40.46602,49.82926,1,0,0,0,0,,,,
1105,Favorit Market Binəqədi,ot-favorit-market-binegedi,A,"Bakı şəhəri, Binəqədi rayonu, Gülməmməd Ramazanov küç (1 sayli qarışıq mallar mağazasi) 2-ci Mədən. Korpus-52",1,40.46602,49.82931,1,0,0,0,0,,,,
1106,Abad Market,ot-abad-market,A,"Zaqatala şəhəri, Əliabad qəsəbəsi",1,41.48846,46.62327,1,0,0,0,0,,,,
1107,Araz Market 7 mkr express,ot-araz-market-7mkr-express,A,"Bakı şəhəri, Binəqədi rayonu, 7-ci mkr, 3123-cü məhəllə",1,40.43319,49.85102,1,0,0,0,0,,,,
1108,Araz Market 7 mkr_2,ot-araz-market-7mk-2,A,"Bakı şəhəri, Binəqədi rayonu, F.Məlikov küçəsi 18a",1,40.42901,49.85392,1,0,0,0,0,,,,
1109,Ailəvi Market,ot-ailevi-market-imishli,A,"İmişli rayonu, M.Əzizbəyov küç. 10",29,39.86088,48.06326,1,0,0,0,0,,,,
1110,Araz Market  7mkr - 3,ot-araz-market-7mk-3,A,"Binəqədi ray., 7-ci mkr, S.S. Axundov küç. 3C",1,40.42686,49.85000,1,0,0,0,0,,,,
1111,PETEK Market,ot-petek-market,A,"Bakı ş. Elşən Məhərəmli küçəsi, Sovxoz Ramanı",1,40.48075,49.98632,1,0,0,0,0,,,,
1112,Araz Market 20 Yanvar-2,ot-araz-market-20yanvar-2,A,"Nəsimi ray, Memmed Cefer kuc ev b10,3006 mehelle",1,40.42035,49.80950,1,0,0,0,0,,,,
1113,Elvin Market,ot-elvin-market,A,"Füzuli, 1 saylı qəsəbə",11,39.61732,47.65761,1,0,0,0,0,,,,
1114,Araz market Azadlıq 2,ot-araz-market-azadliq2,A,"Bakı şəhəri, Nəsimi rayonu, Vladislav Plotnikov, ev. 103 m. 1",1,40.38521,49.84448,1,0,0,0,0,,,,
1115,Şirvan Dəniz Market,ot-shirvan-market,A,"Şirvan şəhəri, T.Ələkbərov küç. 1",62,39.94302,48.93161,1,0,0,0,0,,,,
1116,İlyas Market,ilyas-market-sabirabad,A,"Sabirabad rayonu, Nərimankən kəndi",1,39.99540,48.47471,1,0,0,0,0,,,,
1117,Eldaroğlu Market,ot-eldaroglu-market,A,"Ağcabədi rayonu, Avşar kəndi",3,39.97454,47.41987,1,0,0,0,0,,,,
1118,"Araz Market, Kömürçü (Ə.Hüseynzadə)",ot-araz-market-komurcu,A,"Bakı şəhəri, Nəsimi rayonu, Əlibəy Hüseynzadə küçəsi 84",1,40.38077,49.83456,1,0,0,0,0,,,,
1119,Spar 1,ot-spar1-market,A,"Baki şəhəri, Nəsimi rayonu, Cavadxan küçəsi, 3 MKN, 3005-ci məhəllə",1,40.40636,49.81385,1,0,0,0,0,,,,
1120,Billur Market,ot-billur-market,A,"Zaqatala şəhəri, Nizami küçəsi 35",68,41.63176,46.65070,1,0,0,0,0,,,,
1121,Əli Market,ot-eli-market,A,"Saatlı rayonu, Sarıcalar kəndi",49,39.92289,48.91306,1,0,0,0,0,,,,
1122,Favorit Inqilab,ot-favorit-inqlab,A,"Bakı şəhəri, Nərimanov rayonu M.Əlizadə küçəsi, 917-ci məhəllə, ev 1",1,40.40177,49.84077,1,0,0,0,0,,,,
1123,Elşən market,ot-elsen-market,A,"Sabirabad rayonu, Qaragüney kəndi",50,39.96365,48.84802,1,0,0,0,0,,,,
1124,Anar Market,ot-anar-market,A,"Şəki şəhəri, Aşağı Göynük kəndi",59,41.28095,47.01667,1,0,0,0,0,,,,
1125,"Spar Market, Genclik",ot-spar-market-genclik,A,"Bakı şəhəri, Nərimanov rayonu, 865 - ci məhəllə, Koroğlu Rəhimov küçəsi 22C",1,40.39044,49.84751,1,0,0,0,0,,,,
1126,Fayton Market,ot-fayton-market,A,"Şamaxı şəhəri, H.Əliyev pr. 127",58,40.63202,48.63681,1,0,0,0,0,,,,
1127,Araz Market Nerimanov-4,ot-araz-market-nerimanov4,A,"Nəriman Nərimanov rayonu, Ə.Əliyev küçəsi, 26-cı məhəllə",1,40.40213,49.87913,1,0,0,0,0,,,,
1128,Araz Market Nerimanov-Saf,ot-araz-market-nerimanov-saf,A,"Nərimanov r/n 1936 cı mehelle, Aga Neymetulla",1,40.40212,49.87422,1,0,0,0,0,,,,
1129,XL market,ot-xl-market,A,"Göyçay rayonu, Bərgüşad yolu",22,40.63562,47.75871,1,0,0,0,0,,,,
1130,Buta market,ot-buta-market,A,"Ağsu rayonu, Bakı-Qazax yolu, 152-ci km",7,40.58113,48.39515,1,0,0,0,0,,,,
1131,Araz Market Xırdalan-4,ot-araz-market-xirdalan4,A,"Abşeron rayonu, Xırdalan şəhəri, M.Hüseynzadə küçəsi,1-ci mərtəbə",2,40.45864,49.71426,1,0,0,0,0,,,,
1132,Araz Market Masazır 2,ot-araz-market-masazir2,A,"Abseron rayonu, Masazır qəsəbəsi, Əliağa Vahid küç.",2,40.47909,49.75212,1,0,0,0,0,,,,
1133,Araz Market Saray-2,araz-market-saray2,A,"Abşeron rayonu, Saray qəsəbəsi, Məhəmməd Əsədov küç, 68-ci binanın 1-ci mərtəbəsi",2,40.53273,49.70802,1,0,0,0,0,,,,
1134,Araz Market Mehdiabad-2,ot-araz-market-mehdiabad2,A,"Abşeron rayonu, Mehdiabad qəsəbəsi, 28 may küçəsi",1,40.48843,49.85579,1,0,0,0,0,,,,
1135,Araz Market Mehdiabad,ot-araz-market-mehdiabad,A,Abşeron rayonu Mehdiabad qəsəbəsi Fatmai şossesi,2,40.49639,49.85707,1,0,0,0,0,,,,
1136,Favorit Novxani,ot-favorit-novxani,A,"Abşeron rayonu, Novxanı kəndi",2,40.49658,49.85820,1,0,0,0,0,,,,
1137,Araz Market Masazır - 3,ot-araz-market-masazir3,A,"Abşeron rayonu, Masazır kəndi",2,40.45761,49.76111,1,0,0,0,0,,,,
1138,ASI market,ot-asi-market,A,"Kürdəmir rayonu, Bakı pr. 33",32,40.33650,48.15119,1,0,0,0,0,,,,
1139,Ekonom Market,ot-ekonom-market,A,"Şəki şəhəri, M.Ə.Rəsulzadə küç. 180",59,41.19933,47.17816,1,0,0,0,0,,,,
1140,Axtacı market,ot-axtaci-market,A,"Sabirabad rayonu, Axtacı-Muğan kəndi",50,40.00766,48.71620,1,0,0,0,0,,,,
1141,Zumrud Market,ot-zumrud-market,A,"Şəmkir şəhəri, Səməd Vurğun küç. 1",60,40.87801,46.02861,1,0,0,0,0,,,,
1142,Xanim market,ot-xanim-market,A,"Gəncə şəhəri, Şah İsmayıl Xətai pr.",20,40.68639,46.38757,1,0,0,0,0,,,,
1143,Kəsəmən Market ,ot-agstafa-market,A,"Ağstafa rayonu, Rafiq Əlicanov küç. 5",6,41.11454,45.44732,1,0,0,0,0,,,,
1144,Bolmart Hadrut flialı,ot-bolmart-market-xocavend,A,Xocavənd rayonu,18,39.51424,47.03969,1,0,0,0,0,,,,
1145,Cahan Alış-Veriş Mərkəzi MMC,ot-cahan-alis-veris-merkezi,A,Naxçıvan şəh. Ə.Əliyev küç. 2,45,39.19513,45.42963,1,0,0,0,0,,,,
1146,Cahan MMC Ticarət Mərkəzi,ot-cahan-mmc-ticaret-merkezi,A,Naxçıvan Şəh. Ə.Əliyev kç.10,45,39.20627,45.42477,1,0,0,0,0,,,,
1147,PARK AVM,ot-park-avm,A,"Naxçıvan şəhəri, Nizami küçəsi 27",45,39.20893,45.40637,1,0,0,0,0,,,,
1148,"Məişət Evi, Market",ot-meiset-evi-market,A,"Naxçıvan MR, Babək rayonu, Nehrəm kəndi",9,39.12048,45.46766,1,0,0,0,0,,,,
1149,Babək Bələdiyyənin binası,ot-babek-belediyye-binasi,A,"Naxçıvan MR, Babək şəhəri, H.Əliyev pr.",9,39.15841,45.44542,1,0,0,0,0,,,,
1150,Cəhri Xidmət Mərkəzi,ot-cehri-xidmet-merkezi,A,"Naxçıvan MR, Babək rayonu, Cəhri qəsəbəsi",9,39.35783,45.40889,1,0,0,0,0,,,,
1151,Culfa Rabitə İdarəsi,ot-rabite-idaresi,A,"Naxçıvan MR, Culfa şəhəri, Təbriz küç. 1",16,38.95577,45.62857,1,0,0,0,0,,,,
1152,"Ticarət mərkəzi, Market",ot-ticaret-merkezi-market,A,"Naxçıvan MR, Ordubad şəhəri, H.Əliyev prospekti",48,38.90547,46.01939,1,0,0,0,0,,,,
1153,Ərzaq Mağazası,ot-qivraq-qesebesi-erzaq-magazasi,A,"Naxçıvan MR, Kəngərli rayonu, Qıvraq qəsəbəsi",31,39.40117,45.11144,1,0,0,0,0,,,,
1154,İnternet və Yeni Texnologiyaların Tədrisi Mərkəzi,ot-iyt-tedrisi-merkezi,A,"Naxçıvan MR, Şərur şəhəri, H.Əliyev prospekti",61,39.55713,44.98519,1,0,0,0,0,,,,
1155,Rabitə evi,ot-sederek-rabite-evi,A,"Naxçıvan MR, Sədərək rayonu, Sədərək kəndi",53,39.70475,44.88303,1,0,0,0,0,,,,
1156,Ərzaq mağazası,ot-sahbuz-erzaq-magazasi,A,"Naxçıvan MR, Şahbuz şəhəri, H.Əliyev prospekti",57,39.40547,45.56644,1,0,0,0,0,,,,
1157,"Bolmart, AAAF Park",bolmart-aaaf-park,A,"Heydər Əliyev prospekdi, 25 saylı Küçəsi ünvaninda yerləşən “Bolmart”",1,40.457642,49.722925,1,1,0,0,0,,,,
1158,Kapital Bank Bakıxanov flialı,kapital-bank-bakikhanov,A,"Bakıxanov qəsəbəsi, S.Qocayev Küçəsi13",1,40.416667,49.965287,1,1,0,0,0,,,,
1159,Brand Bokt MMC,brand-bokt-mmc,A,"İnşatçılar prospekti, Brand Bokt MMC",1,40.374736,49.818677,1,0,0,0,0,,,,
1160,Tufandağ,tufandag,A,"Tufandağ, Durca kəndi",35,40.97971882307239,47.829402777774035,1,0,1,0,0,,,,
1161,Winter Park Hotel Company,winter-park-hotel-company,A,"Winter Park Hotel Company, Mirzəaga Əliyev Küçəsi",1,40.45351264656224,49.74019896505457,1,1,1,0,0,,,,
1162,Toyota Lexus Mərkəzi,toyota-lexus-center,A,"Toyota Lexus Mərkəzi, Fizuli Bayramov Küçəsi",1,40.385596,49.867889,1,1,1,0,0,,,,
1163,"Sulumart Market, Binəqədi qəsəbəsi",sulumart,A,"Sulumart Market, Binəqədi qəsəbəsi",1,40.374755,49.81987,1,1,0,0,0,,,,
1164,"Zaur Market, Nabran qəsəbəsi",zaur-market,A,"Zaur Market, Nabran qəsəbəsi",25,41.757108,48.700267,1,0,0,0,0,,,,
1165,Ailə Market,aile-market,A,"Ailə Market, 20 Yanvar Küçəsi",25,41.458559,48.802613,1,0,0,0,0,,,,
1166,"Araz Market, Şüvəlan",araz-market-shuvalan,A,"Araz Market, Şüvəlan qəsəbəsi, A. İldırım Küçəsi 11",1,40.377183,49.81719,1,0,0,0,0,,,,
1167,"Araz Market, Alatava 2",araz-market-alatava,A,"Araz Market, Tblisi prospekti, Alatava 2",1,40.397833,49.813869,1,1,0,0,0,,,,
1168,"Araz Market, Masazır",araz-market-masazir,A,"Araz Market, Abşeron rayonu, Masazır Girişi",1,40.456323,49.757839,1,0,0,0,0,,,,
1169,"Araz Market, Yasamal",araz-market-yasamal,A,"Araz Market, M. Seyidov Küçəsi 23",1,40.378113,49.807599,1,0,0,0,0,,,,
1170,"Spar Market, Memar Əcəmi",spar-market-memar-ecemi,A,"Spar Market, Cavadxan Küçəsi 3005",1,40.302751,49.779395,1,0,0,0,0,,,,
1171,"İslam Araz Market, Ətcələr",islam-araz-market-etcheler,A,"İslam Araz Market, Ətçələr kəndi",1,39.78280242598024,48.95389764858529,1,0,0,0,0,,,,
1172,"Natiq Market, Moranlı",natiq-market-moranli,A,"Natiq Market, Moranlı  kəndi",1,39.821672,48.953174,1,0,0,0,0,,,,
1173,"İl Market, Kürdəxanı",il-market-kurdaxani,A,"İl Market, Kürdəxanı qəsəbəsi",1,40.547413,49.910989,1,1,0,0,0,,,,
1174,STQ Araz Market,araz-market-bina,A,"STQ Araz Market, Binə qəsəbəsi",1,40.363952,50.072603,1,1,0,0,0,,,,
1175,"Mamusta Market, Mamusta",mamusta-market,A,"Mamusta Market, Mamusta kəndi",41,38.74115698446981,48.83233212128729,1,0,0,0,0,,,,
1176,"İlyas Market, Nərimankən",ilyas-market-nerimanken,A,"İlyas Market, Nərimankən kəndi",50,39.960687,48.636869,1,0,0,0,0,,,,
1177,İnvestisiya Holding,investment-holding,A,"İnvestisiya Holding, Azərbaycan prospekdi 6",1,40.370051,49.834477,1,1,0,0,0,,,,
1178,"Xan Market, Tapqaraqoyunlu",xan-market-tapgaragoyunlu,A,"Xan Market, Tapqaraqoyunlu kəndi",21,40.429555,46.769056,1,0,0,0,0,,,,
1179,Kapital Bank Ordubad flialı,kapital-bank-ordubad,A,Kapital Bank Ordubad flialı,48,39.21241432,45.41043413,1,0,1,0,0,,,,
1180,Ramada Hotel,ramada-hotel,A,"Ramada Hotel, Nizami Küçəsi 237",20,41.142636270176574,46.26504339507301,1,1,1,0,0,,,,
1181,Landmark,landmark,A,"Landmark, Nizami Küçəsi 96E",1,40.375579,49.849914,1,0,0,0,0,,,,
1182,Maxi Market,maxi-market,A,"Maxi Market, Heydər Əliyev prospekdi",20,40.705444,46.366709,1,0,0,0,0,,,,
1183,"Araz Market, Novxanı",araz-market-novxani,A,"Araz Market, Novxanı",1,40.532528,49.785402,1,0,0,0,0,,,,
1184,"Araz Market, Novxanı",araz-market-novxani,A,"Araz Market, Novxanı",1,40.532528,49.785402,1,0,0,0,0,,,,
1185,"Araz Market, Sumqayıt",araz-market-sumgayit,A,"Araz Market, 32-ci məhəllə",55,40.525004,49.691497,1,0,0,0,0,,,,
1186,"Zümrüd market, Dəllər",zumrud-market-deller,A,"Zümrüd market, Dəllər qəsəbəsi",60,40.863239,46.036620,1,0,0,0,0,,,,
1187,"Bravo, Binəqədi",bravo-binegedi,A,"Bravo, Şövkət Ələkbərova Küçəsi 2",1,40.41930279656612,49.84657374457092,1,1,0,0,0,,,,
1188,"Bravo, Bakıxanov",bravo-bakixanov,A,"Bravo, Ramiz Qənbərov Küçəsi 2566m",1,40.412479,49.953862,1,1,0,0,0,,,,
1189,"Bravo, Suraxanı",bravo-suraxani,A,"Bravo, Yeni Günəşli yaşayış massivi",1,40.387281,49.975366,1,1,0,0,0,,,,
1190,"Grandmart, Cəfər Cabbarlı",grandmart-cefer-cabbari,A,"Grandmart, Nizami 129 Küçəsi",1,40.376581,49.852180,1,0,0,0,0,,,,
1191,Qayalı Superstore,gayali-superstore,A,Qayalı Superstore,55,40.617062,49.576207,1,0,0,0,0,,,,
1192,Ən Ucuz Market,en-ucuz-market,A,"En Ucuz Market, Məhəmməd Əsədov Küçəsi",1,40.559848,49.705981,1,1,0,0,0,,,,
1193,"Araz Market, Sovetski",araz-market-sovetsky-ot,A,"Araz Market, M.Huseynzade küçəsi, 1-ci mertebe",1,40.45662,49.74158,1,0,0,0,0,,,,
1194,"Araz Market, Binə",araz-market-bina-ot,A,"Araz Market, Əzizbəyov rayonu, Binə qəsəbəsi Ə.İsazadə küçəsi 5",1,40.45036,50.08906,1,0,0,0,0,,,,
1195,"Araz Market, Biləcəri",araz-market-bileceri-ot,A,"Araz Market, Binəqədi rayonu, Biləcəri qəsəbəsi, Mehdi Hüseynzadə 17",1,40.43625,49.80342,1,0,0,0,0,,,,
1196,"Araz Market, Zabrat-Maştağa",araz-market-zabrat-mashtaga-ot,A,"Araz Market, Sabuncu rayonu Maştağa qəsəbəsi, Zabrat-Maştağa şossesi",1,40.50661,49.97543,1,0,0,0,0,,,,
1197,"Araz Market, Buzovna",araz-market-buzovna,A,"Araz Market, Buzovna qəsəbəsi Heydər Eyvazov küçəsi 47",1,40.51667,50.10243,1,0,0,0,0,,,,
1198,"Araz Market, Saatlı",araz-market-saatli,A,"Araz Market, Yasamal Rayonu, Firuddin Ağayev küçəsi 9 ünvani",1,40.37455,49.81163,1,0,0,0,0,,,,
1199,"Araz Market, Saray",araz-market-saray,A,"Araz Market,  Saray qəsəbəsi",2,40.52429,49.68744,1,0,0,0,0,,,,
1200,"Araz Market, Ceyranbatan",araz-market-jayranbatan,A,"Araz Market, Ceyranbatan qəsəbəsi, Bakı-Sumqayıt şossesi",2,40.54368,49.66297,1,0,0,0,0,,,,
1201,"Araz Market, Hövsan",araz-market-hovsan,A,"Araz Market,  Suraxanı rayonu, Hövsan qəsəbəsi, İ.Əhlimanov küçəsi 225",1,40.36069,50.08003,1,0,0,0,0,,,,
1202,"Araz Market, 9-cu mikrorayon",araz-market-9-microcosm,A,"Araz Market, 9 mikrorayon, Üzəyir Hacibəyov küçəsi 25C",55,40.5702,49.68913,1,0,0,0,0,,,,
1203,"Araz Market, Saray 2",araz-market-saray-2,A,"Araz Market, Saray qesebesi,  Mehemmed Esedov küçəsi 68ci binanin1ci mertebesi",2,40.47901,49.75255,1,0,0,0,0,,,,
1204,"Araz Market, Nəsimi",araz-market-nasimi,A,"Araz Market, Nəsimi rayonu, Mərdanov qardaşlari 137",1,40.40128,49.83154,1,0,0,0,0,,,,
1205,"Araz Market, Yasamal 2",araz-market-yasamal-2,A,"Araz Market, Sahil qəsəbə, Məhərrəm Seyidov küçəsi 15",1,40.22518,49.57233,1,0,0,0,0,,,,
1206,"Zeytun Market, Cəfər Cabbarlı",zeytun-market-jafar-jabbarli,A,"Zeytun Market, Nəsimi rayonu, Ceyhun Hacıbəyli 37A",1,40.38606,49.84808,1,0,0,0,0,,,,
1207,Azərcell Plaza,azercell-plaza,A,"Azərcell Plaza,  Yasamal rayonu, Tbilisi prospekti 149",1,40.40007,49.80954,1,0,0,0,0,,,,
1208,Favorit Xəzər,favorit-khazar,A,"Favorit Xəzər,  Gəncə prospekti, 2942 saylı məhəllə, korpus 3",1,40.3811,49.96518,1,0,0,0,0,,,,
1209,Favorit Neapol,favorit-neapol,A,"Favorit Neapol, General Şıxlınski küçəsi 55",1,40.38365,49.9666,1,0,0,0,0,,,,
1210,"Qayalı Market, Xırdalan",gayali-market-xirdalan,A,"Qayalı market, H.Z.Tağıyev qəsəbəsi",55,40.61906,49.56253,1,0,0,0,0,,,,
1211,"Qayalı Market, Kubinka",gayali-market-kubinka,A,"Qayalı Market, 11-ci mikrorayon, Ş.Bədəlbəyli küçəsi",55,40.56999,49.67535,1,0,0,0,0,,,,
1212,"Qayali market, Zabrat",gayali-market-zabrat,A,"Qayalı Market, 10-cu mikrorayon, Babək küçəsi",55,40.56854,49.69181,1,0,0,0,0,,,,
1213,Ulacalı Market,ulacali-market,A,"Ulacalı market, Ulacalı kendi",50,40.07268,48.59251,1,0,0,0,0,,,,
1214,"Araz Market, Yasamal 3",araz-market-yasamal-3,A,"Araz Market, Yasamal rayonu, Hüseyn Cavid prospekti 17",1,40.36661,49.81684,1,0,0,0,0,,,,
1215,Hacıqabul Talış T.M,hajigabul-talish,A,"Haciqabul rayon, Talış kəndi",24,40.03886,48.92142,1,0,0,0,0,,,,
1216,"Araz Market, Yeni Yasamal",araz-market-yeni-yasamal,A,"Araz Market, Yasamal rayonu, Yeni Yasamal-1 küçəsi 14",1,40.38198,49.80717,1,0,0,0,0,,,,
1217,Şəki Store market,shaki-store-market,A,"Şəki Store Market, M.Ə.Rəsulzadə küçəsi 166B",59,41.19804,47.17607,1,0,0,0,0,,,,
1218,"Araz Market, Yasamal 4",araz-market-yasamal-4,A,"Araz Market, Yasamal rayonu, M.Seyidov küçəsi 23",1,40.38023,49.80725,1,0,0,0,0,,,,
1219,"Oba Market, Nizami",oba-market-nizami,A,"Oba market, Nizami kəndi",50,40.01952,48.47804,1,0,0,0,0,,,,
1220,"Araz Market, Mingəçevir",araz-market-minkachevir,A,"Araz Market, Şəhriyar küçəsi 6 nomrəli binanin 1 ci mərtəbəsi",1,40.37733,49.81053,1,0,0,0,0,,,,
1221,"Araz Market, Sovetski 2",araz-market-sovetsky-2,A,"Araz Market,  422-ci məhəllə Mirzə İbrahimov küçəsi 53, 1-ci mərtəbə",1,40.37793,49.83313,1,0,0,0,0,,,,
1222,"Araz Market, Yasamal 5",araz-market-yasamal-5,A,"Araz Market, Yasamal rayonu, H.Zərdabi prospekti, 593-cü məhəllə",1,40.38592,49.80859,1,0,0,0,0,,,,
1223,Landau School,landau-school,A,"Landau School, Bayıl qəsəbəsi",1,40.340135,49.832373,1,1,0,0,0,,,,
1224,Lokal gəlirlərin Baş İdarəsi,general-administration-of-local-income,A,"Lokal gəlirlərin Baş İdarəsi, Heydər Əliyev prospekdi 115",1,40.41777889,49.9093299,1,1,0,0,0,,,,
1225,"Market, Biləcəri",market-bilajari,A,"Market, Abbas Səhhət küçəsi",50,39.990062,48.462832,1,0,0,0,0,,,,
1226,"Real Market, İqrik",real-market-iqrik,A,"Real Market, İqrik kəndi",37,41.354300,48.644032,1,0,0,0,0,,,,
1227,Kapital Bank Sumqayıt flialı 3,kaptal-bank-sumqayit-3,A,"Kapital Bank Sumqayıt flialı 3, Cəfər Cabbarlı küçəsi 1, Məhəllə 40",55,40.58007868,49.67253755,1,1,0,0,0,,,,
1228,Eko Market,eco-market,A,"Eko Market, Xaçmaz rayonu",28,41.45955529,48.78817596,1,0,0,0,0,,,,
1229,Çinar Park,chinar-park,A,"Çinar Park, Ziya Bünyadov prospekdi 1965",1,40.415281,49.857288,1,1,0,0,0,,,,
1230,"Favorit market, Salyan",favorit-market-salyan,A,"Favorit Market, Səbail rayonu, Salyan şössesi 20-ci ünvan",1,40.32894,49.81885,1,0,0,0,0,,,,
1231,"Araz Market, Badamdar",araz-market-badamdar,A,"Araz Market,  Badamdar qəsəbəsi, T.Memmedov 3 ve 5 unvaninda yerlesen 18 mertebeli binanin 1ci mertebesi",1,40.33899,49.80744,1,0,0,0,0,,,,
1232,"Araz Market, Badamdar 2",araz-market-badamdar-2,A,"Araz Market, Səbail Rayonu, Badamdar qəsəbəsi, 1 yaşayış massivi",1,40.35114,49.81062,1,0,0,0,0,,,,
1233,"Araz Market, Sulutəpə",araz-market-sulutepe,A,"Araz Market, Binəqədi rayonu, Sulutəpə qəsəbəsi, rayonu Allahverdiyev küçəsi, ev 25F   ",1,40.43297,49.77141,1,0,0,0,0,,,,
1234,"Sakit Market, Gülüstan",sakit-market-gulustan,A,"Sakit Market, Gülüstan qəsəbəsi, 37 saylı Binanın cənub küçəsi",20,40.76785,46.40851,1,0,0,0,0,,,,
1235,"Favorit, Nəsimi",favorit-nasimi,A,"Favorit, Binəqədi rayonu, Azadlıq prospekti 157",1,40.43632,49.84574,1,0,0,0,0,,,,
1236,Spar market 2,spar-market-2,A,"Spar Market, Binəqədi rayonu M.Ə.Rəsulzadə qəsəbəsi Binəqədi şossesi 195 E",1,40.43628,49.84424,1,0,0,0,0,,,,
1237,"Araz Market, Binəqədi",araz-market-bineqedi,A,"Araz Market,  Binəqədi rayonu, 6 - cı mikrorayon, İsrafil Həşimov küçəsi, ev 1a",1,40.42639,49.83223,1,0,0,0,0,,,,
1238,"Araz Market, 2-ci mikrorayon",araz-market-2-microdistrict,A,"Araz Market, Binəqədi rayonu, 9 mikrorayon, H.Seyidzadə küçəsi 38",1,40.42034,49.80946,1,0,0,0,0,,,,
1239,"Araz Market, Binəqədi",araz-market-bineqedi-2,A,"Araz Market, Binəqədi rayonu, Binəqədi ŞTQ 2-ci mədən",1,40.46602,49.82926,1,0,0,0,0,,,,
1240,Danyeri AVM,danyeri-avm,A,"Danyeri AVM, Ə.Əliyev küçəsi 46",45,39.21264,45.42209,1,0,0,0,0,,,,
1241,Park AVM,park-avm,A,"Park AVM, Nizami küçəsi 27",45,39.20893,45.40637,1,0,0,0,0,,,,
1242,Cahan MMC Ticarət Mərkəzi,cahan-mmc,A,"Cahan MMC Ticarət Mərkəzi, Ə. Əliyev küçəsi 10",45,39.20627,45.42477,1,0,0,0,0,,,,
1243,Cahan - Alış Veriş Mərkəzi MMC,cahan-alish-verish,A,"Cahan, Ə.Əliyev küçəsi. 2",45,39.19513,45.42963,1,0,0,0,0,,,,
1244,"Bolmart, Sumqayıt",bolmart-sumqayit,A,"Bolmart, Sumqayıt yolu, Saray postu",1,40.5221,49.68911,1,0,0,0,0,,,,
1245,"Favorit Market, Binəqədi",favorit-market-binagadi,A,"Favorit Market, Binəqədi rayonu, Gülməmməd Ramazanov küçəsi",1,40.46602,49.82931,1,0,0,0,0,,,,
1246,"Araz Market, Əliabad qəsəbəsi",araz-market-aliabad,A,"Araz Market, Əliabad qəsəbəsi",68,41.48846,46.62327,1,0,0,0,0,,,,
1247,"Araz Market, 7ci mikrorayon",araz-market-7-mikrorayon,A,"Araz Market, Binəqədi rayonu,7 mikrorayon, 3123-cü məhəllə",1,40.43319,49.85102,1,0,0,0,0,,,,
1248,"Araz Market, 7ci mikrorayon 2",araz-market-7-mikrorayon-2,A,"Araz Market, Binəqədi rayonu, F.Məlikov küçəsi 18a",1,40.42901,49.85392,1,0,0,0,0,,,,
1249,Ailəvi market,ailevi-market,A,"Ailəvi market,  M. Əzizbəyov küçəsi 10",29,39.86088,48.06326,1,0,0,0,0,,,,
1250,"Araz Market, 7ci mikrorayon 3",araz-market-7-mikrorayon-3,A,"Araz Market, 7-ci mikrorayon, S.S.Axundov küçəsi. 3C",1,40.42686,49.85,1,0,0,0,0,,,,
1251,"Araz Market, 8ci mikrorayon",araz-market-8-microrayon,A,"Araz Market, 8-ci mikrorayon İbrahimpaşa Dadaşov küçəsi 91",1,40.42489,49.84294,1,0,0,0,0,,,,
1252,"Araz Market, 1ci mikrorayon",araz-market-1-microdistrict,A,"Araz Market, Nəsimi rayonu, Memmed Cefer küçəsi",1,40.42035,49.8095,1,0,0,0,0,,,,
1253,"Araz Market, Cəfər Cabbarov",araz-market-jafar-jabbarli,A,"Araz Market, Nəsimi rayonu, Vladislav Plotnikov küçəsi",1,40.38521,49.84448,1,0,0,0,0,,,,
1254,GrandMart,grandmart,A,"GrandMart, Səməd Vurgun 34 küçəsi",1,40.37631,49.84188,1,0,0,0,0,,,,
1255,AvroMart,avtomart,A,"AvroMart, Nəsimi rayonu, Nizami küçəsi 129e",1,40.37716,49.85501,1,0,0,0,0,,,,
1256,Bolmart Super Market,bolmart-super-market,A,"Bolmart Super Market, Binəqədi rayonu M.Cəlal küçəsi 314",1,40.42128,49.81493,1,0,0,0,0,,,,
1257,Dəniz Market,deniz-market,A,"Dəniz Market, T.Ələkbərov 1",62,39.94302,48.93161,1,0,0,0,0,,,,
1258,"Araz Market, Nizami",araz-market-nizami,A,"Araz Market, Nəsimi rayonu, Əlibəy Hüseynzadə küçəsi 84",1,40.38077,49.83456,1,0,0,0,0,,,,
1259,"Spar, Nəsimi",spar-nasimi,A,"Spar, Nəsimi rayonu, Səməd Vurğun küçəsi 19",1,40.37489,49.84148,1,0,0,0,0,,,,
1260,"Spar, 3cü mikrorayon",spar-3-microrayon,A,"Spar, Nəsimi rayonu Cavadxan küçəsi 3",1,40.40636,49.81385,1,0,0,0,0,,,,
1261,Billur Market,billur-market,A,"Billur Market, Nizami küçəsi 35",68,41.63176,46.6507,1,0,0,0,0,,,,
1262,"Favorit Market, N.Nərimanov",favorit-market-alizade,A,"Favorit Market, Nərimanov rayonu M.Əlizadə küçəsi 917 - ci məhəllə",1,40.40177,49.84077,1,0,0,0,0,,,,
1263,"Elşən market, Qaragüney kəndi",elshan-market,A,"Elşən market, Qaragüney kəndi",50,39.96365,48.84802,1,0,0,0,0,,,,
1264,"Spar, Gənclik",spar-ganclik,A,"Spar, Nərimanov rayonu, 865 - ci məhəllə, Koroğlu Rəhimov küçəsi 22C",1,40.39044,49.84751,1,0,0,0,0,,,,
1265,"Araz Market, Şamaxı",araz-market-shamaxi,A,"Araz Market, Nəriman Nərimanov rayonu Ə.Əliyev küçəsi 26-cı məhəllə",1,40.40213,49.87913,1,0,0,0,0,,,,
1266,"Araz Market, Nəriman Nərimanov",araz-market-nariman-narimanov,A,"Araz Market, Nərimanov rayonu 1936-cı məhəllə Ağa Neymətulla",1,40.40212,49.87422,1,0,0,0,0,,,,
1267,XL Market,xl-market,A,"XL Market, Bərgüşad yolu",22,40.63562,47.75871,1,0,0,0,0,,,,
1268,"GrandMart Supermarket, Neftçilər",grandmart-supermarket-neftchilar,A,"GrandMart Supermarket, Qara Qarayev prospekti 46",1,40.41417,49.93985,1,0,0,0,0,,,,
1269,"GrandMart, Zabrat",grandmart-zabrat,A,"GrandMart, Zabrat qəsəbəsi, Zabrat dairəsi",1,40.49136,49.95456,1,0,0,0,0,,,,
1270,"Bolmart, Neftçilər",bolmart-neftchilar,A,"Bolmart, Rüstəm Rüstəmov küçəsi 23",1,40.40836,49.9387,1,0,0,0,0,,,,
1271,"Bolmart, Zabrat",bolmart-zabrat,A,"Bolmart, Zabrat qəsəbəsi, Montin küçəsi 21",1,40.49166,49.95307,1,0,0,0,0,,,,
1272,"Grandmart, Yeni Yasamal",grandmart-yeni-yasamal,A,"GrandMart, Bakı rayonu İlqar Abbasov küçəsi 7a",1,40.37585,49.92769,1,0,0,0,0,,,,
1273,"Grandmart, Kubinka",grandmart-kubinka,A,"GrandMart, S.Vurğun küçəsi 6 .6 mikrorayon",55,40.57922,49.69366,1,0,0,0,0,,,,
1274,"Araz, Xalqlar Dostluğu",araz-xalqlar-dostlugu,A,"Araz, Nizami rayonu, Bəhruz Nuriyev ev. 32, 2-ci blok 1 ci Mərtəbə",1,40.40212,49.95533,1,0,0,0,0,,,,
1275,"Grandmart, Bakixanov",grandmart-bakixanov,A,"GrandMart, B. Bünyadov küçəsi 134",1,40.42752,49.93948,1,0,0,0,0,,,,
1276,GrandMart 2,grandmart-2,A,"GrandMart, Yasamal rayonu, 589-cu məhəllə H. Məcidov küçəsi.",1,40.38358,49.81011,1,0,0,0,0,,,,
1277,"Bolmart, 20 Yanvar",bolmart-20-yanvar,A,"Bolmart, Yasamal rayonu, A. Salamzadə küçəsi 1058",1,40.39866,49.81619,1,0,0,0,0,,,,
1278,"Bolmart, Kubinka",bolmart-kubinka,A,"Bolmart, Nəsimi rayonu, S.Vurğun küçəsi 75",1,40.38371,49.83799,1,0,0,0,0,,,,
1279,"Bolmart, Mehdiabad qəsəbəsi",bolmart-mehdiabad,A,"Bolmart, Abşeron rayonu, Mehdiabad qəsəbəsi",1,40.50096,49.85618,1,0,0,0,0,,,,
1280,Myshops,myshops,A,"Myshops, Azadlıq prospekti 18",1,40.3785,49.84793,1,0,0,0,0,,,,
1281,Mini Market,mini-market,A,"Mini Market, Gəncə prospekti 20A",1,40.36823,49.96003,1,0,0,0,0,,,,
1282,Stimul Hospital,stimul-hospital,A,"Stimul Hospital, Bakıxanov qəsəbəsi, Yavər Əliyev küçəsi. 26",1,40.43384,49.95631,1,0,0,0,0,,,,
1283,"Tayga Market, Binəqədi",tayga-market-binagadi,A,"Tayga Market, Binəqədi şossesi 308 c",1,40.43179,49.85184,1,0,0,0,0,,,,
1284,Tayga Market,tayga-market,A,"Tayga Market, Dərnəgül qəsəbəsi",1,40.41603,49.84957,1,0,0,0,0,,,,
1285,Nursel Market,nursel-market,A,"Nursel Market, Ə.Naxçıvani küçəsi 18/A",1,40.41622,49.84114,1,0,0,0,0,,,,
1286,"Araz, Binəqədi",araz-binagadi,A,"Araz, Binəqədi rayonu, Svetlana Məmmədova küçəsi 209F",1,40.42574,49.82926,1,0,0,0,0,,,,
1287,Sadko Market,sadko-market,A,"Sadko Market, Zərifə Əliyeva 13 ",38,41.42675,48.43096,1,0,0,0,0,,,,
1288,"Araz, Yeni Günəşli",araz-yeni-guneshli,A,"Araz, Suraxanı rayonu, Yeni Günəşli qəsəbəsi",1,40.369,49.97575,1,0,0,0,0,,,,
1289,"Araz, Cəfər Cabbarlı",araz-jafar-jabbarli,A,"Araz, Nərimanov rayonu, Qarabağ küçəsi      ",1,40.38894,49.85726,1,0,0,0,0,,,,
1290,"Araz, Bakıxanov",araz-bakixanov,A,"Araz, Şərifli küçəsi 25",1,40.41339,49.94951,1,0,0,0,0,,,,
1291,"Araz, AAAF Park",araz-aaaf-park,A,"Araz, AAAF Park yaşayış kompleksi",26,40.45726,49.723,1,0,0,0,0,,,,
1292,"Araz, Yeni Yasamal",araz-yeni-yasamal,A,"Araz, Nərimanov Rayonu, Nazim Hacıyev küçəsi ilə Faiq Yusifov küçəsiələrinin kəsişməsi, 1950 ci məhəllə",1,40.4021,49.87407,1,0,0,0,0,,,,
1293,"Araz, Yasamal",araz-yasamal,A,"Araz, Şərfizadə küçəsi",1,40.38211,49.80426,1,0,0,0,0,,,,
1295,Qayali Market,gayali-market,A,"Qayali Market, M.Ə.Rəsulzadə 57 A küçəsi ",56,41.20162,48.98153,1,0,0,0,0,,,,
1296,"Araz Market, Fatmai şossesi",araz-market-fatma,A,"Araz Market, Mehdiabad qəsəbəsi Fatmai şossesi",2,40.49639,49.85707,1,0,0,0,0,,,,
1297,Ekonom Market,ekonom-market,A,"Ekonom Market, M.Ə.Rəsulzadə küçəsi 180",59,41.19933,47.17816,1,0,0,0,0,,,,
1298,Xanımın Marketi,xanimin-marketi,A,"Xanımın Marketi, Şah İsmayıl Bakı prospekti",20,40.68639,46.38757,1,0,0,0,0,,,,
1299,"Araz Market, Bakı 2",araz-market-baki-2,A,"Araz Market, Bakı rayonu, Həsən Salmani küçəsi 17",1,40.38371,49.8613,1,0,0,0,0,,,,
1300,"Araz Market, Bakı 6",araz-market-baki-6,A,"Araz Market, Bakı rayonu, N.Tusi 19   ",1,40.3763,49.96133,1,0,0,0,0,,,,
1301,"Araz Market, Zığ",araz-market-zig,A,"Araz Market, Bakı rayonu, C.Naxçıvanski küçəsi 66 A, giriş 1 və 2",1,40.40524,49.9549,1,0,0,0,0,,,,
1302,"Araz Market, Masazır 2",araz-market-masazir-2,A,"Araz Market, Masazir qəsəbəsi, Əlağa Vahid küçəsi",2,40.47909,49.75212,1,0,0,0,0,,,,
1303,"Araz Market, Güzdək",araz-market-guzdek,A,"Araz Market, M.Huseynzade küçəsi ,1-ci mertebe",2,40.45864,49.71426,1,0,0,0,0,,,,
1304,"Araz Market, Saray 3",araz-market-saray-3,A,"Araz Market, Saray qesebesi,  Mehemmed Esedov küçəsi 68ci binanin1ci mertebesi",2,40.53273,49.70802,1,0,0,0,0,,,,
1305,"Araz Market, 28 may",araz-market-28-may,A,"Araz Market, Mehdiabad qəsəbəsi, 28 may küçəsi",2,40.48843,49.85579,1,0,0,0,0,,,,
1306,"Favorit, Novxani kəndi",favorit-novxani,A,"Favorit, Novxanı kəndi",2,40.49658,49.8582,1,0,0,0,0,,,,
1307,"Araz Market, Masazır kəndi",araz-market-masazir-kendi,A,"Araz Market, Masazır kəndi",2,40.45761,49.76111,1,0,0,0,0,,,,
1308,BazarStore,bazarstore,A,"BazarStore, N. Nərimanov prospekti",20,40.68202,46.36307,1,0,0,0,0,,,,
1309,"Araz Market, Bakı",araz-market-baki,A,"Araz Market, Bakı rayonu, Gəncə prospekti 2942 ""Q"" məhəllə",1,40.36267,49.96146,1,0,0,0,0,,,,
1310,"Araz Market, Bakı 3",araz-market-baki-3,A,"Araz Market, Bakı rayonu, Məhəmməd Hadi küçəsi 51M",1,40.39408,49.96106,1,0,0,0,0,,,,
1311,"Araz Market, Bakı 4",araz-market-baki-4,A,"Araz Market, Bakı rayonu, Babək prospekti, 10 D",1,40.38845,49.87307,1,0,0,0,0,,,,
1312,"Araz Market, Bakı 5",araz-market-baki-5,A,"Araz Market, Bakı rayon Əhmədli qəsəbəsi Gəncə prospekti",1,40.3626,49.96091,1,0,0,0,0,,,,
1313,"Ballı Market, Şıxəkəran kəndi",balli-market,A,"Ballı Market, Şıxəkəran kəndi",41,38.702708,48.816702,1,0,0,0,0,,,,
1314,Halal Market,halal-market,A,"Halal Market, H.Həmidov küçəsi",24,40.04443,48.93712,1,0,0,0,0,,,,
1315,Ekomart,ekomart-sahil,A,"Ekomart, H.Z.Tağıyev küçəsi",25,41.45965,48.78827,1,0,0,0,0,,,,
1316,"Araz Market, Qara Qarayev",araz-market-gara-garayev,A,"Araz Market, Bakı rayonu, Tofiq Abbasov küçəsi 38, bina 7",1,40.41971,49.93176,1,0,0,0,0,,,,
1317,Al Market,al-market,A,"Al Market, Heydər Əliyev küçəsi 171",34,41.09657,45.35235,1,0,0,0,0,,,,
1318,Oba Market,oba-market,A,"Oba Market, M. Hüseyn küçəsi yeni yaşayış massivi",15,39.20531,48.51054,1,0,0,0,0,,,,
1319,Ay İşiği Market,ay-ishigi-market,A,"Ay İşiği Market, Astara yolu 20 yanvar küçəsi",51,39.58093,48.97028,1,0,0,0,0,,,,
1320,Aran Market,aran-market,A,"Aran Market, H. Əliyev küçəsi 42",13,39.46178,48.56081,1,0,0,0,0,,,,
1321,"Kijəbə TM, Kijəbə qəsəbəsi",kijaba,A,"Kijəbə TM, Kijəbə qəsəbəsi",8,38.53287,48.80613,1,0,0,0,0,,,,
1322,"Xaldan Kəndi Market, Xaldan qəsəbəsi",xaldan-kandi-market,A,"Xaldan Kəndi Market, Xaldan qəsəbəsi",67,40.71416,47.22855,1,0,0,0,0,,,,
1323,Əliinşaat Market,alinshaat-market,A,"Əliinşaat Market, AZQRES qəsəbəsi, Naxçıvan küçəsi",43,40.77274,47.04847,1,0,0,0,0,,,,
1324,"Rahat Market, Dondar Quşçu kəndi",rahat-market-dondar,A,"Rahat Market, Dondar Quşçu kəndi",64,40.99507,45.61771,1,0,0,0,0,,,,
1325,Ailəm Market,ailam-market,A,"Ailəm Market, Hezi Aslanov küçəsi",64,40.99103,45.61577,1,0,0,0,0,,,,
1326,"Grand Market, Aşağı Öysüzlü  kəndi",grand-market-ashagi-oysuzlu,A,"Grand Market, Aşağı Öysüzlü  kəndi",64,40.99435,45.61891,1,0,0,0,0,,,,
1327,Tural Market,tural-market,A,"Tural Market, Bakı prospekti 76",67,40.61892,47.15164,1,0,0,0,0,,,,
1328,"Vasif Market, Təzəkənd kəndi",vasif-market,A,"Vasif Market, Təzəkənd kəndi",63,40.41797,46.94637,1,0,0,0,0,,,,
1329,"Oba Market, Zəyəm qəsəbəsi",oba-market-zayam,A,"Oba Market, Zəyəm qəsəbəsi",60,40.90568,46.18271,1,0,0,0,0,,,,
1330,Asan,asan,A,"Asan, H. Əliyev prospekti 159",10,41.70801,46.42172,1,0,0,0,0,,,,
1331,"Ay İşığı, Şiləvar kəndi",ay-ishigi,A,"Ay İşığı, Şaqlaser, Şiləvar kəndi",41,38.85674,48.74895,1,0,0,0,0,,,,
1332,Qala Market,qala-market,A,"Qala Market, H. Əliyev prospekti 15",21,40.59917,46.78228,1,0,0,0,0,,,,
1333,Moon Store Market,moon-store-market,A,"Moon Store Market, G.Şıxbala küçəsi",62,39.93524,48.90836,1,0,0,0,0,,,,
1334,"Laçın Market, Taxta Körpü qəsəbəsi",lachin-market,A,"Laçın Market, Taxta Körpü qəsəbəsi",39,40.10227,47.53092,1,0,0,0,0,,,,
1335,"Oba Market, Həsənqaya kəndi",oba-market-hasangaya,A,"Oba Market, Həsənqaya kəndi",12,40.34831,46.93566,1,0,0,0,0,,,,
1336,Qalağayın Dairəsi Market,qalagayin-dairasi-market,A,"Qalağayın Dairəsi Market, A. Səhhət küçəsi",50,39.97784,48.46177,1,0,0,0,0,,,,
1337,Şirvan Ticarət Mərkəzi,shirvan-ticaret-markazi,A,"Şirvan Ticarət Mərkəzi, M.Ə.Rəsulzadə prospekti",62,39.96074,48.94821,1,0,0,0,0,,,,
1338,Lyuks Ev,lyuks-ev,A,"Lyuks Ev, Sülh küçəsi 1",55,40.5696,49.6381,1,0,0,0,0,,,,
1339,"Araz Market, Koroğlu prospekti 2",araz-market-koroglu,A,"Araz Market, 9-cu mikrorayon Üzeyir Hacıbəyov və Koroğlu küçələrinin kəsişməsi",55,40.5705,49.69009,1,0,0,0,0,,,,
1340,"Araz Market, Koroğlu prospekti",araz-market-koroglu-pr,A,"Araz Market, 41A mehelle, Koroğlu prospekti",55,40.56722,49.68493,1,0,0,0,0,,,,
1341,"Qala Market, Qala qəsəbəsi",qala-marke-2,A,"Qala Market, Qala qəsəbəsi",1,40.48932,50.1143,1,0,0,0,0,,,,
1342,3 saylı Dost Mərkəzi,3-sayli-dost-markazi,A,3 saylı Dost Mərkəzi,1,40.41922,49.90649,1,0,0,0,0,,,,
1343,"Oba Market,Gəncə",oba-market-ganja,A,"Oba Market, Totanlı küçəsi 2 ",20,40.66074,46.33915,1,0,0,0,0,,,,
1344,"Araz Market, Yeni Suraxanı",araz-market-yeni-suraxani,A,"Araz Market, Yeni Suraxanı qəsəbəsi, 14 İyul küçəsi 24A",1,40.42747,50.0375,1,0,0,0,0,,,,
1345,"Araz Market, Neftçilər",araz-market-neftchilar,A,"Araz Market, Bakı rayonu, C.Naxçıvanski küçəsi, 90 nömrəli binanın 1-ci mərtəbəsi",1,40.40578,49.9554,1,0,0,0,0,,,,
1347,"Araz Market, 8ci mikrorayon-2",araz-market-8-microrayon-2,A,"Araz Market, Bakı rayonu, Bəkir Çobanzadə küçəsi 216",1,40.40328,49.93859,1,0,0,0,0,,,,
1348,2 saylı Dost Mərkəzi,2-dost-markazi,A,"2 saylı Dost Mərkəzi, Xəzər rayonu, Şüvəlan qəsəbəsi, A. İldırım küçəsi, 30 b",1,40.48543,50.1751,1,0,0,0,0,,,,
1349,1 saylı Dost Mərkəzi,1-dost-markazi,A,"1 saylı Dost Mərkəzi, Yasamal rayonu, İ. Qutqaşınlı küçəsi, 86",1,40.37438,49.82035,1,0,0,0,0,,,,
1350,"Araz Market, Xalqlar Dostluğu",araz-market-xalqlar,A,"Araz Market, Bakı rayonu, E.Süleymanov 2566 blok-B, mərtəbə 1",1,40.4101,49.95535,1,0,0,0,0,,,,
1351,"Araz Market, Neftçilər 2",araz-market-neftchilar-2,A,"Araz Market, Bakı rayonu, Qara Qarayev prospekti 25A",1,40.41902,49.93396,1,0,0,0,0,,,,
1352,"Araz Market, Neftçilər 3",araz-market-neftchilar-3,A,"Araz Market, Bakı rayonu, Qara Qarayev prospekti 93L",1,40.40555,49.947,1,0,0,0,0,,,,
1353,"Araz Market, Neftçilər 4",araz-market-neftchilar-4,A,"Araz Market, Bakı rayonu, Q.Qarayev küçəsi 34/67",1,40.41821,49.93285,1,0,0,0,0,,,,
1354,"BazarStore, Zaqatala",bazarstore-zaqatala,A,"BazarStore, Bakı Gəncəvi prospekti",20,40.68192,46.36255,1,0,0,0,0,,,,
1355,"Araz Market, Sabunçu",aran-market-sabunchu,A,"Araz Market, Sabunçu rayonu, Nazim İsmayılov prospekti 119 A",1,40.42372,49.969,1,0,0,0,0,,,,
1356,"Araz Market, Neftçilər 5",aran-market-neftchilar-5,A,"Araz Market, Sabunçu rayonu, Zabrat qəsəbəsi, Neftçilər küçəsi ev1",1,40.47697,49.9388,1,0,0,0,0,,,,
1357,"Araz Market, Kurdexani qəsəbəsi",araz-market-kurdexani,A,"Araz Market, Sabunçu rayonu, Kurdexani qəsəbəsi",1,40.54758,49.91222,1,0,0,0,0,,,,
1358,"Araz Market, Yevlax",araz-market-yevlax,A,"Araz Market, Suraxanı rayonu,Bülbülə qəsəbəsi, Samir Əliyev küçəsi",1,40.4605,50.01153,1,0,0,0,0,,,,
1359,"Araz Market, A. Alicanov 17",araz-market-alicanov,A,"Araz Market, A.Alicanov küçəsi 17",1,40.3873,50.02108,1,0,0,0,0,,,,
1360,"Araz Market, Binə 2",araz-market-bina-2,A,"Araz Market, Xəzər rayonu, Binə qəsəbəsi, Hövsan Südçülük sovxozuna gedən yolun sağ tərəfi     ",1,40.44641,50.08923,1,0,0,0,0,,,,
1361,"Araz Market, Buzovna 2",araz-market-buzovna-2,A,"Araz Market, Xəzər Buzovna qəsəbəsi, Buzovna-Maştağa yolunun sağ tərəfi",1,40.51689,50.10285,1,0,0,0,0,,,,
1362,Metropark,metropark,A,"Metropark, Nərimanov rayonu, Təbriz küçəsi 106",1,40.40485,49.87491,1,0,0,0,0,,,,
1363,Tərgül Ticarət mərkəzi,targul,A,"Tərgül Ticarət mərkəzi, Binəqədi rayonu, Cavadxan 150",1,40.41676,49.83913,1,0,0,0,0,,,,
1364,Şokolad Tover,shokolad-tover,A,"Şokolad Tover, Yasamal rayonu, Həsən bəy Zərdabi 574",1,40.38143,49.8092,1,0,0,0,0,,,,
