name,branch_id,address,latitude,longitude,distance_km
OBA-QARACHUXUR 8,OBA-QARACHUXUR 8,OBA-QARACHUXUR 8,40.400486148133,49.9785234134508,0.12
OBA-QARACHUXUR 10,OBA-QARACHUXUR 10,OBA-QARACHUXUR 10,40.4014561677513,49.9754697076312,0.23
OBA-QARACHUXUR 5,OBA-QARACHUXUR 5,OBA-QARACHUXUR 5,40.4027450975452,49.981727,0.33
OBA-BAKIXANOV 2,OBA-BAKIXANOV 2,OBA-BAKIXANOV 2,40.4019300975452,49.972973,0.44
OBA-BAKIXANOV 12,OBA-BAKIXANOV 12,OBA-BAKIXANOV 12,40.4061090975452,49.978708,0.51
OBA-QARACUXUR 7,OBA-QARACUXUR 7,OBA-QARACUXUR 7,40.3990040975452,49.972786,0.54
OBA-QARACHUXUR 9,OBA-QARACHUXUR 9,OBA-QARACHUXUR 9,40.4041043535673,49.9724050573301,0.56
OBA-QARACUXUR,OBA-QARACUXUR,OBA-QARACUXUR,40.3962250975452,49.98379,0.76
OBA-QARACHUXUR 13,OBA-QARACHUXUR 13,OBA-QARACHUXUR 13,40.3950623067752,49.9736403976623,0.82
OBA-BAKIXANOV 8,OBA-BAKIXANOV 8,OBA-BAKIXANOV 8,40.4102607514452,49.975744634,0.99
OBA-QARACUXUR 6,OBA-QARACUXUR 6,OBA-QARACUXUR 6,40.3918440975452,49.972452,1.19
OBA-BAKIXANOV 13,OBA-BAKIXANOV 13,OBA-BAKIXANOV 13,40.4099960975452,49.969257,1.2
OBA-BAKIXANOV 21,OBA-BAKIXANOV 21,OBA-BAKIXANOV 21,40.4132520975452,49.976352,1.31
OBA-EMIRCAN 7,OBA-EMIRCAN 7,OBA-EMIRCAN 7,40.4120670895657,49.9874554036429,1.41
OBA-BAKIXANOV 9,OBA-BAKIXANOV 9,OBA-BAKIXANOV 9,40.4129200975452,49.968913,1.49
OBA-QARACHUXUR 12,OBA-QARACHUXUR 12,OBA-QARACHUXUR 12,40.40925,49.99425,1.61
OBA-EHMEDLI 25,OBA-EHMEDLI 25,OBA-EHMEDLI 25,40.394194,49.961833,1.61
OBA-XALQLAR 6,OBA-XALQLAR 6,OBA-XALQLAR 6,40.3974750975452,49.959602,1.64
OBA-YENI GUNESLI,OBA-YENI GUNESLI,OBA-YENI GUNESLI,40.3864610975452,49.979988,1.69
OBA-BAKIXANOV 16,OBA-BAKIXANOV 16,OBA-BAKIXANOV 16,40.4155830975452,49.969821,1.71
OBA-8 KM,OBA-8 KM,OBA-8 KM,40.4071210975452,49.959271,1.72
OBA-EHMEDLI 23,OBA-EHMEDLI 23,OBA-EHMEDLI 23,40.3950270917014,49.9597578153445,1.72
OBA-EHMEDLI 5,OBA-EHMEDLI 5,OBA-EHMEDLI 5,40.3931890975452,49.960628,1.75
OBA-YENI GUNESLI 4,OBA-YENI GUNESLI 4,OBA-YENI GUNESLI 4,40.3857850975452,49.977519,1.76
OBA-EMIRCAN 5,OBA-EMIRCAN 5,OBA-EMIRCAN 5,40.4156180975452,49.989844,1.85
OBA-XALQLAR 1,OBA-XALQLAR 1,OBA-XALQLAR 1,40.4016830975452,49.955857,1.89
OBA-8 KM BAZAR,OBA-8 KM BAZAR,OBA-8 KM BAZAR,40.4056260975452,49.956403,1.9
OBA-EHMEDLI,OBA-EHMEDLI,OBA-EHMEDLI,40.3891050975452,49.961764,1.96
OBA-BAKIXANOV 4,OBA-BAKIXANOV 4,OBA-BAKIXANOV 4,40.4143230975452,49.961917,1.98
OBA-YENI GUNESLI 8,OBA-YENI GUNESLI 8,OBA-YENI GUNESLI 8,40.3839550975452,49.981711,1.98
OBA-XALQLAR 4,OBA-XALQLAR 4,OBA-XALQLAR 4,40.3974880975452,49.955322,1.99
OBA-8 KM 3,OBA-8 KM 3,OBA-8 KM 3,40.4080370975452,49.955621,2.04
OBA-BAKIXANOV 10,OBA-BAKIXANOV 10,OBA-BAKIXANOV 10,40.4144120975452,49.960035,2.1
OBA-EHMEDLI 19,OBA-EHMEDLI 19,OBA-EHMEDLI 19,40.3900986581126,49.9582714269396,2.11
OBA-EHMEDLI 15,OBA-EHMEDLI 15,OBA-EHMEDLI 15,40.3873777913647,49.9608570029956,2.15
OBA-EHMEDLI 16,OBA-EHMEDLI 16,OBA-EHMEDLI 16,40.385993602679,49.9626178545266,2.18
OBA-BAKIXANOV 6,OBA-BAKIXANOV 6,OBA-BAKIXANOV 6,40.4194460975452,49.967446,2.18
OBA-XALQLAR 3,OBA-XALQLAR 3,OBA-XALQLAR 3,40.3978120975452,49.952804,2.19
OBA-NEFTCHILER 9,OBA-NEFTCHILER 9,OBA-NEFTCHILER 9,40.4065550975452,49.953013,2.2
OBA.BAKIXANOV 23,OBA.BAKIXANOV 23,OBA.BAKIXANOV 23,40.4208730975452,49.970756,2.24
OBA-EHMEDLI 22,OBA-EHMEDLI 22,OBA-EHMEDLI 22,40.3845793281732,49.9635809805401,2.26
OBA-XALQLAR 9,OBA-XALQLAR 9,OBA-XALQLAR 9,40.3988140975452,49.951478,2.28
OBA-KOHNE GUNESLI,OBA-KOHNE GUNESLI,OBA-KOHNE GUNESLI,40.3828180975452,49.966329,2.31
OBA-NEFTCHILER 19,OBA-NEFTCHILER 19,OBA-NEFTCHILER 19,40.4037623916554,49.9509639360617,2.32
OBA-XALQLAR 8,OBA-XALQLAR 8,OBA-XALQLAR 8,40.3925130975452,49.95346,2.32
OBA-SURAXANI 6,OBA-SURAXANI 6,OBA-SURAXANI 6,40.4118630975452,50.002112,2.33
OBA-NEFTCILER 8,OBA-NEFTCILER 8,OBA-NEFTCILER 8,40.4066460975452,49.95138,2.34
OBA-BAKIXANOV,OBA-BAKIXANOV,OBA-BAKIXANOV,40.4207400975452,49.96663,2.34
OBA-KGUNESHLI 14,OBA-KGUNESHLI 14,OBA-KGUNESHLI 14,40.3817830975452,49.968516,2.35
OBA-EHMEDLI 11,OBA-EHMEDLI 11,OBA-EHMEDLI 11,40.3875090975452,49.957178,2.37
OBA-NEFTCHILER,OBA-NEFTCHILER,OBA-NEFTCHILER,40.4100750975452,49.952248,2.39
OBA-BAKIXANOV 7,OBA-BAKIXANOV 7,OBA-BAKIXANOV 7,40.4177350975452,49.959354,2.4
OBA-XALQLAR 10,OBA-XALQLAR 10,OBA-XALQLAR 10,40.3959370975452,49.950505,2.43
OBA-YENI GUNESLI 7,OBA-YENI GUNESLI 7,OBA-YENI GUNESLI 7,40.3797740975452,49.980071,2.43
OBA-EMIRCAN 4,OBA-EMIRCAN 4,OBA-EMIRCAN 4,40.4222390975452,49.987622,2.43
OBA-YENI GUNESLI 2,OBA-YENI GUNESLI 2,OBA-YENI GUNESLI 2,40.3800290975452,49.983807,2.44
OBA-BAKIXANOV 22,OBA-BAKIXANOV 22,OBA-BAKIXANOV 22,40.4209590975452,49.964433,2.45
OBA-EMIRCAN 2,OBA-EMIRCAN 2,OBA-EMIRCAN 2,40.4193210975452,49.995562,2.46
OBA-SURAXANI 8,OBA-SURAXANI 8,OBA-SURAXANI 8,40.4168123174331,49.9992970836116,2.46
OBA-XETAI 3,OBA-XETAI 3,OBA-XETAI 3,40.3942910975452,49.950384,2.49
OBA-NEFTCHILER 18,OBA-NEFTCHILER 18,OBA-NEFTCHILER 18,40.4110294215568,49.9512819432292,2.51
OBA-EHMEDLI 21,OBA-EHMEDLI 21,OBA-EHMEDLI 21,40.3829840047522,49.9608020723604,2.54
OBA-EHMEDLI 24,OBA-EHMEDLI 24,OBA-EHMEDLI 24,40.388116009312,49.9533459846554,2.58
OBA-NEFTCHILER 7,OBA-NEFTCHILER 7,OBA-NEFTCHILER 7,40.4056710975452,49.947775,2.61
OBA-EHMEDLI 20,OBA-EHMEDLI 20,OBA-EHMEDLI 20,40.3846903138615,49.9565502355824,2.62
OBA-NEFTCHILER 3,OBA-NEFTCHILER 3,OBA-NEFTCHILER 3,40.4032500975452,49.947063,2.64
OBA-SURAXANI 9,OBA-SURAXANI 9,OBA-SURAXANI 9,40.4200427179286,49.9980957257951,2.66
OBA-XALQLAR 5,OBA-XALQLAR 5,OBA-XALQLAR 5,40.3969840975452,49.947359,2.66
OBA-XALQLAR 7,OBA-XALQLAR 7,OBA-XALQLAR 7,40.4018560975452,49.946487,2.68
OBA-SURAXANI 7,OBA-SURAXANI 7,OBA-SURAXANI 7,40.4190240975452,50.00021,2.69
OBA-NEFTCHILER 4,OBA-NEFTCHILER 4,OBA-NEFTCHILER 4,40.4049280975452,49.946626,2.7
OBA-EMIRCAN 6,OBA-EMIRCAN 6,OBA-EMIRCAN 6,40.4233680625686,49.9926939103677,2.72
OBA-NEFTCILER 16,OBA-NEFTCILER 16,OBA-NEFTCILER 16,40.4034180975452,49.946152,2.72
OBA-EHMEDLI 2,OBA-EHMEDLI 2,OBA-EHMEDLI 2,40.3815310975452,49.959785,2.72
OBA-YENI GUNESLI 3,OBA-YENI GUNESLI 3,OBA-YENI GUNESLI 3,40.3764400975452,49.978401,2.8
OBA-KOHNE GUNESLI 4,OBA-KOHNE GUNESLI 4,OBA-KOHNE GUNESLI 4,40.3777180975452,49.967266,2.81
OBA-BAKIXANOV 17,OBA-BAKIXANOV 17,OBA-BAKIXANOV 17,40.4211920975452,49.957055,2.82
OBA-KGUNESHLI 15,OBA-KGUNESHLI 15,OBA-KGUNESHLI 15,40.3788190975452,49.962979,2.84
OBA-SURAXANI 5,OBA-SURAXANI 5,OBA-SURAXANI 5,40.4223340975452,49.99948,2.93
OBA-EHMEDLI 10,OBA-EHMEDLI 10,OBA-EHMEDLI 10,40.3818920975452,49.954439,2.97
OBA-SURAXANI 3,OBA-SURAXANI 3,OBA-SURAXANI 3,40.4221390975452,50.000943,2.99
OBA-EMIRCAN,OBA-EMIRCAN,OBA-EMIRCAN,40.4275670975452,49.987642,3
OBA-SURAXANI 4,OBA-SURAXANI 4,OBA-SURAXANI 4,40.4176120975452,50.007095,3.03
OBA-EHMEDLI 9,OBA-EHMEDLI 9,OBA-EHMEDLI 9,40.3863160975452,49.948353,3.04
OBA-NEFTCHILER 13,OBA-NEFTCHILER 13,OBA-NEFTCHILER 13,40.4134410975452,49.945468,3.07
OBA-KGUNESHLI 17,OBA-KGUNESHLI 17,OBA-KGUNESHLI 17,40.3758860975452,49.964785,3.07
OBA-BAKIXANOV 25,OBA-BAKIXANOV 25,OBA-BAKIXANOV 25,40.4263822768979,49.9612467292388,3.11
OBA-XALQLAR 11,OBA-XALQLAR 11,OBA-XALQLAR 11,40.3965860975452,49.941795,3.13
OBA-NEFTCHILER 2,OBA-NEFTCHILER 2,OBA-NEFTCHILER 2,40.4072890975452,49.941948,3.13
OBA-NEFTCHILER 20,OBA-NEFTCHILER 20,OBA-NEFTCHILER 20,40.409961988489,49.9425582821742,3.16
OBA-NEFTCHILER 12,OBA-NEFTCHILER 12,OBA-NEFTCHILER 12,40.4032940975452,49.94041,3.2
OBA-BAKIXANOV 27,OBA-BAKIXANOV 27,OBA-BAKIXANOV 27,40.423443,49.9531121,3.23
OBA-EMIRCAN 3,OBA-EMIRCAN 3,OBA-EMIRCAN 3,40.4300840975452,49.986865,3.25
OBA-BAKIXANOV 18,OBA-BAKIXANOV 18,OBA-BAKIXANOV 18,40.4292930975452,49.964536,3.29
OBA-KOHNE GUNESLI 7,OBA-KOHNE GUNESLI 7,OBA-KOHNE GUNESLI 7,40.3727730975452,49.967601,3.33
OBA-HEZI ASLANOV 4,OBA-HEZI ASLANOV 4,OBA-HEZI ASLANOV 4,40.3773390975452,49.954849,3.34
OBA-NEFTCHILER 21,OBA-NEFTCHILER 21,OBA-NEFTCHILER 21,40.412444,49.941222,3.35
OBA-NEFTCHILER 10,OBA-NEFTCHILER 10,OBA-NEFTCHILER 10,40.4157110975452,49.943165,3.35
OBA-HEZI ASLANOV 12,OBA-HEZI ASLANOV 12,OBA-HEZI ASLANOV 12,40.3785310975452,49.952069,3.38
OBA-NEFTCHILER 11,OBA-NEFTCHILER 11,OBA-NEFTCHILER 11,40.4026030975452,49.93779,3.42
OBA-EHMEDLI 13,OBA-EHMEDLI 13,OBA-EHMEDLI 13,40.3854330975452,49.943767,3.42
OBA-NEFTCHILER 6,OBA-NEFTCHILER 6,OBA-NEFTCHILER 6,40.4082610975452,49.938307,3.46
OBA-BULBULE 2,OBA-BULBULE 2,OBA-BULBULE 2,40.433115700165,49.9751790075765,3.52
OBA-XEZER 5,OBA-XEZER 5,OBA-XEZER 5,40.3728000975452,49.95925,3.58
OBA-BULBULE,OBA-BULBULE,OBA-BULBULE,40.4351420975452,49.978077,3.73
OBA-BAKIXANOV 24,OBA-BAKIXANOV 24,OBA-BAKIXANOV 24,40.4326311952481,49.9601562127882,3.77
OBA-QARAYEV 8,OBA-QARAYEV 8,OBA-QARAYEV 8,40.4158310975452,49.937704,3.78
OBA-ZIG 2,OBA-ZIG 2,OBA-ZIG 2,40.3694410975452,49.993309,3.8
OBA-HEZI ASLANOV 13,OBA-HEZI ASLANOV 13,OBA-HEZI ASLANOV 13,40.3709570975452,49.957566,3.83
OBA-BAKIXANOV 19,OBA-BAKIXANOV 19,OBA-BAKIXANOV 19,40.4314380975452,49.955583,3.83
OBA-HEZI ASLANOV 16,OBA-HEZI ASLANOV 16,OBA-HEZI ASLANOV 16,40.3712982347527,49.9557734134745,3.86
OBA-QARAYEV 2,OBA-QARAYEV 2,OBA-QARAYEV 2,40.4200460975452,49.939092,3.89
OBA-KOHNE GUNESLI 2,OBA-KOHNE GUNESLI 2,OBA-KOHNE GUNESLI 2,40.3680960975452,49.964568,3.9
OBA-DEDE QORQUD,OBA-DEDE QORQUD,OBA-DEDE QORQUD,40.3876690975452,50.020767,3.92
OBA-KOHNE GUNESHLI 21,OBA-KOHNE GUNESHLI 21,OBA-KOHNE GUNESHLI 21,40.3669738105746,49.9669882816547,3.96
OBA-HEZI ASLANOV 11,OBA-HEZI ASLANOV 11,OBA-HEZI ASLANOV 11,40.3716240975452,49.952795,3.96
OBA-HEZI ASLANOV 19,OBA-HEZI ASLANOV 19,OBA-HEZI ASLANOV 19,40.3693733708793,49.9554336626965,4.07
OBA-HEZI ASLANOV 15,OBA-HEZI ASLANOV 15,OBA-HEZI ASLANOV 15,40.3708324946007,49.9518023306419,4.08
ZIG 4,ZIG 4,ZIG 4,40.3648543104731,49.9830584828591,4.1
OBA-BAKIXANOV 14,OBA-BAKIXANOV 14,OBA-BAKIXANOV 14,40.4357380975452,49.958121,4.16
OBA-KOHNE GUNESLI 5,OBA-KOHNE GUNESLI 5,OBA-KOHNE GUNESLI 5,40.3659160975452,49.96295,4.17
OBA-HEZI ASLANOV 3,OBA-HEZI ASLANOV 3,OBA-HEZI ASLANOV 3,40.3726140975452,49.946723,4.18
OBA-EMIRCAN 10,OBA-EMIRCAN 10,OBA-EMIRCAN 10,40.4374174805836,49.9940341423259,4.21
OBA-RADIOZAVOD,OBA-RADIOZAVOD,OBA-RADIOZAVOD,40.3756660975452,49.940498,4.3
OBA-KOHNE GUNESLI 9,OBA-KOHNE GUNESLI 9,OBA-KOHNE GUNESLI 9,40.3638280975452,49.966278,4.32
OBA-DEDE QORQUD 2,OBA-DEDE QORQUD 2,OBA-DEDE QORQUD 2,40.3878546538082,50.0259892711638,4.33
OBA-QARAYEV 3,OBA-QARAYEV 3,OBA-QARAYEV 3,40.4190550975452,49.932027,4.36
OBA-KOHNE GUNESHLI 19,OBA-KOHNE GUNESHLI 19,OBA-KOHNE GUNESHLI 19,40.3630177108567,49.9685539412356,4.36
OBA-QARAYEV 7,OBA-QARAYEV 7,OBA-QARAYEV 7,40.4159820975452,49.930096,4.37
OBA-RAMANA 11,OBA-RAMANA 11,OBA-RAMANA 11,40.4418280975452,49.976785,4.48
OBA- SABUNCU 20,OBA- SABUNCU 20,OBA- SABUNCU 20,40.439868879742,49.9610832999999,4.5
OBA-BAKIXANOV 26,OBA-BAKIXANOV 26,OBA-BAKIXANOV 26,40.430639,49.941028,4.51
OBA-ZIG 1,OBA-ZIG 1,OBA-ZIG 1,40.3606480975452,49.979805,4.55
OBA-HEZI ASLANOV 7,OBA-HEZI ASLANOV 7,OBA-HEZI ASLANOV 7,40.3644340975452,49.955034,4.57
OBA-RADIOZAVOD 4,OBA-RADIOZAVOD 4,OBA-RADIOZAVOD 4,40.3678960975452,49.946947,4.59
OBA-HEZI ASLANOV 20,OBA-HEZI ASLANOV 20,OBA-HEZI ASLANOV 20,40.363139,49.956167,4.66
OBA-XEZER 4,OBA-XEZER 4,OBA-XEZER 4,40.3617370975452,49.960613,4.67
OBA-HEZI ASLANOV 18,OBA-HEZI ASLANOV 18,OBA-HEZI ASLANOV 18,40.3630936613709,49.9555119067238,4.69
OBA-RADIOZAVOD 6,OBA-RADIOZAVOD 6,OBA-RADIOZAVOD 6,40.3653415435623,49.9491881577208,4.72
OBA-KOHNE GUNESHLI 18,OBA-KOHNE GUNESHLI 18,OBA-KOHNE GUNESHLI 18,40.3600318922727,49.9662432868676,4.73
OBA-QARAYEV,OBA-QARAYEV,OBA-QARAYEV,40.4232300975452,49.930076,4.73
OBA-NARGILE 4,OBA-NARGILE 4,OBA-NARGILE 4,40.3705300975452,49.939367,4.77
OBA-QARAYEV 9,OBA-QARAYEV 9,OBA-QARAYEV 9,40.4205770975452,49.927492,4.78
OBA-KOHNE GUNESHLI 22,OBA-KOHNE GUNESHLI 22,OBA-KOHNE GUNESHLI 22,40.3590303960873,49.9696364369458,4.79
OBA-NARGILE 6,OBA-NARGILE 6,OBA-NARGILE 6,40.3681389629878,49.9424078269898,4.8
OBA-RAMANA 15,OBA-RAMANA 15,OBA-RAMANA 15,40.4443320975452,49.986522,4.81
OBA-RAMANA 3,OBA-RAMANA 3,OBA-RAMANA 3,40.4444500975452,49.970109,4.82
OBA-QARAYEV 4,OBA-QARAYEV 4,OBA-QARAYEV 4,40.4197130975452,49.926252,4.84
OBA-ZIG 3,OBA-ZIG 3,OBA-ZIG 3,40.3579810975452,49.977477,4.85
OBA-SABUNCU 8,OBA-SABUNCU 8,OBA-SABUNCU 8,40.4412320975452,49.95428,4.85
OBA-XEZER 7,OBA-XEZER 7,OBA-XEZER 7,40.3602840975452,49.959562,4.85
OBA-KOMBINAT 2,OBA-KOMBINAT 2,OBA-KOMBINAT 2,40.3659660975452,49.944405,4.88
OBA-XEZER 3,OBA-XEZER 3,OBA-XEZER 3,40.3608840975452,49.956305,4.89
OBA-EMIRCAN 8,OBA-EMIRCAN 8,OBA-EMIRCAN 8,40.4420864411587,50.0006788236934,4.89
OBA-XEZER 8,OBA-XEZER 8,OBA-XEZER 8,40.3591994829694,49.9613630558192,4.92
OBA-BAKIXANOV 20,OBA-BAKIXANOV 20,OBA-BAKIXANOV 20,40.4336320975452,49.93777,4.94
OBA-RADIOZAVOD 7,OBA-RADIOZAVOD 7,OBA-RADIOZAVOD 7,40.3637763881142,49.9469421019447,4.97
OBA-KGUNESHLI 16,OBA-KGUNESHLI 16,OBA-KGUNESHLI 16,40.3572860975452,49.969864,4.98
OBA-QARAYEV 11,OBA-QARAYEV 11,OBA-QARAYEV 11,40.4209190975452,49.925084,4.98
NZS 9,NZS 9,NZS 9,40.3873587457591,49.9217501884067,5.03
OBA-NARGILE 5,OBA-NARGILE 5,OBA-NARGILE 5,40.3665905168009,49.9402487211615,5.05
OBA-ELEKTROTOK 2,OBA-ELEKTROTOK 2,OBA-ELEKTROTOK 2,40.3805990975452,49.924959,5.07
OBA-NZS 14,OBA-NZS 14,OBA-NZS 14,40.3904039719282,49.9200155180662,5.08
OBA-RAMANA 33,OBA-RAMANA 33,OBA-RAMANA 33,40.4444592390692,49.9998586000261,5.11
OBA-RAMANA 24,OBA-RAMANA 24,OBA-RAMANA 24,40.4470935793771,49.9890510468158,5.14
OBA-RAMANA 27,OBA-RAMANA 27,OBA-RAMANA 27,40.4471113327609,49.9890424879746,5.15
OBA-ELEKTROTOK 3,OBA-ELEKTROTOK 3,OBA-ELEKTROTOK 3,40.3767829617337,49.926023326439,5.21
OBA-KOHNE GUNESLI 10,OBA-KOHNE GUNESLI 10,OBA-KOHNE GUNESLI 10,40.3553300975452,49.967323,5.22
OBA-Nargile 3,OBA-Nargile 3,OBA-Nargile 3,40.3697640975452,49.932712,5.23
OBA-NZS 12,OBA-NZS 12,OBA-NZS 12,40.388862974992,49.9186641706945,5.23
OBA-SABUNCU 5,OBA-SABUNCU 5,OBA-SABUNCU 5,40.4438670975452,49.949995,5.27
OBA-RAMANA 16,OBA-RAMANA 16,OBA-RAMANA 16,40.4453100975452,50.003034,5.3
OBA-NZS 7,OBA-NZS 7,OBA-NZS 7,40.3833880975452,49.919539,5.36
OBA-SABUNCU 11,OBA-SABUNCU 11,OBA-SABUNCU 11,40.4467370975452,49.954341,5.41
OBA-SABUNCU 9,OBA-SABUNCU 9,OBA-SABUNCU 9,40.4419650975452,49.942348,5.42
OBA-NZS 5,OBA-NZS 5,OBA-NZS 5,40.3910780975452,49.914766,5.5
OBA-SABUNCU 15,OBA-SABUNCU 15,OBA-SABUNCU 15,40.4467780975452,49.949582,5.58
OBA-SABUNCU,OBA-SABUNCU,OBA-SABUNCU,40.4447590975452,49.943812,5.61
OBA-SABUNCU 7,OBA-SABUNCU 7,OBA-SABUNCU 7,40.4460190975452,49.946094,5.64
OBA-ELEKTROTOK,OBA-ELEKTROTOK,OBA-ELEKTROTOK,40.3760130975452,49.920109,5.68
OBA-BAHAR 1,OBA-BAHAR 1,OBA-BAHAR 1,40.3666380975452,50.027136,5.68
OBA-SABUNCU 21,OBA-SABUNCU 21,OBA-SABUNCU 21,40.4469283781685,49.9464499964485,5.71
OBA-NZS 10,OBA-NZS 10,OBA-NZS 10,40.3864913053746,49.9135951251615,5.72
OBA-SABUNCU 2,OBA-SABUNCU 2,OBA-SABUNCU 2,40.4471240975452,49.945441,5.77
OBA-YENI SURAXANI 5,OBA-YENI SURAXANI 5,OBA-YENI SURAXANI 5,40.4288421397761,50.0362355338741,5.78
OBA-SABUNCU 13,OBA-SABUNCU 13,OBA-SABUNCU 13,40.4466570975452,49.943785,5.8
OBA-YENI SURAXANI 1,OBA-YENI SURAXANI 1,OBA-YENI SURAXANI 1,40.4328140975452,50.033117,5.81
OBA-SABUNCU 19,OBA-SABUNCU 19,OBA-SABUNCU 19,40.4419222744543,49.9333215807106,5.88
OBA-BAHAR 2,OBA-BAHAR 2,OBA-BAHAR 2,40.3668537618254,50.0306062868249,5.88
OBA-SABUNCU 4,OBA-SABUNCU 4,OBA-SABUNCU 4,40.4421710975452,49.933037,5.91
OBA-KOROGLU 1,OBA-KOROGLU 1,OBA-KOROGLU 1,40.4151232912091,49.9106120120992,5.92
OBA-SABUNCU 3,OBA-SABUNCU 3,OBA-SABUNCU 3,40.4398340975452,49.928335,5.99
YENI SURAXANI 4,YENI SURAXANI 4,YENI SURAXANI 4,40.4253333173973,50.0417405172423,5.99
OBA-SABUNCU 17,OBA-SABUNCU 17,OBA-SABUNCU 17,40.4461292668932,49.9382713979122,6
OBA-YENI SURAXANI 3,OBA-YENI SURAXANI 3,OBA-YENI SURAXANI 3,40.4318420975452,50.038467,6.11
OBA-QUM ADASI,OBA-QUM ADASI,OBA-QUM ADASI,40.3487550975452,49.998611,6.12
OBA-SABUNCU 12,OBA-SABUNCU 12,OBA-SABUNCU 12,40.4425990975452,49.929898,6.12
OBA-NZS,OBA-NZS,OBA-NZS,40.3882440975452,49.907791,6.14
OBA-RAMANA 10,OBA-RAMANA 10,OBA-RAMANA 10,40.4509810975452,50.01127,6.17
RAMANA 23,RAMANA 23,RAMANA 23,40.4570532676295,49.9875754689749,6.22
OBA-NZS 13,OBA-NZS 13,OBA-NZS 13,40.3954525632191,49.9049279902805,6.24
OBA-SABUNCU 14,OBA-SABUNCU 14,OBA-SABUNCU 14,40.4469310975452,49.933818,6.29
OBA-NAXIMOV 3,OBA-NAXIMOV 3,OBA-NAXIMOV 3,40.3449750975452,49.985243,6.32
OBA-NZS 15,OBA-NZS 15,OBA-NZS 15,40.3866021757668,49.9059371797607,6.34
OBA-RAMANA 13,OBA-RAMANA 13,OBA-RAMANA 13,40.4586600975452,49.982487,6.36
OBA-NZS 16,OBA-NZS 16,OBA-NZS 16,40.394098063353,49.9036262153445,6.37
OBA-QUM ADASI 2,OBA-QUM ADASI 2,OBA-QUM ADASI 2,40.344722,49.989,6.39
OBA-SABUNCU 10,OBA-SABUNCU 10,OBA-SABUNCU 10,40.4445860975452,49.927153,6.44
OBA-NZS 8,OBA-NZS 8,OBA-NZS 8,40.3866800975452,49.904465,6.46
OBA-SABUNCU 6,OBA-SABUNCU 6,OBA-SABUNCU 6,40.4529290975452,49.942307,6.47
OBA-NZS 2,OBA-NZS 2,OBA-NZS 2,40.3868860975452,49.903676,6.52
OBA-SABUNCU 16,OBA-SABUNCU 16,OBA-SABUNCU 16,40.4469440975452,49.929365,6.52
OBA-NZS 11,OBA-NZS 11,OBA-NZS 11,40.3857510038076,49.9034705767292,6.57
OBA-NAXIMOV 6,OBA-NAXIMOV 6,OBA-NAXIMOV 6,40.3422978702192,49.980351825189,6.59
OBA-NAXIMOV 1,OBA-NAXIMOV 1,OBA-NAXIMOV 1,40.3426170975452,49.969284,6.6
OBA-NAXIMOV 4,OBA-NAXIMOV 4,OBA-NAXIMOV 4,40.3416860975452,49.982559,6.67
OBA-KESHLE 7,OBA-KESHLE 7,OBA-KESHLE 7,40.4090455245246,49.8999833745684,6.67
OBA-NAXIMOV 5,OBA-NAXIMOV 5,OBA-NAXIMOV 5,40.3420580975452,49.967541,6.68
OBA-BALAXANI 6,OBA-BALAXANI 6,OBA-BALAXANI 6,40.4501729196144,49.9315237489927,6.69
OBA-NAXIMOV 2,OBA-NAXIMOV 2,OBA-NAXIMOV 2,40.3410530975452,49.977777,6.73
OBA-SABUNCU 18,OBA-SABUNCU 18,OBA-SABUNCU 18,40.4478430158739,49.9260403845168,6.78
OBA-KESHLE 10,OBA-KESHLE 10,OBA-KESHLE 10,40.393139,49.898,6.85
OBA-KESHLE 8,OBA-KESHLE 8,OBA-KESHLE 8,40.3961044053116,49.8953117534257,7.04
OBA-KESHLE 4,OBA-KESHLE 4,OBA-KESHLE 4,40.3939390975452,49.895027,7.09
OBA-ULDUZ 1,OBA-ULDUZ 1,OBA-ULDUZ 1,40.4181000975452,49.897195,7.1
OBA-RAMANA 22,OBA-RAMANA 22,OBA-RAMANA 22,40.4639524437409,50.0022055307715,7.23
OBA-RAMANA 5,OBA-RAMANA 5,OBA-RAMANA 5,40.4610280975452,50.012814,7.23
OBA-KESHLE,OBA-KESHLE,OBA-KESHLE,40.3928540975452,49.891103,7.44
OBA-KESHLE 9,OBA-KESHLE 9,OBA-KESHLE 9,40.3962277710256,49.8896089870455,7.52
OBA-BALAXANI 2,OBA-BALAXANI 2,OBA-BALAXANI 2,40.4615260975452,49.926302,7.98
OBA-RAMANA 38,OBA-RAMANA 38,OBA-RAMANA 38,40.472889,49.994806,8.05
OBA-RAMANA 30,OBA-RAMANA 30,OBA-RAMANA 30,40.4726079188925,50.0025093390219,8.16
OBA-NERIMANOV 9,OBA-NERIMANOV 9,OBA-NERIMANOV 9,40.4001920975452,49.881537,8.18
OBA-ZABRAT 4,OBA-ZABRAT 4,OBA-ZABRAT 4,40.4716910975452,49.947378,8.22
OBA-BALAXANI,OBA-BALAXANI,OBA-BALAXANI,40.4604280975452,49.918423,8.27
OBA-RAMANA 20,OBA-RAMANA 20,OBA-RAMANA 20,40.4707870975452,50.015481,8.32
OBA-RAMANA 39,OBA-RAMANA 39,OBA-RAMANA 39,40.471849406752,50.014194423348,8.39
OBA-HOVSAN 15,OBA-HOVSAN 15,OBA-HOVSAN 15,40.3580800975452,50.059411,8.41
OBA-ZABRAT 2,OBA-ZABRAT 2,OBA-ZABRAT 2,40.4728600975452,49.94459,8.42
OBA-RAMANA 2,OBA-RAMANA 2,OBA-RAMANA 2,40.4741180975452,50.007214,8.43
OBA-RAMANA 8,OBA-RAMANA 8,OBA-RAMANA 8,40.4771440975452,49.987789,8.44
OBA-RAMANA 31,OBA-RAMANA 31,OBA-RAMANA 31,40.4710975582912,50.02096165356,8.54
OBA-ZABRAT 22,OBA-ZABRAT 22,OBA-ZABRAT 22,40.4772236652457,49.9602436576722,8.55
OBA-BALAXANI 4,OBA-BALAXANI 4,OBA-BALAXANI 4,40.4663082524387,49.9228694742633,8.59
OBA-NERIMANOV 14,OBA-NERIMANOV 14,OBA-NERIMANOV 14,40.4011770975452,49.87622,8.63
OBA-ZABRAT 9,OBA-ZABRAT 9,OBA-ZABRAT 9,40.4751550975452,49.944871,8.65
OBA-RAMANA 36,OBA-RAMANA 36,OBA-RAMANA 36,40.4757965745508,50.0090663288339,8.66
OBA-NERIMANOV 20,OBA-NERIMANOV 20,OBA-NERIMANOV 20,40.40628195479,49.8758308084023,8.68
OBA-HOVSAN 17,OBA-HOVSAN 17,OBA-HOVSAN 17,40.359007344759,50.0642390487993,8.69
OBA-NERIMANOV 6,OBA-NERIMANOV 6,OBA-NERIMANOV 6,40.3964010975452,49.875639,8.7
OBA-HOVSAN 6,OBA-HOVSAN 6,OBA-HOVSAN 6,40.3845550975452,50.079703,8.8
ZABRAT 15,ZABRAT 15,ZABRAT 15,40.4794909115333,49.9595993571058,8.8
RAMANA 25,RAMANA 25,RAMANA 25,40.4801150122012,49.9934040153414,8.83
OBA-HOVSAN 7,OBA-HOVSAN 7,OBA-HOVSAN 7,40.3649760975452,50.071211,8.87
OBA-ZABRAT 19,OBA-ZABRAT 19,OBA-ZABRAT 19,40.4793394327719,49.9545494009934,8.87
OBA-BINE 57,OBA-BINE 57,OBA-BINE 57,40.4437854139731,50.0684657490254,8.97
OBA-RAMANA 12,OBA-RAMANA 12,OBA-RAMANA 12,40.4774170975452,50.015435,9
OBA-RAMANA 18,OBA-RAMANA 18,OBA-RAMANA 18,40.4791780975452,50.011451,9.08
OBA-NERIMANOV 19,OBA-NERIMANOV 19,OBA-NERIMANOV 19,40.4076030975452,49.871132,9.09
OBA-ZABRAT 16,OBA-ZABRAT 16,OBA-ZABRAT 16,40.4789349059311,49.9434094933658,9.09
OBA-NERIMANOV 12,OBA-NERIMANOV 12,OBA-NERIMANOV 12,40.3950550975452,49.871145,9.09
OBA-HOVSAN 18,OBA-HOVSAN 18,OBA-HOVSAN 18,40.3550442419443,50.0665681845476,9.1
OBA-HOVSAN 20,OBA-HOVSAN 20,OBA-HOVSAN 20,40.361843200451,50.072206106735,9.11
OBA-NERIMANOV 16,OBA-NERIMANOV 16,OBA-NERIMANOV 16,40.4044980975452,49.870538,9.12
OBA-HOVSAN 9,OBA-HOVSAN 9,OBA-HOVSAN 9,40.3594320975452,50.071133,9.16
OBA-HOVSAN 23,OBA-HOVSAN 23,OBA-HOVSAN 23,40.3800710791023,50.0835135625678,9.24
OBA-ZABRAT 20 ,OBA-ZABRAT 20 ,OBA-ZABRAT 20 ,40.4755966728237,49.9271861126293,9.29
OBA-HOVSAN 10,OBA-HOVSAN 10,OBA-HOVSAN 10,40.3647460975452,50.076929,9.31
OBA-ZABRAT 17,OBA-ZABRAT 17,OBA-ZABRAT 17,40.4782102198399,49.9332453892226,9.33
OBA-XETAI 5,OBA-XETAI 5,OBA-XETAI 5,40.3838100975452,49.870235,9.35
OBA-RAMANA 26,OBA-RAMANA 26,OBA-RAMANA 26,40.4860248973305,49.9779268686707,9.39
OBA-BALAXANI 3,OBA-BALAXANI 3,OBA-BALAXANI 3,40.4733150975452,49.919142,9.41
OBA-NERIMANOV,OBA-NERIMANOV,OBA-NERIMANOV,40.4044520975452,49.866633,9.45
OBA-BINE 44,OBA-BINE 44,OBA-BINE 44,40.4478446692629,50.0719040153444,9.46
OBA-XETAI 4,OBA-XETAI 4,OBA-XETAI 4,40.3813300975452,49.869672,9.46
OBA-RAMANA 7,OBA-RAMANA 7,OBA-RAMANA 7,40.4872960975452,49.983716,9.54
OBA-HOVSAN 2,OBA-HOVSAN 2,OBA-HOVSAN 2,40.3646020975452,50.080165,9.57
OBA-HOVSAN,OBA-HOVSAN,OBA-HOVSAN,40.3581310975452,50.075722,9.57
OBA-HOVSAN 8,OBA-HOVSAN 8,OBA-HOVSAN 8,40.3607000975452,50.07769,9.58
OBA-BINE 73,OBA-BINE 73,OBA-BINE 73,40.4161255493273,50.0897928103446,9.59
OBA-BINE 54,OBA-BINE 54,OBA-BINE 54,40.4364470654274,50.082719838895,9.66
OBA-BINE 72,OBA-BINE 72,OBA-BINE 72,40.4460195374358,50.0763181846554,9.67
OBA-CERMET,OBA-CERMET,OBA-CERMET,40.4189300975452,49.866261,9.67
OBA-ZABRAT 14,OBA-ZABRAT 14,OBA-ZABRAT 14,40.4834008250293,49.9387085269042,9.69
OBA-ZABRAT 18,OBA-ZABRAT 18,OBA-ZABRAT 18,40.4810741481043,49.9285236960594,9.79
OBA-RAMANA,OBA-RAMANA,OBA-RAMANA,40.4896310975452,49.983227,9.8
OBA-ZABRAT 3,OBA-ZABRAT 3,OBA-ZABRAT 3,40.4881450975452,49.955344,9.82
OBA-BINE 5,OBA-BINE 5,OBA-BINE 5,40.4551930975452,50.070493,9.83
OBA-ULD_HOVSAN 4 ,OBA-ULD_HOVSAN 4 ,OBA-ULD_HOVSAN 4 ,40.3592200975452,50.080779,9.89
OBA-ZABRAT 24,OBA-ZABRAT 24,OBA-ZABRAT 24,40.4889213521951,49.9561199730168,9.89
OBA-BINE 53,OBA-BINE 53,OBA-BINE 53,40.4206940439608,50.0923004867038,9.89
OBA-HOVSAN 16,OBA-HOVSAN 16,OBA-HOVSAN 16,40.3679717459892,50.0866458185817,9.92
OBA-NERIMANOV 2,OBA-NERIMANOV 2,OBA-NERIMANOV 2,40.4010540975452,49.85937,10.06
OBA-ZABRAT 21,OBA-ZABRAT 21,OBA-ZABRAT 21,40.4883229164225,49.9424114365105,10.11
OBA-BINE 47,OBA-BINE 47,OBA-BINE 47,40.4415558385362,50.0855573358301,10.12
OBA-BINE 27,OBA-BINE 27,OBA-BINE 27,40.4250050975452,50.094232,10.17
OBA-BINE 10,OBA-BINE 10,OBA-BINE 10,40.4474120975452,50.082844,10.22
OBA-NERIMANOV 23,OBA-NERIMANOV 23,OBA-NERIMANOV 23,40.3914027928359,49.8581123062202,10.23
OBA-BINE 34,OBA-BINE 34,OBA-BINE 34,40.4219092703229,50.0961122113519,10.24
BALAXANI 5,BALAXANI 5,BALAXANI 5,40.4787989903591,49.9121967561744,10.24
OBA-RAMANA 19,OBA-RAMANA 19,OBA-RAMANA 19,40.4942220975452,49.982188,10.31
OBA-BINE 39,OBA-BINE 39,OBA-BINE 39,40.4366624972117,50.0909548302764,10.31
OBA-BINE 66,OBA-BINE 66,OBA-BINE 66,40.444617239108,50.086191161966,10.32
OBA-BINE 36,OBA-BINE 36,OBA-BINE 36,40.4249471969043,50.0964039890062,10.34
OBA-ZABRAT 7,OBA-ZABRAT 7,OBA-ZABRAT 7,40.4913180975452,49.945636,10.35
OBA-BINE 42,OBA-BINE 42,OBA-BINE 42,40.4504572612779,50.0823761787502,10.36
OBA-BINE 45,OBA-BINE 45,OBA-BINE 45,40.449803738408,50.0829400134916,10.36
OBA-HOVSAN 14,OBA-HOVSAN 14,OBA-HOVSAN 14,40.3748240975452,50.096325,10.44
OBA-HOVSAN 19,OBA-HOVSAN 19,OBA-HOVSAN 19,40.3838282404941,50.1002501303063,10.53
OBA-ZABRAT 13,OBA-ZABRAT 13,OBA-ZABRAT 13,40.4930700975452,49.944074,10.57
OBA-28 MAY 2,OBA-28 MAY 2,OBA-28 MAY 2,40.3778550975452,49.856899,10.6
OBA-ZABRAT 10,OBA-ZABRAT 10,OBA-ZABRAT 10,40.4939200975452,49.946659,10.61
OBA-CHAPAYEV,OBA-CHAPAYEV,OBA-CHAPAYEV,40.390388,49.853582,10.62
OBA-28 MAY 4,OBA-28 MAY 4,OBA-28 MAY 4,40.3803300975452,49.855808,10.63
OBA-BINE 2,OBA-BINE 2,OBA-BINE 2,40.4392510975452,50.093792,10.65
OBA-BINE 26,OBA-BINE 26,OBA-BINE 26,40.4347590975452,50.096684,10.69
OBA-CHAPAYEV 3,OBA-CHAPAYEV 3,OBA-CHAPAYEV 3,40.3892815662897,49.8526087622483,10.72
OBA-BINE 21,OBA-BINE 21,OBA-BINE 21,40.4307550975452,50.099046,10.73
OBA-BINE 7,OBA-BINE 7,OBA-BINE 7,40.4504000975452,50.087718,10.74
OBA-BINE 61,OBA-BINE 61,OBA-BINE 61,40.4260924555187,50.1011363310705,10.76
OBA-GENCLIK 8,OBA-GENCLIK 8,OBA-GENCLIK 8,40.4030939647741,49.8510824220894,10.76
OBA-BINE 43,OBA-BINE 43,OBA-BINE 43,40.4373870588532,50.0965368836116,10.78
OBA-BINE 46,OBA-BINE 46,OBA-BINE 46,40.4234300999325,50.1025147010224,10.8
OBA-RAMANA 14,OBA-RAMANA 14,OBA-RAMANA 14,40.4971720975452,50.002684,10.83
OBA-BINE 14,OBA-BINE 14,OBA-BINE 14,40.4244270975452,50.102894,10.86
OBA-7 MKR 5,OBA-7 MKR 5,OBA-7 MKR 5,40.4274680975452,49.854447,10.86
OBA-HOVSAN 12,OBA-HOVSAN 12,OBA-HOVSAN 12,40.3729880975452,50.10145,10.91
OBA-BINE 40,OBA-BINE 40,OBA-BINE 40,40.4046005563192,50.1071036623981,10.92
OBA-GENCLIK 1,OBA-GENCLIK 1,OBA-GENCLIK 1,40.4029250975452,49.848648,10.97
OBA-BINE 3,OBA-BINE 3,OBA-BINE 3,40.4211570975452,50.105222,10.97
OBA-BINE 41,OBA-BINE 41,OBA-BINE 41,40.4172790143477,50.1064684470536,11
OBA-BINE 29,OBA-BINE 29,OBA-BINE 29,40.4095740975452,50.108075,11.03
OBA-7 MKR 9,OBA-7 MKR 9,OBA-7 MKR 9,40.4280935156545,49.8525251159798,11.04
OBA-BINE 28,OBA-BINE 28,OBA-BINE 28,40.4247600975452,50.10504,11.05
OBA-BINE 71,OBA-BINE 71,OBA-BINE 71,40.4722936567269,50.0702447017534,11.07
OBA-7 MKR 6,OBA-7 MKR 6,OBA-7 MKR 6,40.4325430975452,49.853415,11.11
OBA-RAMANA 35,OBA-RAMANA 35,OBA-RAMANA 35,40.5016232826193,49.9806674725818,11.13
OBA-RAMANA 29,OBA-RAMANA 29,OBA-RAMANA 29,40.5012294588934,49.9945500744951,11.17
OBA-BINE 58,OBA-BINE 58,OBA-BINE 58,40.4457521633162,50.0969177284784,11.19
OBA-RAMANA 32,OBA-RAMANA 32,OBA-RAMANA 32,40.501861038549,49.991868545442,11.21
OBA-7 MKR,OBA-7 MKR,OBA-7 MKR,40.4155030975452,49.846647,11.24
OBA-28 MAY 7,OBA-28 MAY 7,OBA-28 MAY 7,40.3809220975452,49.848129,11.25
OBA-BINE 55,OBA-BINE 55,OBA-BINE 55,40.4325991764345,50.1049703702098,11.27
OBA-BINE 33,OBA-BINE 33,OBA-BINE 33,40.4509822398513,50.0948463839309,11.3
OBA-7MKR 10,OBA-7MKR 10,OBA-7MKR 10,40.4285060975452,49.849378,11.31
OBA-BINE 50,OBA-BINE 50,OBA-BINE 50,40.4044295761714,50.1124410570105,11.37
OBA-BINE 51,OBA-BINE 51,OBA-BINE 51,40.4167124365084,50.1116606423341,11.43
OBA-GENCLIK 5,OBA-GENCLIK 5,OBA-GENCLIK 5,40.411180780786,49.8436345618127,11.44
OBA-7 MKR 2,OBA-7 MKR 2,OBA-7 MKR 2,40.4168490975452,49.844374,11.46
OBA-BINE 68,OBA-BINE 68,OBA-BINE 68,40.4515984834564,50.0966949700083,11.47
OBA-BINE 63,OBA-BINE 63,OBA-BINE 63,40.4493363467674,50.0983133963489,11.47
OBA-BINEQEDI 4,OBA-BINEQEDI 4,OBA-BINEQEDI 4,40.4233760975452,49.845648,11.48
OBA-BINE 24,OBA-BINE 24,OBA-BINE 24,40.4727320975452,50.076995,11.51
OBA-BINE 52,OBA-BINE 52,OBA-BINE 52,40.4226650920024,50.1116856987818,11.54
OBA-7 MKR 7,OBA-7 MKR 7,OBA-7 MKR 7,40.4279440975452,49.845809,11.58
OBA-28 MAY 6,OBA-28 MAY 6,OBA-28 MAY 6,40.3809270975452,49.844109,11.58
OBA-8 MKR 3,OBA-8 MKR 3,OBA-8 MKR 3,40.4244857445024,49.8443473298241,11.61
OBA-BINE 48,OBA-BINE 48,OBA-BINE 48,40.418143952525,50.113767206652,11.63
OBA-BINE 75,OBA-BINE 75,OBA-BINE 75,40.444111,50.104056,11.66
OBA-BINE 9,OBA-BINE 9,OBA-BINE 9,40.4196100975452,50.114591,11.72
OBA-AZADLIQ,OBA-AZADLIQ,OBA-AZADLIQ,40.3974870975452,49.839381,11.76
OBA-RAMANA 6,OBA-RAMANA 6,OBA-RAMANA 6,40.5075330975452,49.985326,11.8
OBA-GENCLIK 7,OBA-GENCLIK 7,OBA-GENCLIK 7,40.3999108983915,49.8387841050303,11.8
OBA-28 MAY 3,OBA-28 MAY 3,OBA-28 MAY 3,40.3854040975452,49.840347,11.81
OBA-BINE 74,OBA-BINE 74,OBA-BINE 74,40.4275727189123,50.113682793254,11.83
OBA-BINE 8,OBA-BINE 8,OBA-BINE 8,40.4470670975452,50.104589,11.84
OBA-BINE 38,OBA-BINE 38,OBA-BINE 38,40.4838716570308,50.0668975515658,11.84
OBA-7 MKR 8,OBA-7 MKR 8,OBA-7 MKR 8,40.4130880975452,49.838181,11.92
OBA-8 MKR 2,OBA-8 MKR 2,OBA-8 MKR 2,40.4177369192694,49.8386747326355,11.95
OBA-BINEQEDI 19,OBA-BINEQEDI 19,OBA-BINEQEDI 19,40.432207493129,49.842780608237,11.96
OBA-BINE 32,OBA-BINE 32,OBA-BINE 32,40.4529678768372,50.1023640920695,11.96
OBA-NERIMANOV 8,OBA-NERIMANOV 8,OBA-NERIMANOV 8,40.4085580975452,49.836201,12.05
OBA-SAVALAN 6,OBA-SAVALAN 6,OBA-SAVALAN 6,40.5105851042487,49.9725848132039,12.13
OBA-BINEQEDI,OBA-BINEQEDI,OBA-BINEQEDI,40.4362640975452,49.842112,12.15
OBA-BINE 13,OBA-BINE 13,OBA-BINE 13,40.4617440975452,50.098163,12.16
OBA-NERIMANOV 5,OBA-NERIMANOV 5,OBA-NERIMANOV 5,40.3998270975452,49.834256,12.19
OBA-BINE 6,OBA-BINE 6,OBA-BINE 6,40.4850860975452,50.073056,12.28
OBA-SAVALAN 11,OBA-SAVALAN 11,OBA-SAVALAN 11,40.512222,49.971444,12.32
OBA-BINE 70,OBA-BINE 70,OBA-BINE 70,40.4296819234479,50.1193430681389,12.35
OBA-BINE 59,OBA-BINE 59,OBA-BINE 59,40.4475739652496,50.111055704649,12.36
OBA-KUBINKA 1,OBA-KUBINKA 1,OBA-KUBINKA 1,40.3832480975452,49.834141,12.37
OBA-XUTOR 4,OBA-XUTOR 4,OBA-XUTOR 4,40.4232103194207,49.8343912467325,12.41
BINE 35,BINE 35,BINE 35,40.426983985655,50.1215374215477,12.46
BINE 31,BINE 31,BINE 31,40.4493787897869,50.1114783547288,12.47
OBA-XUTOR 5,OBA-XUTOR 5,OBA-XUTOR 5,40.4168862467953,49.8320869294935,12.49
OBA-BINE 30,OBA-BINE 30,OBA-BINE 30,40.4220910975452,50.123243,12.49
OBA-BINE 62,OBA-BINE 62,OBA-BINE 62,40.4893995992682,50.0707787245878,12.52
OBA-BINEQEDI 3,OBA-BINEQEDI 3,OBA-BINEQEDI 3,40.4359040975452,49.836971,12.55
OBA-SAVALAN 9,OBA-SAVALAN 9,OBA-SAVALAN 9,40.5138286046597,49.9606246234568,12.57
OBA-BINE 60,OBA-BINE 60,OBA-BINE 60,40.4305173984887,50.1217385067415,12.57
OBA-BINE 65,OBA-BINE 65,OBA-BINE 65,40.4949784850024,50.06207077759,12.58
OBA-BAKSOVET 3,OBA-BAKSOVET 3,OBA-BAKSOVET 3,40.3710842087521,49.8348279355809,12.61
OBA-NIZAMI 2,OBA-NIZAMI 2,OBA-NIZAMI 2,40.3791170975452,49.831325,12.69
OBA-XUTOR 3,OBA-XUTOR 3,OBA-XUTOR 3,40.4130250975452,49.828326,12.75
OBA-BINE 49,OBA-BINE 49,OBA-BINE 49,40.4137422176206,50.127993477966,12.76
OBA-BINE 67,OBA-BINE 67,OBA-BINE 67,40.4098302788381,50.128551955838,12.77
OBA-NIZAMI 3,OBA-NIZAMI 3,OBA-NIZAMI 3,40.3775100975452,49.830511,12.79
OBA-SAVALAN 4,OBA-SAVALAN 4,OBA-SAVALAN 4,40.5163250975452,49.963184,12.82
OBA-NERIMANOV 3,OBA-NERIMANOV 3,OBA-NERIMANOV 3,40.4085250975452,49.826987,12.82
OBA-SAVALAN 7,OBA-SAVALAN 7,OBA-SAVALAN 7,40.5174215246199,49.9681174423244,12.91
OBA-SAVALAN 8,OBA-SAVALAN 8,OBA-SAVALAN 8,40.5164287317599,49.9550136839418,12.92
OBA-6 MKR 1,OBA-6 MKR 1,OBA-6 MKR 1,40.4195230975452,49.827198,12.94
OBA-BINE 56,OBA-BINE 56,OBA-BINE 56,40.4245916941272,50.1280516791318,12.94
OBA-XUTOR 2,OBA-XUTOR 2,OBA-XUTOR 2,40.4129810975452,49.824861,13.04
OBA-MEHEMMEDI 3,OBA-MEHEMMEDI 3,OBA-MEHEMMEDI 3,40.5086500975452,49.915133,13.05
OBA-BINE 25,OBA-BINE 25,OBA-BINE 25,40.4320330975452,50.127086,13.05
OBA-NESIMI 1,OBA-NESIMI 1,OBA-NESIMI 1,40.4250960975452,49.826223,13.13
OBA-NIZAMI 1,OBA-NIZAMI 1,OBA-NIZAMI 1,40.3802100975452,49.82571,13.13
OBA-INQLAB 1,OBA-INQLAB 1,OBA-INQLAB 1,40.3976290975452,49.823068,13.14
OBA-MEHEMMEDI 2,OBA-MEHEMMEDI 2,OBA-MEHEMMEDI 2,40.5070340975452,49.907621,13.16
OBA-DIGAH 2,OBA-DIGAH 2,OBA-DIGAH 2,40.4960025681011,49.8838064779098,13.19
OBA-BAKSOVET,OBA-BAKSOVET,OBA-BAKSOVET,40.3679690975452,49.828194,13.24
OBA-3 MKR 3,OBA-3 MKR 3,OBA-3 MKR 3,40.4098220975452,49.821416,13.3
OBA-NESIMI 2,OBA-NESIMI 2,OBA-NESIMI 2,40.4248330975452,49.824008,13.31
OBA-YENI YASAMAL 5,OBA-YENI YASAMAL 5,OBA-YENI YASAMAL 5,40.3912350975452,49.821488,13.32
OBA-INQILAB 4,OBA-INQILAB 4,OBA-INQILAB 4,40.4017350975452,49.820563,13.35
OBA-4 MKR,OBA-4 MKR,OBA-4 MKR,40.4180320975452,49.821984,13.35
OBA-MASTAGA 11,OBA-MASTAGA 11,OBA-MASTAGA 11,40.514615995492,50.0316458808215,13.36
OBA-SAVALAN 10,OBA-SAVALAN 10,OBA-SAVALAN 10,40.5220805565198,49.9788026662678,13.4
OBA-BINEQEDI 9,OBA-BINEQEDI 9,OBA-BINEQEDI 9,40.4626540975452,49.841585,13.41
OBA-BILECERI 8,OBA-BILECERI 8,OBA-BILECERI 8,40.4415070975452,49.828488,13.43
OBA-MEHDIABAD 5,OBA-MEHDIABAD 5,OBA-MEHDIABAD 5,40.4850880975452,49.862853,13.47
OBA-3MKR 7,OBA-3MKR 7,OBA-3MKR 7,40.4101130975452,49.818913,13.52
OBA-BAYIL 10,OBA-BAYIL 10,OBA-BAYIL 10,40.3485482744093,49.8332447826903,13.62
OBA-4 MKR 11,OBA-4 MKR 11,OBA-4 MKR 11,40.4169840975452,49.818201,13.65
OBA-BINEQEDI 2,OBA-BINEQEDI 2,OBA-BINEQEDI 2,40.4674070975452,49.841961,13.66
OBA-3 MKR 4,OBA-3 MKR 4,OBA-3 MKR 4,40.4076770975452,49.817075,13.66
OBA-DIGAH 1,OBA-DIGAH 1,OBA-DIGAH 1,40.4929380975452,49.870169,13.66
OBA-BAYIL 3,OBA-BAYIL 3,OBA-BAYIL 3,40.3438220975452,49.835691,13.67
OBA-BAYIL,OBA-BAYIL,OBA-BAYIL,40.3412180975452,49.837201,13.7
OBA-MEHEMMEDI 6,OBA-MEHEMMEDI 6,OBA-MEHEMMEDI 6,40.523298186269,49.9498952447707,13.74
OBA-4 MKR 5,OBA-4 MKR 5,OBA-4 MKR 5,40.4196280975452,49.817297,13.77
OBA-3MKR 5,OBA-3MKR 5,OBA-3MKR 5,40.4098890975452,49.815924,13.77
OBA-ELMLER 2,OBA-ELMLER 2,OBA-ELMLER 2,40.3760160975452,49.818765,13.8
OBA-9 MKR 6,OBA-9 MKR 6,OBA-9 MKR 6,40.4215063873395,49.8171223490721,13.81
OBA-ELMLER 3,OBA-ELMLER 3,OBA-ELMLER 3,40.3681320975452,49.820803,13.84
OBA-ECEMI 2,OBA-ECEMI 2,OBA-ECEMI 2,40.4133315866605,49.8152704647785,13.85
OBA-MASHTAGA 18,OBA-MASHTAGA 18,OBA-MASHTAGA 18,40.5245599184028,50.0077026063875,13.9
OBA-BAYIL 8,OBA-BAYIL 8,OBA-BAYIL 8,40.3400646150281,49.8346657325051,13.95
OBA-9 MKR 1,OBA-9 MKR 1,OBA-9 MKR 1,40.4229930975452,49.815733,13.96
OBA-4MKR 8,OBA-4MKR 8,OBA-4MKR 8,40.4121350975452,49.813824,13.97
OBA-4 MKR 2,OBA-4 MKR 2,OBA-4 MKR 2,40.4152400975452,49.814162,13.97
OBA-ELMLER 4,OBA-ELMLER 4,OBA-ELMLER 4,40.3846020975452,49.81469,13.97
OBA-ELMLER 5,OBA-ELMLER 5,OBA-ELMLER 5,40.3650540975452,49.820213,13.98
OBA-BILECERI 12,OBA-BILECERI 12,OBA-BILECERI 12,40.4440744412816,49.8224621045631,14
OBA-ELMLER 8,OBA-ELMLER 8,OBA-ELMLER 8,40.370694947754,49.8178866336178,14
OBA-ECEMI 1,OBA-ECEMI 1,OBA-ECEMI 1,40.4085250975452,49.812918,14.01
OBA-4 MKR 12,OBA-4 MKR 12,OBA-4 MKR 12,40.415949,49.813225,14.06
OBA-MASHTAGA 15,OBA-MASHTAGA 15,OBA-MASHTAGA 15,40.5219011471258,50.0293889,14.06
OBA-9 MKR 7,OBA-9 MKR 7,OBA-9 MKR 7,40.4253245497672,49.8145165500297,14.1
OBA-BAYIL 4,OBA-BAYIL 4,OBA-BAYIL 4,40.3406280975452,49.831905,14.12
OBA-BINEQEDI 18,OBA-BINEQEDI 18,OBA-BINEQEDI 18,40.475603346952,49.8416719517303,14.18
OBA-MASHTAGA 7,OBA-MASHTAGA 7,OBA-MASHTAGA 7,40.5260250975452,50.015126,14.19
OBA-MEHDIABAD 10,OBA-MEHDIABAD 10,OBA-MEHDIABAD 10,40.48861214671,49.8551647883614,14.21
OBA-YENI BILECERI,OBA-YENI BILECERI,OBA-YENI BILECERI,40.4334100975452,49.815344,14.23
OBA-4 MKR 9,OBA-4 MKR 9,OBA-4 MKR 9,40.4130850975452,49.809925,14.3
OBA-4 MKR 10,OBA-4 MKR 10,OBA-4 MKR 10,40.4173950975452,49.810478,14.31
OBA-MEHDIABAD 7,OBA-MEHDIABAD 7,OBA-MEHDIABAD 7,40.4909264962245,49.8558136088285,14.35
OBA-5 MKR 3,OBA-5 MKR 3,OBA-5 MKR 3,40.4079831846867,49.808739282421,14.36
OBA-QALA,OBA-QALA,OBA-QALA,40.4615520975452,50.128615,14.37
OBA-BINEQEDI 16,OBA-BINEQEDI 16,OBA-BINEQEDI 16,40.4637590975452,49.829234,14.38
OBA-QALA 6,OBA-QALA 6,OBA-QALA 6,40.468296733865,50.1239320130995,14.4
OBA-5 MKR 2,OBA-5 MKR 2,OBA-5 MKR 2,40.4104860975452,49.808232,14.42
OBA-BINEQEDI 12,OBA-BINEQEDI 12,OBA-BINEQEDI 12,40.4643480975452,49.828864,14.44
OBA-BILECERI 6,OBA-BILECERI 6,OBA-BILECERI 6,40.4311030975452,49.811996,14.45
OBA-MASTAGA 2,OBA-MASTAGA 2,OBA-MASTAGA 2,40.5302790975452,50.001848,14.45
OBA-BILECERI 9,OBA-BILECERI 9,OBA-BILECERI 9,40.4372000975452,49.813947,14.46
OBA-BADAMDAR 5,OBA-BADAMDAR 5,OBA-BADAMDAR 5,40.3548390975452,49.818477,14.49
OBA-MASHTAGA 23,OBA-MASHTAGA 23,OBA-MASHTAGA 23,40.531837,49.991328,14.53
OBA-BINEQEDI 23,OBA-BINEQEDI 23,OBA-BINEQEDI 23,40.4703706336059,49.8317719558177,14.56
OBA-QALA 2,OBA-QALA 2,OBA-QALA 2,40.4715630975452,50.124275,14.61
OBA-ELMLER 1,OBA-ELMLER 1,OBA-ELMLER 1,40.3808230975452,49.807614,14.63
OBA-MASTAGA 5,OBA-MASTAGA 5,OBA-MASTAGA 5,40.5317080975452,50.005685,14.66
OBA-YENI YASAMAL 4,OBA-YENI YASAMAL 4,OBA-YENI YASAMAL 4,40.3875150975452,49.805647,14.69
OBA-9 MKR 4,OBA-9 MKR 4,OBA-9 MKR 4,40.4148170975452,49.805156,14.72
OBA-MASTAGA,OBA-MASTAGA,OBA-MASTAGA,40.5326700975452,50.004725,14.75
OBA-MASTAGA 14,OBA-MASTAGA 14,OBA-MASTAGA 14,40.5334996649015,49.9979380939181,14.76
OBA-20 YANVAR,OBA-20 YANVAR,OBA-20 YANVAR,40.4117900975452,49.803964,14.79
OBA-YYASAMAL 25,OBA-YYASAMAL 25,OBA-YYASAMAL 25,40.3891260975452,49.804217,14.8
OBA-BINEQEDI 21,OBA-BINEQEDI 21,OBA-BINEQEDI 21,40.4759732047756,49.8327437231639,14.83
OBA-BILECERI 3,OBA-BILECERI 3,OBA-BILECERI 3,40.4395380975452,49.810202,14.83
OBA-YENI YASAMAL 16,OBA-YENI YASAMAL 16,OBA-YENI YASAMAL 16,40.3931150975452,49.80337,14.83
OBA-BINEQEDI 13,OBA-BINEQEDI 13,OBA-BINEQEDI 13,40.4765940975452,49.83316,14.84
OBA-MASHTAGA 19,OBA-MASHTAGA 19,OBA-MASHTAGA 19,40.5336577062197,50.0040832999977,14.85
OBA-YENI YASAMAL 17,OBA-YENI YASAMAL 17,OBA-YENI YASAMAL 17,40.3790700975452,49.805319,14.85
OBA-ALATAVA 1,OBA-ALATAVA 1,OBA-ALATAVA 1,40.4053280975452,49.802805,14.86
OBA-YENI YASAMAL 9,OBA-YENI YASAMAL 9,OBA-YENI YASAMAL 9,40.3812960975452,49.804719,14.86
OBA-MASHTAGA 16,OBA-MASHTAGA 16,OBA-MASHTAGA 16,40.532576081972,50.0136446558195,14.87
OBA-YENI YASAMAL,OBA-YENI YASAMAL,OBA-YENI YASAMAL,40.3874410975452,49.803472,14.88
OBA-MEHDIABAD 4,OBA-MEHDIABAD 4,OBA-MEHDIABAD 4,40.4964990975452,49.854204,14.88
MASTAGA 12,MASTAGA 12,MASTAGA 12,40.5306905950622,50.0249607886024,14.89
OBA-YENI YASAMAL 30,OBA-YENI YASAMAL 30,OBA-YENI YASAMAL 30,40.3773058329087,49.8049767514519,14.91
OBA-BINEQEDI G.S.,OBA-BINEQEDI G.S.,OBA-BINEQEDI G.S.,40.4822800975452,49.837396,14.92
OBA-YYASAMAL 20,OBA-YYASAMAL 20,OBA-YYASAMAL 20,40.3889520975452,49.802749,14.92
OBA-YENI YASAMAL 34,OBA-YENI YASAMAL 34,OBA-YENI YASAMAL 34,40.3740802830887,49.8054974934618,14.94
OBA-YENI YASAMAL 29,OBA-YENI YASAMAL 29,OBA-YENI YASAMAL 29,40.3786650502316,49.8043368293646,14.94
OBA-YENI YASAMAL 35,OBA-YENI YASAMAL 35,OBA-YENI YASAMAL 35,40.3744656352474,49.8050824112397,14.97
OBA-YYASAMAL 24,OBA-YYASAMAL 24,OBA-YYASAMAL 24,40.3725420975452,49.80552,14.98
OBA-BILECERI 13,OBA-BILECERI 13,OBA-BILECERI 13,40.4402499975239,49.8086547647173,14.98
OBA-MASHTAGA 13,OBA-MASHTAGA 13,OBA-MASHTAGA 13,40.5272349127978,50.0422632620737,14.99
OBA-YENI YASAMAL 12,OBA-YENI YASAMAL 12,OBA-YENI YASAMAL 12,40.3952360975452,49.801347,14.99
OBA-BILECERI,OBA-BILECERI,OBA-BILECERI,40.4427950975452,49.809524,14.99
OBA-MASTAGA 10,OBA-MASTAGA 10,OBA-MASTAGA 10,40.5362830975452,49.989964,15.01
OBA-YASAMAL 43,OBA-YASAMAL 43,OBA-YASAMAL 43,40.379361,49.803139,15.03
OBA-20 YANVAR 2,OBA-20 YANVAR 2,OBA-20 YANVAR 2,40.4128506443108,49.8009953000524,15.05
OBA-YENI YASAMAL 19,OBA-YENI YASAMAL 19,OBA-YENI YASAMAL 19,40.3866610975452,49.801484,15.05
OBA-YENI YASAMAL 27,OBA-YENI YASAMAL 27,OBA-YENI YASAMAL 27,40.3918789559156,49.8007744537546,15.06
OBA-SHAGAN 6,OBA-SHAGAN 6,OBA-SHAGAN 6,40.4779214080946,50.1252212093721,15.06
OBA-YENI YASAMAL 38,OBA-YENI YASAMAL 38,OBA-YENI YASAMAL 38,40.3817933410558,49.8021388999977,15.07
OBA-MEHDIABAD 1,OBA-MEHDIABAD 1,OBA-MEHDIABAD 1,40.5004070975452,49.856036,15.09
OBA-BINEQEDI 17,OBA-BINEQEDI 17,OBA-BINEQEDI 17,40.4711729784014,49.8250790049811,15.09
OBA-BILECERI 4,OBA-BILECERI 4,OBA-BILECERI 4,40.4318520975452,49.804124,15.11
OBA-ALATAVA 3,OBA-ALATAVA 3,OBA-ALATAVA 3,40.4060120772088,49.7994178465512,15.14
OBA-BUZOVNA 3,OBA-BUZOVNA 3,OBA-BUZOVNA 3,40.4890030975452,50.115404,15.14
OBA-TURKAN 5,OBA-TURKAN 5,OBA-TURKAN 5,40.3695973245562,50.1520649840171,15.15
OBA-YENI YASAMAL 39,OBA-YENI YASAMAL 39,OBA-YENI YASAMAL 39,40.3943709778751,49.7990239883614,15.19
OBA-ALATAVA 2,OBA-ALATAVA 2,OBA-ALATAVA 2,40.4044260521227,49.7986338558742,15.21
OBA-BUZOVNA 4,OBA-BUZOVNA 4,OBA-BUZOVNA 4,40.5180190975452,50.072847,15.22
OBA-BINEQEDI 24,OBA-BINEQEDI 24,OBA-BINEQEDI 24,40.4659494043821,49.8192155687414,15.24
OBA-BINEQEDI 25,OBA-BINEQEDI 25,OBA-BINEQEDI 25,40.4624688885813,49.8167044956875,15.25
OBA-BAYIL 2,OBA-BAYIL 2,OBA-BAYIL 2,40.3354770975452,49.820343,15.26
OBA-BILECERI 5,OBA-BILECERI 5,OBA-BILECERI 5,40.4248640975452,49.800506,15.26
OBA-YENI YASAMAL 18,OBA-YENI YASAMAL 18,OBA-YENI YASAMAL 18,40.4001870975452,49.797292,15.32
OBA-YYASAMAL 26,OBA-YYASAMAL 26,OBA-YYASAMAL 26,40.3992620975452,49.797072,15.34
OBA-MEHDIABAD 8,OBA-MEHDIABAD 8,OBA-MEHDIABAD 8,40.4983061859642,49.8485366581421,15.36
OBA-AVTOVAGZAL,OBA-AVTOVAGZAL,OBA-AVTOVAGZAL,40.4220750975452,49.79872,15.36
OBA-BILECERI 22,OBA-BILECERI 22,OBA-BILECERI 22,40.4416854559024,49.8043718288335,15.37
OBA-BUZOVNA 17,OBA-BUZOVNA 17,OBA-BUZOVNA 17,40.5025743866725,50.1023313709128,15.38
OBA-BUZOVNA 15,OBA-BUZOVNA 15,OBA-BUZOVNA 15,40.4922236553162,50.1154543185301,15.38
OBA-BINEQEDI 6,OBA-BINEQEDI 6,OBA-BINEQEDI 6,40.4741280975452,49.823349,15.39
OBA-BUZOVNA 7,OBA-BUZOVNA 7,OBA-BUZOVNA 7,40.4968490975452,50.110325,15.4
OBA-YENI YASAMAL 7,OBA-YENI YASAMAL 7,OBA-YENI YASAMAL 7,40.3939400975452,49.795627,15.48
OBA-BINEQEDI 14,OBA-BINEQEDI 14,OBA-BINEQEDI 14,40.4727330975452,49.820933,15.48
OBA-BILECERI 19,OBA-BILECERI 19,OBA-BILECERI 19,40.4452420940559,49.804453837113,15.49
OBA-SHAGAN 5,OBA-SHAGAN 5,OBA-SHAGAN 5,40.4832834654588,50.1263877857835,15.49
OBA-BILECERI 2,OBA-BILECERI 2,OBA-BILECERI 2,40.4374560975452,49.801347,15.49
OBA-YENI YASAMAL 40,OBA-YENI YASAMAL 40,OBA-YENI YASAMAL 40,40.3904172423625,49.7955223738868,15.52
OBA-MASTAGA 17,OBA-MASTAGA 17,OBA-MASTAGA 17,40.5326575371106,50.0425042915643,15.56
OBA-BAYIL 6,OBA-BAYIL 6,OBA-BAYIL 6,40.3264870975452,49.823162,15.56
OBA-NARDARAN 4,OBA-NARDARAN 4,OBA-NARDARAN 4,40.5417020806868,49.9843512684608,15.59
OBA-YYASAMAL 23,OBA-YYASAMAL 23,OBA-YYASAMAL 23,40.3900780975452,49.794326,15.62
OBA-BAYIL 7,OBA-BAYIL 7,OBA-BAYIL 7,40.3298106582082,49.819628133395,15.62
OBA-BILECERI 18,OBA-BILECERI 18,OBA-BILECERI 18,40.4511412036891,49.80494341021,15.66
OBA-MERDEKAN 12,OBA-MERDEKAN 12,OBA-MERDEKAN 12,40.4687007385144,50.1413377865083,15.7
OBA-YENI YASAMAL 3,OBA-YENI YASAMAL 3,OBA-YENI YASAMAL 3,40.3999250975452,49.792627,15.71
OBA-BUZOVNA 13,OBA-BUZOVNA 13,OBA-BUZOVNA 13,40.5031118017149,50.1077490803091,15.74
OBA-YENI YASAMAL 2,OBA-YENI YASAMAL 2,OBA-YENI YASAMAL 2,40.3943050975452,49.792344,15.76
OBA-BILECERI 14,OBA-BILECERI 14,OBA-BILECERI 14,40.4394784913195,49.7986092942812,15.77
OBA-ALBALILIQ 4,OBA-ALBALILIQ 4,OBA-ALBALILIQ 4,40.526333,50.068472,15.84
OBA-YENI YASAMAL 42,OBA-YENI YASAMAL 42,OBA-YENI YASAMAL 42,40.3922050575021,49.7914443999983,15.85
OBA-QALA 5,OBA-QALA 5,OBA-QALA 5,40.4519283415479,50.1535662052705,15.87
OBA-BILECERI 11,OBA-BILECERI 11,OBA-BILECERI 11,40.4472860975452,49.798599,16.03
OBA-YENI YASAMAL 28,OBA-YENI YASAMAL 28,OBA-YENI YASAMAL 28,40.3868781978534,49.7896877016703,16.05
OBA-BADAMDAR 2,OBA-BADAMDAR 2,OBA-BADAMDAR 2,40.3401110975452,49.806685,16.06
OBA-BAYIL 5,OBA-BAYIL 5,OBA-BAYIL 5,40.3236950975452,49.818448,16.07
OBA-BILECERI 15,OBA-BILECERI 15,OBA-BILECERI 15,40.4465204119305,49.7971890355821,16.11
OBA-BUZOVNA 8,OBA-BUZOVNA 8,OBA-BUZOVNA 8,40.5077970975452,50.107917,16.12
OBA-SHAGAN 1,OBA-SHAGAN 1,OBA-SHAGAN 1,40.4899240975452,50.129379,16.13
OBA-YENI YASAMAL 31,OBA-YENI YASAMAL 31,OBA-YENI YASAMAL 31,40.390512257358,49.7880546220194,16.15
BADAMDAR 6,BADAMDAR 6,BADAMDAR 6,40.338182141328,49.8057042166428,16.22
OBA-YENI YASAMAL 21,OBA-YENI YASAMAL 21,OBA-YENI YASAMAL 21,40.3883840975452,49.787374,16.22
OBA-BADAMDAR 7,OBA-BADAMDAR 7,OBA-BADAMDAR 7,40.3380259742767,49.8056927176091,16.23
OBA-YYASAMAL 22,OBA-YYASAMAL 22,OBA-YYASAMAL 22,40.3894850975452,49.787166,16.23
OBA-BILECERI 17,OBA-BILECERI 17,OBA-BILECERI 17,40.4396503837186,49.7928847360501,16.25
OBA-BADAMDAR 8,OBA-BADAMDAR 8,OBA-BADAMDAR 8,40.3362636702521,49.8055347109582,16.33
OBA-KURDEXANI 4,OBA-KURDEXANI 4,OBA-KURDEXANI 4,40.5418716632394,49.9210960724851,16.33
OBA-MERDEKAN 4,OBA-MERDEKAN 4,OBA-MERDEKAN 4,40.4760180975452,50.144573,16.33
OBA-SHAGAN 3,OBA-SHAGAN 3,OBA-SHAGAN 3,40.4937120975452,50.128611,16.34
OBA-BUZOVNA 9,OBA-BUZOVNA 9,OBA-BUZOVNA 9,40.5187460975452,50.094817,16.34
OBA-MERDEKAN 11,OBA-MERDEKAN 11,OBA-MERDEKAN 11,40.4875160975452,50.137451,16.52
OBA-BUZOVNA 11,OBA-BUZOVNA 11,OBA-BUZOVNA 11,40.5166830975452,50.101774,16.53
OBA-MERDEKAN 2,OBA-MERDEKAN 2,OBA-MERDEKAN 2,40.4878000975452,50.138157,16.59
OBA-PIRSAGI 4,OBA-PIRSAGI 4,OBA-PIRSAGI 4,40.5282010975452,49.874179,16.6
OBA-NARDARAN 2,OBA-NARDARAN 2,OBA-NARDARAN 2,40.5509540975452,49.99469,16.67
OBA-BUZOVNA,OBA-BUZOVNA,OBA-BUZOVNA,40.5191470975452,50.102565,16.78
OBA-SHAGAN 7,OBA-SHAGAN 7,OBA-SHAGAN 7,40.4978888851982,50.1315268815168,16.82
OBA-KURDEXANI 2,OBA-KURDEXANI 2,OBA-KURDEXANI 2,40.5457700975452,49.916935,16.85
OBA-QALA 4,OBA-QALA 4,OBA-QALA 4,40.4466590975452,50.168626,16.88
OBA-BILECERI 16,OBA-BILECERI 16,OBA-BILECERI 16,40.4432683845409,49.7853584159051,16.97
OBA-SHAGAN 4,OBA-SHAGAN 4,OBA-SHAGAN 4,40.4968200975452,50.134898,16.97
OBA-BINEQEDI 26,OBA-BINEQEDI 26,OBA-BINEQEDI 26,40.4560826178242,49.7901119085964,17.03
OBA-BUZOVNA 16,OBA-BUZOVNA 16,OBA-BUZOVNA 16,40.525031,50.097809,17.06
OBA-XOCASEN 2,OBA-XOCASEN 2,OBA-XOCASEN 2,40.425224126516,49.7783461338195,17.12
OBA-BINEQEDI 20,OBA-BINEQEDI 20,OBA-BINEQEDI 20,40.4488621095876,49.7852684043063,17.15
OBA-BUZOVNA 5,OBA-BUZOVNA 5,OBA-BUZOVNA 5,40.5159120975452,50.114505,17.17
OBA-MERDEKAN 9,OBA-MERDEKAN 9,OBA-MERDEKAN 9,40.4870410975452,50.147748,17.21
OBA-SHUVELAN 10,OBA-SHUVELAN 10,OBA-SHUVELAN 10,40.4735406799938,50.1590247215206,17.27
OBA-BUZOVNA 2,OBA-BUZOVNA 2,OBA-BUZOVNA 2,40.5275940975452,50.097671,17.28
OBA-MERDEKAN 13,OBA-MERDEKAN 13,OBA-MERDEKAN 13,40.4935470956264,50.1429467577313,17.29
OBA-BUZOVNA 12,OBA-BUZOVNA 12,OBA-BUZOVNA 12,40.5209471776504,50.1100487244248,17.34
OBA-BUZOVNA 14,OBA-BUZOVNA 14,OBA-BUZOVNA 14,40.5338263861009,50.0877104149689,17.38
OBA-QALA 7,OBA-QALA 7,OBA-QALA 7,40.4435830531535,50.176324298265,17.41
OBA-SULUTEPE 4,OBA-SULUTEPE 4,OBA-SULUTEPE 4,40.4312470975452,49.775143,17.5
OBA-NARDARAN 1,OBA-NARDARAN 1,OBA-NARDARAN 1,40.5576230975452,50.00796,17.53
OBA-MERDEKAN 8,OBA-MERDEKAN 8,OBA-MERDEKAN 8,40.4818540975452,50.157116,17.58
OBA-BUZOVNA 6,OBA-BUZOVNA 6,OBA-BUZOVNA 6,40.5103810975452,50.128945,17.58
OBA-XOCASEN 1,OBA-XOCASEN 1,OBA-XOCASEN 1,40.416169292657,49.7713754758089,17.58
OBA-KURDEXANI 3,OBA-KURDEXANI 3,OBA-KURDEXANI 3,40.5537930975452,49.918413,17.66
OBA-BINEQEDI 15,OBA-BINEQEDI 15,OBA-BINEQEDI 15,40.4491140975452,49.777835,17.76
OBA-MERDEKAN,OBA-MERDEKAN,OBA-MERDEKAN,40.4859430975452,50.15665,17.78
OBA-MERDEKAN 10,OBA-MERDEKAN 10,OBA-MERDEKAN 10,40.4846190975452,50.158054,17.8
OBA-SULUTEPE 8,OBA-SULUTEPE 8,OBA-SULUTEPE 8,40.433386364588,49.7718620736436,17.82
OBA-BILGEH 4,OBA-BILGEH 4,OBA-BILGEH 4,40.5580015322466,50.0249355989627,17.84
OBA-BILGEH 3,OBA-BILGEH 3,OBA-BILGEH 3,40.5579320975452,50.028401,17.9
OBA-SULUTEPE 5,OBA-SULUTEPE 5,OBA-SULUTEPE 5,40.4254550975452,49.768645,17.94
OBA-SULUTEPE 2,OBA-SULUTEPE 2,OBA-SULUTEPE 2,40.4133930975452,49.766554,17.97
OBA-FATMAYI 2,OBA-FATMAYI 2,OBA-FATMAYI 2,40.5292520975452,49.846628,18.04
OBA-MASAZIR 20,OBA-MASAZIR 20,OBA-MASAZIR 20,40.4634715375394,49.7801638273197,18.12
OBA-MERDEKAN 5,OBA-MERDEKAN 5,OBA-MERDEKAN 5,40.4846950975452,50.165514,18.35
OBA-BILECERI 21,OBA-BILECERI 21,OBA-BILECERI 21,40.447272840918,49.7697032730168,18.36
OBA-MASAZIR 16,OBA-MASAZIR 16,OBA-MASAZIR 16,40.458981925282,49.7746285944997,18.37
OBA-MERDEKAN 6,OBA-MERDEKAN 6,OBA-MERDEKAN 6,40.5010170975452,50.151674,18.38
OBA-SHUVELAN 6,OBA-SHUVELAN 6,OBA-SHUVELAN 6,40.4826630975452,50.167758,18.4
OBA-SHUVELAN 9,OBA-SHUVELAN 9,OBA-SHUVELAN 9,40.4765048740632,50.1726102385039,18.44
OBA-SULUTEPE 7,OBA-SULUTEPE 7,OBA-SULUTEPE 7,40.4151453791676,49.7593595577757,18.59
OBA-XIRDALAN 33,OBA-XIRDALAN 33,OBA-XIRDALAN 33,40.4410608549476,49.7642105172111,18.64
OBA-MERDEKAN 7,OBA-MERDEKAN 7,OBA-MERDEKAN 7,40.4923960975452,50.164535,18.73
OBA-BILGEH,OBA-BILGEH,OBA-BILGEH,40.5634370975452,50.039382,18.73
OBA-SHUVELAN 7,OBA-SHUVELAN 7,OBA-SHUVELAN 7,40.4858340975452,50.170703,18.79
OBA-SULUTEPE 9,OBA-SULUTEPE 9,OBA-SULUTEPE 9,40.4319434928618,49.7589989650843,18.86
OBA-MASAZIR 11,OBA-MASAZIR 11,OBA-MASAZIR 11,40.4523818348186,49.7650287445386,18.91
OBA-XIRDALAN 16,OBA-XIRDALAN 16,OBA-XIRDALAN 16,40.4411320975452,49.759915,18.99
OBA-TURKAN 3,OBA-TURKAN 3,OBA-TURKAN 3,40.3676920975452,50.199285,19.1
PIRSAGI 5,PIRSAGI 5,PIRSAGI 5,40.5584563664045,49.8842398513299,19.17
OBA-PIRSAGI 2,OBA-PIRSAGI 2,OBA-PIRSAGI 2,40.5605940975452,49.890317,19.18
OBA-MASAZIR 14,OBA-MASAZIR 14,OBA-MASAZIR 14,40.4621109691824,49.7658630557053,19.19
OBA-SHUVELAN 4,OBA-SHUVELAN 4,OBA-SHUVELAN 4,40.4756120975452,50.18381,19.25
OBA-SHUVELAN 2,OBA-SHUVELAN 2,OBA-SHUVELAN 2,40.4850260975452,50.177794,19.27
OBA-MASAZIR 19,OBA-MASAZIR 19,OBA-MASAZIR 19,40.4758811231618,49.7710024521742,19.38
OBA-MASAZIR 9,OBA-MASAZIR 9,OBA-MASAZIR 9,40.4600450975452,49.762421,19.38
OBA-MASAZIR 10,OBA-MASAZIR 10,OBA-MASAZIR 10,40.4681190975452,49.765999,19.42
OBA-SULUTEPE 1,OBA-SULUTEPE 1,OBA-SULUTEPE 1,40.4377760975452,49.75361,19.43
OBA-XIRDALAN 36,OBA-XIRDALAN 36,OBA-XIRDALAN 36,40.4474590759545,49.7562587730168,19.47
OBA-BILGEH 2,OBA-BILGEH 2,OBA-BILGEH 2,40.5719640975452,50.039265,19.64
OBA-XIRDALAN 37,OBA-XIRDALAN 37,OBA-XIRDALAN 37,40.4511273201936,49.7541047576722,19.75
OBA-MASAZIR 12,OBA-MASAZIR 12,OBA-MASAZIR 12,40.47907,49.768037,19.76
OBA-XIRDALAN 5,OBA-XIRDALAN 5,OBA-XIRDALAN 5,40.4463750975452,49.751326,19.84
OBA-XASAXUNA 5,OBA-XASAXUNA 5,OBA-XASAXUNA 5,40.4276999898473,50.2101444153445,19.85
OBA-MASAZIR 18,OBA-MASAZIR 18,OBA-MASAZIR 18,40.4835593299058,49.7686928462872,19.93
OBA-XIRDALAN 27,OBA-XIRDALAN 27,OBA-XIRDALAN 27,40.4486315169686,49.7507948681773,19.95
OBA-GORADIL 1,OBA-GORADIL 1,OBA-GORADIL 1,40.544369252873,49.8351003711643,19.96
OBA-MASAZIR 5,OBA-MASAZIR 5,OBA-MASAZIR 5,40.4854870975452,49.769425,19.98
OBA-XIRDALAN 31,OBA-XIRDALAN 31,OBA-XIRDALAN 31,40.457332507537,49.7537244016138,19.98
OBA-XIRDALAN 25,OBA-XIRDALAN 25,OBA-XIRDALAN 25,40.4494506975631,49.7501539645301,20.02
OBA-HOKMELI 5,OBA-HOKMELI 5,OBA-HOKMELI 5,40.4210676024961,49.7415420658518,20.15
OBA-HOKMELI 7,OBA-HOKMELI 7,OBA-HOKMELI 7,40.4417124695808,49.7452157765648,20.22
OBA-XASAXUNA 3,OBA-XASAXUNA 3,OBA-XASAXUNA 3,40.4399732793565,50.2117677990583,20.23
OBA-TURKAN 6,OBA-TURKAN 6,OBA-TURKAN 6,40.359627681879,50.2106596979122,20.24
OBA-XIRDALAN 2,OBA-XIRDALAN 2,OBA-XIRDALAN 2,40.4567260975452,49.750055,20.26
OBA-QOBUPARK,OBA-QOBUPARK,OBA-QOBUPARK,40.3469502120517,49.7488816683016,20.35
OBA-TURKAN 2,OBA-TURKAN 2,OBA-TURKAN 2,40.3657450975452,50.214058,20.37
OBA-MASAZIR 22,OBA-MASAZIR 22,OBA-MASAZIR 22,40.481589524883,49.7615698785759,20.38
OBA-XIRDALAN 40,OBA-XIRDALAN 40,OBA-XIRDALAN 40,40.4555099650737,49.7470966105079,20.46
OBA-HOKMELI 4,OBA-HOKMELI 4,OBA-HOKMELI 4,40.4400769300774,49.7412780831377,20.51
OBA-XIRDALAN 24,OBA-XIRDALAN 24,OBA-XIRDALAN 24,40.4498740975452,49.74389,20.55
OBA-MASAZIR 8,OBA-MASAZIR 8,OBA-MASAZIR 8,40.4800340975452,49.75762,20.6
OBA-XIRDALAN 8,OBA-XIRDALAN 8,OBA-XIRDALAN 8,40.4619450975452,49.748021,20.6
OBA-TURKAN 4,OBA-TURKAN 4,OBA-TURKAN 4,40.3626410975452,50.216308,20.63
OBA-XIRDALAN 6,OBA-XIRDALAN 6,OBA-XIRDALAN 6,40.4554820975452,49.743815,20.72
OBA-MASAZIR 3,OBA-MASAZIR 3,OBA-MASAZIR 3,40.4761990975452,49.752736,20.81
OBA.MASAZIR 13,OBA.MASAZIR 13,OBA.MASAZIR 13,40.484923,49.758009,20.81
OBA-XIRDALAN 18,OBA-XIRDALAN 18,OBA-XIRDALAN 18,40.4545500975452,49.740328,20.98
OBA-MASAZIR 21,OBA-MASAZIR 21,OBA-MASAZIR 21,40.4788844813569,49.7502379417591,21.12
OBA-XIRDALAN 20,OBA-XIRDALAN 20,OBA-XIRDALAN 20,40.4549561820151,49.7386660401885,21.12
OBA-TURKAN 1,OBA-TURKAN 1,OBA-TURKAN 1,40.3651540975452,50.223009,21.13
OBA-XIRDALAN,OBA-XIRDALAN,OBA-XIRDALAN,40.4572590975452,49.739339,21.14
OBA-LOKBATAN 6,OBA-LOKBATAN 6,OBA-LOKBATAN 6,40.3311250975452,49.745696,21.2
OBA-XIRDALAN 19,OBA-XIRDALAN 19,OBA-XIRDALAN 19,40.4609100975452,49.739407,21.26
OBA-MASAZIR,OBA-MASAZIR,OBA-MASAZIR,40.4907140975452,49.755529,21.29
OBA-MASAZIR 24,OBA-MASAZIR 24,OBA-MASAZIR 24,40.47575,49.746167,21.3
OBA-ABSHERON GS 3,OBA-ABSHERON GS 3,OBA-ABSHERON GS 3,40.4708805495338,49.7430464423277,21.34
OBA-XIRDALAN 3,OBA-XIRDALAN 3,OBA-XIRDALAN 3,40.4561740975452,49.736468,21.34
OBA-LOKBATAN 8,OBA-LOKBATAN 8,OBA-LOKBATAN 8,40.3274432894203,49.7456933448701,21.35
OBA-QRECH,OBA-QRECH,OBA-QRECH,40.4959210975452,50.198186,21.37
OBA-NOVXANI 3,OBA-NOVXANI 3,OBA-NOVXANI 3,40.5244200975452,49.783265,21.41
OBA-XIRDALAN 14,OBA-XIRDALAN 14,OBA-XIRDALAN 14,40.4577130975452,49.735727,21.45
OBA-ABSHERON GS,OBA-ABSHERON GS,OBA-ABSHERON GS,40.4707730975452,49.740451,21.54
OBA-MASAZIR 15,OBA-MASAZIR 15,OBA-MASAZIR 15,40.4906977375127,49.7521069812502,21.54
OBA-MASAZIR 7,OBA-MASAZIR 7,OBA-MASAZIR 7,40.4941240975452,49.754374,21.55
OBA-MASAZIR 23,OBA-MASAZIR 23,OBA-MASAZIR 23,40.489139,49.749861,21.63
OBA-XIRDALAN 23,OBA-XIRDALAN 23,OBA-XIRDALAN 23,40.4560707926683,49.7322219258962,21.68
OBA-XIRDALAN 22,OBA-XIRDALAN 22,OBA-XIRDALAN 22,40.4543990975452,49.731467,21.69
OBA-LOKBATAN,OBA-LOKBATAN,OBA-LOKBATAN,40.3259100975452,49.74209,21.7
OBA-TURKAN 7,OBA-TURKAN 7,OBA-TURKAN 7,40.3652692459685,50.2299382673473,21.7
OBA-SHUVELAN 3,OBA-SHUVELAN 3,OBA-SHUVELAN 3,40.4934040975452,50.205269,21.76
OBA-XIRDALAN 29,OBA-XIRDALAN 29,OBA-XIRDALAN 29,40.4636639725039,49.7342963915507,21.77
OBA-XIRDALAN 34,OBA-XIRDALAN 34,OBA-XIRDALAN 34,40.4588274827606,49.7320271899442,21.78
OBA-ABSHERON GS 2,OBA-ABSHERON GS 2,OBA-ABSHERON GS 2,40.4736227373766,49.7387463344387,21.79
OBA-MASAZIR 2,OBA-MASAZIR 2,OBA-MASAZIR 2,40.4916180975452,49.74879,21.84
OBA-XIRDALAN 10,OBA-XIRDALAN 10,OBA-XIRDALAN 10,40.4514610975452,49.728203,21.87
OBA-ZIRE 5,OBA-ZIRE 5,OBA-ZIRE 5,40.4233720975452,50.235707,21.94
OBA-MASAZIR 4,OBA-MASAZIR 4,OBA-MASAZIR 4,40.4926050975452,49.747374,22
OBA-NOVXANI 4,OBA-NOVXANI 4,OBA-NOVXANI 4,40.5285920975452,49.778459,22.02
OBA-HOKMELI,OBA-HOKMELI,OBA-HOKMELI,40.4338920975452,49.720978,22.07
OBA-QOBU 2,OBA-QOBU 2,OBA-QOBU 2,40.3913784415926,49.7169509803051,22.15
OBA-XIRDALAN 26,OBA-XIRDALAN 26,OBA-XIRDALAN 26,40.4605480799883,49.7276881576707,22.19
OBA-LOKBATAN 11,OBA-LOKBATAN 11,OBA-LOKBATAN 11,40.3098602652789,49.7444721999971,22.27
OBA-XIRDALAN 28,OBA-XIRDALAN 28,OBA-XIRDALAN 28,40.4564897094888,49.7249000366812,22.29
OBA-XIRDALAN 39,OBA-XIRDALAN 39,OBA-XIRDALAN 39,40.458917,49.725806,22.29
OBA-SHUVELAN 8,OBA-SHUVELAN 8,OBA-SHUVELAN 8,40.4923512328481,50.2130599865098,22.29
OBA-NOVXANI,OBA-NOVXANI,OBA-NOVXANI,40.5338290975452,49.779923,22.31
OBA-HOKMELI 3,OBA-HOKMELI 3,OBA-HOKMELI 3,40.433218928131,49.7173611000028,22.36
OBA-XIRDALAN 41,OBA-XIRDALAN 41,OBA-XIRDALAN 41,40.4652931064797,49.7275954765805,22.36
OBA-XIRDALAN 35,OBA-XIRDALAN 35,OBA-XIRDALAN 35,40.4489329252588,49.72138255767,22.37
OBA-QOBU 3,OBA-QOBU 3,OBA-QOBU 3,40.3962970019713,49.713629633121,22.41
OBA-LOKBATAN 2,OBA-LOKBATAN 2,OBA-LOKBATAN 2,40.3222550975452,49.734829,22.43
OBA-XIRDALAN 7,OBA-XIRDALAN 7,OBA-XIRDALAN 7,40.4590310975452,49.723927,22.45
OBA-XIRDALAN 12,OBA-XIRDALAN 12,OBA-XIRDALAN 12,40.4632780975452,49.724952,22.5
OBA-XIRDALAN 21,OBA-XIRDALAN 21,OBA-XIRDALAN 21,40.4635910975452,49.724338,22.56
OBA-XIRDALAN 30,OBA-XIRDALAN 30,OBA-XIRDALAN 30,40.4584529244459,49.7221525442651,22.57
OBA-MASAZIR 17,OBA-MASAZIR 17,OBA-MASAZIR 17,40.4930066287544,49.739748056908,22.59
OBA-XIRDALAN 13,OBA-XIRDALAN 13,OBA-XIRDALAN 13,40.4611970975452,49.721627,22.7
OBA-HOKMELI 6,OBA-HOKMELI 6,OBA-HOKMELI 6,40.4312404833519,49.7125428532181,22.73
OBA-LOKBATAN 9,OBA-LOKBATAN 9,OBA-LOKBATAN 9,40.3285727849832,49.7270448711488,22.77
OBA-QOBU,OBA-QOBU,OBA-QOBU,40.4048950975452,49.708652,22.82
OBA-LOKBATAN 7,OBA-LOKBATAN 7,OBA-LOKBATAN 7,40.3218944299427,49.7298902210708,22.83
OBA-XIRDALAN 9,OBA-XIRDALAN 9,OBA-XIRDALAN 9,40.4574960975452,49.717444,22.93
OBA-LOKBATAN 5,OBA-LOKBATAN 5,OBA-LOKBATAN 5,40.3249400975452,49.726655,22.95
OBA-NOVXANI 2,OBA-NOVXANI 2,OBA-NOVXANI 2,40.5485190975452,49.781971,23.29
OBA-NUBAR 2,OBA-NUBAR 2,OBA-NUBAR 2,40.442700521261,49.7068002379165,23.42
OBA-LOKBATAN 3,OBA-LOKBATAN 3,OBA-LOKBATAN 3,40.3272060975452,49.718756,23.48
OBA-QOBU 4,OBA-QOBU 4,OBA-QOBU 4,40.4155881061228,49.7012868789581,23.5
OBA-ATYALI 2,OBA-ATYALI 2,OBA-ATYALI 2,40.4456829329356,49.6981003711384,24.21
OBA-NOVXANI 5,OBA-NOVXANI 5,OBA-NOVXANI 5,40.5306182636315,49.7457238361929,24.34
OBA-ATYALI 1,OBA-ATYALI 1,OBA-ATYALI 1,40.4439949538762,49.6867529125903,25.12
OBA-GUZDEK 3,OBA-GUZDEK 3,OBA-GUZDEK 3,40.3702790480528,49.6787718180096,25.6
OBA-SARAY 14,OBA-SARAY 14,OBA-SARAY 14,40.5295940609419,49.7201948487125,26.06
OBA-SARAY 9,OBA-SARAY 9,OBA-SARAY 9,40.5336670975452,49.723447,26.08
OBA-ZIRE 6,OBA-ZIRE 6,OBA-ZIRE 6,40.3879090915571,50.2901078199116,26.46
OBA-SARAY 7,OBA-SARAY 7,OBA-SARAY 7,40.5371790975452,49.720581,26.5
OBA-ZIRE 4,OBA-ZIRE 4,OBA-ZIRE 4,40.3643770850646,50.2878472266347,26.55
OBA-SARAY 6,OBA-SARAY 6,OBA-SARAY 6,40.5290400975452,49.710552,26.71
OBA-ZIRE,OBA-ZIRE,OBA-ZIRE,40.3723290975452,50.291929,26.77
OBA-SARAY 17,OBA-SARAY 17,OBA-SARAY 17,40.5326934972404,49.7114447021445,26.86
OBA-SARAY 12,OBA-SARAY 12,OBA-SARAY 12,40.5241792573754,49.7040694037056,26.9
OBA-SARAY 8,OBA-SARAY 8,OBA-SARAY 8,40.5349190975452,49.711839,26.97
OBA-ZIRE 2,OBA-ZIRE 2,OBA-ZIRE 2,40.3653300975452,50.294628,27.1
OBA-SARAY 20,OBA-SARAY 20,OBA-SARAY 20,40.5214923354903,49.6976379220892,27.22
OBA-SARAY 5,OBA-SARAY 5,OBA-SARAY 5,40.5392740975452,49.711414,27.27
OBA-SARAY 10,OBA-SARAY 10,OBA-SARAY 10,40.5208839811227,49.6964781532493,27.28
OBA-SARAY 13,OBA-SARAY 13,OBA-SARAY 13,40.54708549427,49.7132917637483,27.64
OBA-SARAY,OBA-SARAY,OBA-SARAY,40.5446890975452,49.710056,27.71
OBA-SARAY 11,OBA-SARAY 11,OBA-SARAY 11,40.5259369473777,49.6932014690761,27.79
OBA-SARAY 15,OBA-SARAY 15,OBA-SARAY 15,40.5492411147523,49.7126398779125,27.82
OBA-GUZDEK 1,OBA-GUZDEK 1,OBA-GUZDEK 1,40.4815310975452,49.665313,27.93
OBA-GUZDEK 2,OBA-GUZDEK 2,OBA-GUZDEK 2,40.4828563879548,49.6648529663104,28.01
OBA-SUMQAYIT 56,OBA-SUMQAYIT 56,OBA-SUMQAYIT 56,40.5586561582355,49.7152905603373,28.27
OBA-SARAY 16,OBA-SARAY 16,OBA-SARAY 16,40.5461110254671,49.7003664970469,28.47
OBA-MUSFIQABAD 2,OBA-MUSFIQABAD 2,OBA-MUSFIQABAD 2,40.4623100975452,49.647709,28.77
OBA-SUMQAYIT 21,OBA-SUMQAYIT 21,OBA-SUMQAYIT 21,40.5579150975452,49.705422,28.89
OBA-SUMQAYIT 54,OBA-SUMQAYIT 54,OBA-SUMQAYIT 54,40.5625389600187,49.7067992576722,29.11
OBA-MUSHFIQABAD 9,OBA-MUSHFIQABAD 9,OBA-MUSHFIQABAD 9,40.4631975785229,49.6439103576722,29.11
OBA-PUTA 3,OBA-PUTA 3,OBA-PUTA 3,40.2996760316817,49.6616678236925,29.12
OBA-SUMQAYIT 36,OBA-SUMQAYIT 36,OBA-SUMQAYIT 36,40.5659266670729,49.7074917244819,29.29
OBA-SUMQAYIT 33,OBA-SUMQAYIT 33,OBA-SUMQAYIT 33,40.5524820975452,49.694121,29.31
OBA-YENI YASAMAL 41,OBA-YENI YASAMAL 41,OBA-YENI YASAMAL 41,40.4586974625139,49.6398377865084,29.33
OBA-PUTA 2,OBA-PUTA 2,OBA-PUTA 2,40.2959190975452,49.660369,29.38
OBA-SUMQAYIT 28,OBA-SUMQAYIT 28,OBA-SUMQAYIT 28,40.5581000975452,49.696884,29.48
OBA-MUSHFIQABAD 13,OBA-MUSHFIQABAD 13,OBA-MUSHFIQABAD 13,40.4619435290204,49.6371727011035,29.63
OBA-SUMQAYIT 39,OBA-SUMQAYIT 39,OBA-SUMQAYIT 39,40.5614278621575,49.6938567134373,29.9
OBA-SUMQAYIT 8,OBA-SUMQAYIT 8,OBA-SUMQAYIT 8,40.5695340975452,49.699702,30.06
OBA-CEYRANBATAN 1,OBA-CEYRANBATAN 1,OBA-CEYRANBATAN 1,40.5466900975452,49.676206,30.21
OBA-ARTYOM 4,OBA-ARTYOM 4,OBA-ARTYOM 4,40.4707510975452,50.323434,30.22
OBA-CORAT 2,OBA-CORAT 2,OBA-CORAT 2,40.574194,49.700444,30.33
OBA-MUSHFIGABAD 10,OBA-MUSHFIGABAD 10,OBA-MUSHFIGABAD 10,40.4697075792661,49.6309922397583,30.34
OBA-ULD_MUSFIQABAD,OBA-ULD_MUSFIQABAD,OBA-ULD_MUSFIQABAD,40.4654280975452,49.629473,30.35
OBA-SUMQAYIT 1,OBA-SUMQAYIT 1,OBA-SUMQAYIT 1,40.5682670975452,49.69389,30.36
OBA-ARTYOM 5,OBA-ARTYOM 5,OBA-ARTYOM 5,40.4681400975452,50.326281,30.38
OBA-CEYRANBATAN 3,OBA-CEYRANBATAN 3,OBA-CEYRANBATAN 3,40.5399346688322,49.6685008331861,30.38
OBA-SUMQAYIT 10,OBA-SUMQAYIT 10,OBA-SUMQAYIT 10,40.5619120975452,49.685416,30.51
OBA-GURGAN 1,OBA-GURGAN 1,OBA-GURGAN 1,40.3955120975452,50.338476,30.52
OBA-ARTYOM 7,OBA-ARTYOM 7,OBA-ARTYOM 7,40.4560504900266,50.3348485453057,30.79
OBA-MUSHFIQABAD 14,OBA-MUSHFIQABAD 14,OBA-MUSHFIQABAD 14,40.4670816815364,49.6238782315706,30.86
OBA-SUMQAYIT 27,OBA-SUMQAYIT 27,OBA-SUMQAYIT 27,40.5759290975452,49.693544,30.91
OBA-ARTYOM,OBA-ARTYOM,OBA-ARTYOM,40.4532560975452,50.337169,30.93
OBA-MUSFIQABAD 4,OBA-MUSFIQABAD 4,OBA-MUSFIQABAD 4,40.4675900975452,49.622716,30.97
OBA-ARTYOM 6,OBA-ARTYOM 6,OBA-ARTYOM 6,40.4500633286155,50.3386495423663,30.99
OBA-MUSHFIQABAD 11,OBA-MUSHFIQABAD 11,OBA-MUSHFIQABAD 11,40.4664792733647,49.6189091606464,31.25
OBA-SUMQAYIT 44,OBA-SUMQAYIT 44,OBA-SUMQAYIT 44,40.5768348255383,49.6892642614628,31.25
OBA-SUMQAYIT 43,OBA-SUMQAYIT 43,OBA-SUMQAYIT 43,40.5739391936486,49.6831532610785,31.46
OBA-SUMQAYIT 11,OBA-SUMQAYIT 11,OBA-SUMQAYIT 11,40.5785530975452,49.686727,31.54
OBA-CEYRANBATAN 4,OBA-CEYRANBATAN 4,OBA-CEYRANBATAN 4,40.548528,49.658556,31.59
OBA-SUMQAYIT 15,OBA-SUMQAYIT 15,OBA-SUMQAYIT 15,40.5771450975452,49.683962,31.63
OBA-SUMQAYIT 2,OBA-SUMQAYIT 2,OBA-SUMQAYIT 2,40.5696910975452,49.67423,31.78
OBA-MUSFIQABAD 5,OBA-MUSFIQABAD 5,OBA-MUSFIQABAD 5,40.4725150975452,49.613878,31.82
OBA-SUMQAYIT 46,OBA-SUMQAYIT 46,OBA-SUMQAYIT 46,40.5813815388586,49.6825961916073,32.01
OBA-SUMQAYIT 9,OBA-SUMQAYIT 9,OBA-SUMQAYIT 9,40.5806260975452,49.680018,32.13
OBA-SUMQAYIT 40,OBA-SUMQAYIT 40,OBA-SUMQAYIT 40,40.5664037132106,49.6657180910485,32.16
OBA-SUMQAYIT 45,OBA-SUMQAYIT 45,OBA-SUMQAYIT 45,40.5821843901508,49.680706572309,32.19
OBA-CEYRANBATAN 2,OBA-CEYRANBATAN 2,OBA-CEYRANBATAN 2,40.5477070975452,49.648956,32.24
OBA-SUMQAYIT 41,OBA-SUMQAYIT 41,OBA-SUMQAYIT 41,40.5784216350264,49.6747488041694,32.33
OBA-SUMQAYIT 3,OBA-SUMQAYIT 3,OBA-SUMQAYIT 3,40.5836970975452,49.678306,32.45
OBA-SUMQAYIT 38,OBA-SUMQAYIT 38,OBA-SUMQAYIT 38,40.5868183725112,49.6798211518788,32.57
OBA-SUMQAYIT 25,OBA-SUMQAYIT 25,OBA-SUMQAYIT 25,40.5770240975452,49.668526,32.65
OBA-SUMQAYIT 18,OBA-SUMQAYIT 18,OBA-SUMQAYIT 18,40.5856680975452,49.670445,33.11
SUMQAYIT 37,SUMQAYIT 37,SUMQAYIT 37,40.5912460492296,49.6757233266498,33.15
OBA-SUMQAYIT 26,OBA-SUMQAYIT 26,OBA-SUMQAYIT 26,40.5894850975452,49.671053,33.33
OBA-SUMQAYIT 24,OBA-SUMQAYIT 24,OBA-SUMQAYIT 24,40.5877210975452,49.666524,33.51
OBA-SUMQAYIT 22,OBA-SUMQAYIT 22,OBA-SUMQAYIT 22,40.5923590975452,49.67075,33.55
OBA-QIZILDASH 1,OBA-QIZILDASH 1,OBA-QIZILDASH 1,40.3058759821255,49.596277799996,34.07
OBA-SUMQAYIT 12,OBA-SUMQAYIT 12,OBA-SUMQAYIT 12,40.5946550975452,49.664469,34.13
OBA-SUMQAYIT 16,OBA-SUMQAYIT 16,OBA-SUMQAYIT 16,40.6033890975452,49.664709,34.73
OBA-SUMQAYIT 57,OBA-SUMQAYIT 57,OBA-SUMQAYIT 57,40.566444,49.628028,34.83
OBA-SUMQAYIT 48,OBA-SUMQAYIT 48,OBA-SUMQAYIT 48,40.6069685510683,49.6661832217156,34.89
OBA-SUMQAYIT 47,OBA-SUMQAYIT 47,OBA-SUMQAYIT 47,40.6057853913956,49.6544793175013,35.56
OBA-SUMQAYIT 29,OBA-SUMQAYIT 29,OBA-SUMQAYIT 29,40.6060310975452,49.652348,35.72
OBA-SUMQAYIT 20,OBA-SUMQAYIT 20,OBA-SUMQAYIT 20,40.6072620975452,49.641805,36.49
OBA-SUMQAYIT 42,OBA-SUMQAYIT 42,OBA-SUMQAYIT 42,40.5583159640419,49.5859110479687,37.48
OBA-SAHIL 5,OBA-SAHIL 5,OBA-SAHIL 5,40.2293720975452,49.581843,38.68
OBA-SAHIL 2,OBA-SAHIL 2,OBA-SAHIL 2,40.2245850975452,49.577367,39.27
OBA-SAHIL 6,OBA-SAHIL 6,OBA-SAHIL 6,40.2236867837901,49.5766986441443,39.37
OBA-SAHIL 9,OBA-SAHIL 9,OBA-SAHIL 9,40.2260426979961,49.5744229423277,39.41
OBA-SAHIL 8,OBA-SAHIL 8,OBA-SAHIL 8,40.2249421412875,49.572112447891,39.64
OBA-SAHIL 7,OBA-SAHIL 7,OBA-SAHIL 7,40.2197515246193,49.5697006722567,40.1
OBA-NASOSNU 3,OBA-NASOSNU 3,OBA-NASOSNU 3,40.61714161823,49.5758792262168,41.61
OBA-NASOSNU 4,OBA-NASOSNU 4,OBA-NASOSNU 4,40.6195138402942,49.5762436626732,41.74
OBA-MUSHFIQABAD 12,OBA-MUSHFIQABAD 12,OBA-MUSHFIQABAD 12,40.4943651766706,49.49724195891,41.98
OBA-NASOSNU 1,OBA-NASOSNU 1,OBA-NASOSNU 1,40.6208630975452,49.565053,42.59
OBA-NASOSNU 6,OBA-NASOSNU 6,OBA-NASOSNU 6,40.6244099587534,49.5661388998907,42.75
OBA-NASOSNU 5,OBA-NASOSNU 5,OBA-NASOSNU 5,40.6207023922223,49.5594701553532,42.97
OBA-QARADAG 1,OBA-QARADAG 1,OBA-QARADAG 1,40.1995700975452,49.508811,45.7
OBA-SANQACAL 1,OBA-SANQACAL 1,OBA-SANQACAL 1,40.1667450975452,49.461456,51.02
OBA-SANQACAL 2,OBA-SANQACAL 2,OBA-SANQACAL 2,40.1644068553363,49.4623748555221,51.09
OBA-QOBUSTAN 4,OBA-QOBUSTAN 4,OBA-QOBUSTAN 4,40.0838908561914,49.4126370799084,59.6
OBA-QOBUSTAN 1,OBA-QOBUSTAN 1,OBA-QOBUSTAN 1,40.0815290975452,49.412919,59.74
OBA-QOBUSTAN 3,OBA-QOBUSTAN 3,OBA-QOBUSTAN 3,40.078651544118,49.4126734658473,59.94
OBA-QOBUSTAN 2,OBA-QOBUSTAN 2,OBA-QOBUSTAN 2,40.0797000975452,49.406239,60.31
OBA-ELET 8,OBA-ELET 8,OBA-ELET 8,39.9735550085956,49.4076501947908,67.93
OBA-ELET 5,OBA-ELET 5,OBA-ELET 5,39.9695372483859,49.4067132452136,68.3
OBA-ELET 6,OBA-ELET 6,OBA-ELET 6,39.9563749626739,49.412065008633,69.02
OBA-ELET 9,OBA-ELET 9,OBA-ELET 9,39.956612,49.408707,69.2
OBA-ELET 3,OBA-ELET 3,OBA-ELET 3,39.9547610975452,49.408876,69.34
OBA-ELET 7,OBA-ELET 7,OBA-ELET 7,39.9502983618638,49.4100063423287,69.63
OBA-ELET 2,OBA-ELET 2,OBA-ELET 2,39.9477650975452,49.401872,70.31
OBA-XIZI 1,OBA-XIZI 1,OBA-XIZI 1,40.868833,49.340833,74.78
OBA-SALYAN 19,OBA-SALYAN 19,OBA-SALYAN 19,39.8438486862089,49.324525540428,83.28
OBA-HACIQABUL 3,OBA-HACIQABUL 3,OBA-HACIQABUL 3,40.09,49.071015,84.43
OBA-HACIQABUL 13,OBA-HACIQABUL 13,OBA-HACIQABUL 13,40.0311219128075,49.0964688882776,85.45
OBA-MEREZE 2,OBA-MEREZE 2,OBA-MEREZE 2,40.5198560975452,48.938759,88.91
OBA-MEREZE 3,OBA-MEREZE 3,OBA-MEREZE 3,40.5275600975452,48.937543,89.14
OBA-MEREZE 1,OBA-MEREZE 1,OBA-MEREZE 1,40.5331120975452,48.926915,90.12
OBA-HACIQABUL 9,OBA-HACIQABUL 9,OBA-HACIQABUL 9,40.2613964237852,48.8770463302425,94.63
OBA-HACIQABUL 12,OBA-HACIQABUL 12,OBA-HACIQABUL 12,40.042780363289,48.9405586654116,96.71
OBA-HACIQABUL 1,OBA-HACIQABUL 1,OBA-HACIQABUL 1,40.044448,48.935333,97.04
OBA-HACIQABUL 7,OBA-HACIQABUL 7,OBA-HACIQABUL 7,40.0400881580203,48.9376979577727,97.05
OBA-HACIQABUL 11,OBA-HACIQABUL 11,OBA-HACIQABUL 11,40.0429964110242,48.9351904674336,97.11
OBA-HACIQABUL 10,OBA-HACIQABUL 10,OBA-HACIQABUL 10,40.033283233676,48.9408276335082,97.13
OBA-HACIQABUL 2,OBA-HACIQABUL 2,OBA-HACIQABUL 2,40.032639,48.93512,97.6
OBA-HACIQABUL 5,OBA-HACIQABUL 5,OBA-HACIQABUL 5,40.04071,48.929465,97.66
OBA-SIRVAN 24,OBA-SIRVAN 24,OBA-SIRVAN 24,39.9577479261703,48.9706577189016,98.8
OBA-SHIRVAN 33,OBA-SHIRVAN 33,OBA-SHIRVAN 33,39.9536404985485,48.9610467361041,99.74
OBA-SHIRVAN 15,OBA-SHIRVAN 15,OBA-SHIRVAN 15,39.949011,48.962489,99.89
OBA-SHIRVAN 14,OBA-SHIRVAN 14,OBA-SHIRVAN 14,39.9637251298106,48.949284324543,100.05
OBA-SHIRVAN 3,OBA-SHIRVAN 3,OBA-SHIRVAN 3,39.959229,48.95064,100.2
OBA-SHIRVAN 11,OBA-SHIRVAN 11,OBA-SHIRVAN 11,39.9621,48.94729,100.29
OBA-SHIRVAN 19,OBA-SHIRVAN 19,OBA-SHIRVAN 19,39.9614880457407,48.9475262872736,100.3
OBA-SHIRVAN 25,OBA-SHIRVAN 25,OBA-SHIRVAN 25,39.9490915248898,48.9562563423287,100.35
OBA-SHIRVAN 9,OBA-SHIRVAN 9,OBA-SHIRVAN 9,39.956033,48.949692,100.44
OBA-SHIRVAN 23,OBA-SHIRVAN 23,OBA-SHIRVAN 23,39.965697246097,48.9413172151717,100.54
OBA-SHIRVAN,OBA-SHIRVAN,OBA-SHIRVAN,39.96136,48.94406,100.57
OBA-SHIRVAN 16,OBA-SHIRVAN 16,OBA-SHIRVAN 16,39.9529013190521,48.9497834288697,100.61
OBA-SHIRVAN 17,OBA-SHIRVAN 17,OBA-SHIRVAN 17,39.963691,48.941125,100.66
OBA-SHIRVAN 7,OBA-SHIRVAN 7,OBA-SHIRVAN 7,39.957973,48.943685,100.78
OBA-SHIRVAN 27,OBA-SHIRVAN 27,OBA-SHIRVAN 27,39.9605028272296,48.9401737247817,100.9
OBA-SHIRVAN 20,OBA-SHIRVAN 20,OBA-SHIRVAN 20,39.9553378018062,48.9432426301655,100.96
OBA-SHIRVAN 2,OBA-SHIRVAN 2,OBA-SHIRVAN 2,39.956506,48.940557,101.09
SIRVAN 21,SIRVAN 21,SIRVAN 21,39.9542938184147,48.9410591412313,101.18
OBA-SHIRVAN 6,OBA-SHIRVAN 6,OBA-SHIRVAN 6,39.95305,48.94137,101.22
OBA-SHIRVAN 26,OBA-SHIRVAN 26,OBA-SHIRVAN 26,39.9592403218036,48.9362172763565,101.27
SHIRVAN 22,SHIRVAN 22,SHIRVAN 22,39.9475539841009,48.9324480389707,102.19
OBA-SHIRVAN 10,OBA-SHIRVAN 10,OBA-SHIRVAN 10,39.93558,48.927974,103.19
SIYEZEN 7,SIYEZEN 7,SIYEZEN 7,41.0764980327827,49.1338404591431,103.4
OBA-SIYEZEN 1,OBA-SIYEZEN 1,OBA-SIYEZEN 1,41.068121,49.118723,103.62
OBA-HACIQABUL 8,OBA-HACIQABUL 8,OBA-HACIQABUL 8,40.0972877003559,48.8210187468802,103.87
OBA-SHIRVAN 29,OBA-SHIRVAN 29,OBA-SHIRVAN 29,39.9360327444001,48.9180285547613,103.89
OBA-SIYEZEN 8,OBA-SIYEZEN 8,OBA-SIYEZEN 8,41.0722916994325,49.1174357044659,104.02
OBA-SHIRVAN 28,OBA-SHIRVAN 28,OBA-SHIRVAN 28,39.9274260629257,48.9213367905756,104.14
OBA-SIYEZEN 4,OBA-SIYEZEN 4,OBA-SIYEZEN 4,41.082569,49.128756,104.19
OBA-SHIRVAN 13,OBA-SHIRVAN 13,OBA-SHIRVAN 13,39.93647,48.91357,104.2
OBA-SHIRVAN 18,OBA-SHIRVAN 18,OBA-SHIRVAN 18,39.9340068283581,48.9141246193688,104.29
OBA-SIYEZEN 9,OBA-SIYEZEN 9,OBA-SIYEZEN 9,41.0766997322039,49.1122716165231,104.68
OBA-SHIRVAN 34,OBA-SHIRVAN 34,OBA-SHIRVAN 34,39.9354409551717,48.9076941960807,104.69
OBA-SIYEZEN 2,OBA-SIYEZEN 2,OBA-SIYEZEN 2,41.076188,49.110817,104.72
OBA-SHIRVAN 31,OBA-SHIRVAN 31,OBA-SHIRVAN 31,39.9452428700227,48.8997165862629,104.74
OBA-SIYEZEN 5,OBA-SIYEZEN 5,OBA-SIYEZEN 5,41.0834644425717,49.1048428576211,105.65
OBA-SABIRABAD 14,OBA-SABIRABAD 14,OBA-SABIRABAD 14,39.9231512682108,48.8745134637324,107.82
OBA.SALYAN 16,OBA.SALYAN 16,OBA.SALYAN 16,39.8156277138829,48.9549577321188,108.71
OBA-SALYAN 21,OBA-SALYAN 21,OBA-SALYAN 21,39.750858283809,49.0218843842454,108.88
OBA-SALYAN 35,OBA-SALYAN 35,OBA-SALYAN 35,39.7060093284777,49.0738195231818,109.12
OBA-SHAMAXI 16,OBA-SHAMAXI 16,OBA-SHAMAXI 16,40.584889,48.705778,109.51
OBA-SALYAN 31,OBA-SALYAN 31,OBA-SALYAN 31,39.796373648448,48.9604078269898,109.65
OBA-SAMAXI 2,OBA-SAMAXI 2,OBA-SAMAXI 2,40.4924070975452,48.680211,110.3
OBA-SALYAN 23,OBA-SALYAN 23,OBA-SALYAN 23,39.7676474167725,48.9788260068514,110.44
SAMAXI 10,SAMAXI 10,SAMAXI 10,40.4958047250247,48.6780166379872,110.51
OBA-SHAMAXI 14,OBA-SHAMAXI 14,OBA-SHAMAXI 14,40.5412600784289,48.6796368625444,110.93
OBA-SALYAN 14,OBA-SALYAN 14,OBA-SALYAN 14,39.780838,48.935616,112.38
OBA-SAMAXI 9,OBA-SAMAXI 9,OBA-SAMAXI 9,40.6341500975452,48.643218,115.77
OBA-SHAMAXI 11,OBA-SHAMAXI 11,OBA-SHAMAXI 11,40.6097216141544,48.6361171208428,115.8
OBA-SAMAXI 3,OBA-SAMAXI 3,OBA-SAMAXI 3,40.6376750975452,48.643264,115.85
OBA-SHAMAXI 15,OBA-SHAMAXI 15,OBA-SHAMAXI 15,40.6289212480167,48.6402046301686,115.89
OBA-SAMAXI 6,OBA-SAMAXI 6,OBA-SAMAXI 6,40.6359910975452,48.638678,116.19
OBA-SAMAXI 1,OBA-SAMAXI 1,OBA-SAMAXI 1,40.6393450975452,48.638266,116.3
OBA-SABIRABAD 8,OBA-SABIRABAD 8,OBA-SABIRABAD 8,39.919703,48.762753,116.36
OBA-SAMAXI 4,OBA-SAMAXI 4,OBA-SAMAXI 4,40.6311790975452,48.634668,116.4
OBA-SHAMAXI  13,OBA-SHAMAXI  13,OBA-SHAMAXI  13,40.6518386607539,48.6401271388605,116.46
OBA-SAMAXI 5,OBA-SAMAXI 5,OBA-SAMAXI 5,40.6388840975452,48.631784,116.83
OBA-SAMAXI 7,OBA-SAMAXI 7,OBA-SAMAXI 7,40.6446330975452,48.632727,116.89
OBA-SABIRABAD 19,OBA-SABIRABAD 19,OBA-SABIRABAD 19,39.9385933588728,48.731938879273,117.74
OBA-SABIRABAD 26,OBA-SABIRABAD 26,OBA-SABIRABAD 26,40.0432641572661,48.662856684493,118.57
OBA-SABIRABAD 11,OBA-SABIRABAD 11,OBA-SABIRABAD 11,39.943139,48.710552,119.16
OBA-SALYAN 25,OBA-SALYAN 25,OBA-SALYAN 25,39.6420501103938,48.9711021664967,120.36
OBA-SHABRAN 4,OBA-SHABRAN 4,OBA-SHABRAN 4,41.194832,48.991282,121.16
OBA-SABIRABAD 23,OBA-SABIRABAD 23,OBA-SABIRABAD 23,40.1020099309286,48.595050905194,122.01
OBA-SHABRAN 11,OBA-SHABRAN 11,OBA-SHABRAN 11,41.2018699498882,48.9859932281981,122.04
OBA-SHABRAN 10,OBA-SHABRAN 10,OBA-SHABRAN 10,41.2156757260709,49.003159237604,122.18
OBA-SHABRAN 3,OBA-SHABRAN 3,OBA-SHABRAN 3,41.20232,48.981049,122.36
OBA-SHABRAN 6,OBA-SHABRAN 6,OBA-SHABRAN 6,41.202109,48.98029,122.39
OBA-SHABRAN 9,OBA-SHABRAN 9,OBA-SHABRAN 9,41.2199656912211,49.002518540212,122.57
OBA-SHABRAN 5,OBA-SHABRAN 5,OBA-SHABRAN 5,41.207871,48.982651,122.71
OBA-SHABRAN 1,OBA-SHABRAN 1,OBA-SHABRAN 1,41.211655,48.986771,122.78
OBA-SALYAN 15,OBA-SALYAN 15,OBA-SALYAN 15,39.5977110366307,48.9845786129509,123.1
OBA-SALYAN 36,OBA-SALYAN 36,OBA-SALYAN 36,39.595502471947,48.9837919412111,123.32
OBA-SABIRABAD 17,OBA-SABIRABAD 17,OBA-SABIRABAD 17,40.058732340845,48.5965653872955,123.33
OBA-SALYAN 28,OBA-SALYAN 28,OBA-SALYAN 28,39.5937554854308,48.9840506334256,123.45
OBA-SALYAN 22,OBA-SALYAN 22,OBA-SALYAN 22,39.5933623926341,48.9805818094547,123.68
OBA-NEFTCHALA 13,OBA-NEFTCHALA 13,OBA-NEFTCHALA 13,39.5712325972397,49.0069767419892,123.98
OBA-SALYAN 24,OBA-SALYAN 24,OBA-SALYAN 24,39.6027781474096,48.962470372346,123.99
OBA-SALYAN 10,OBA-SALYAN 10,OBA-SALYAN 10,39.589811,48.97996,124.01
OBA-SABIRABAD 37,OBA-SABIRABAD 37,OBA-SABIRABAD 37,39.960699323044,48.6369301301528,124.04
OBA-SABIRABAD 38,OBA-SABIRABAD 38,OBA-SABIRABAD 38,40.1043081888174,48.5691353240498,124.06
OBA-SALYAN 26,OBA-SALYAN 26,OBA-SALYAN 26,39.5929532030299,48.9717132541161,124.24
OBA-SALYAN 1,OBA-SALYAN 1,OBA-SALYAN 1,39.59405,48.970019,124.25
OBA-SALYAN 29,OBA-SALYAN 29,OBA-SALYAN 29,39.5901111,48.975211471164,124.26
OBA-SALYAN 6,OBA-SALYAN 6,OBA-SALYAN 6,39.591435,48.97097,124.4
OBA-SALYAN 2,OBA-SALYAN 2,OBA-SALYAN 2,39.587815,48.975772,124.41
OBA-SALYAN 27,OBA-SALYAN 27,OBA-SALYAN 27,39.584395717296,48.9799129897604,124.45
OBA-SALYAN 3,OBA-SALYAN 3,OBA-SALYAN 3,39.578568,48.98164,124.83
OBA-SALYAN 12,OBA-SALYAN 12,OBA-SALYAN 12,39.581469,48.970261,125.25
OBA-SALYAN 7,OBA-SALYAN 7,OBA-SALYAN 7,39.576546,48.975722,125.34
OBA-SALYAN 18,OBA-SALYAN 18,OBA-SALYAN 18,39.5744580488125,48.9722007423098,125.71
OBA-SAATLI 9,OBA-SAATLI 9,OBA-SAATLI 9,39.9081260782065,48.64654759397,125.77
OBA-NEFTCHALA 11,OBA-NEFTCHALA 11,OBA-NEFTCHALA 11,39.4114228980156,49.2498488760893,126.42
OBA-SALYAN 20,OBA-SALYAN 20,OBA-SALYAN 20,39.576902447346,48.948173920211,126.92
OBA-SALYAN 9,OBA-SALYAN 9,OBA-SALYAN 9,39.56407,48.96087,127.22
OBA-NEFTCHALA 15,OBA-NEFTCHALA 15,OBA-NEFTCHALA 15,39.4086204846517,49.2353044590088,127.3
OBA-NEFTCALA 10,OBA-NEFTCALA 10,OBA-NEFTCALA 10,39.396084,49.241495,128.26
OBA-NEFTCHALA 17,OBA-NEFTCHALA 17,OBA-NEFTCHALA 17,39.3851629230423,49.2471047576722,129.09
OBA-NEFTCALA 1,OBA-NEFTCALA 1,OBA-NEFTCALA 1,39.385695,49.242911,129.21
OBA-NEFTCALA 2,OBA-NEFTCALA 2,OBA-NEFTCALA 2,39.38058,49.246787,129.55
OBA-NEFTCHALA 18,OBA-NEFTCHALA 18,OBA-NEFTCHALA 18,39.3794056265396,49.2472512724963,129.64
OBA-NEFTCALA 3,OBA-NEFTCALA 3,OBA-NEFTCALA 3,39.376317,49.247875,129.92
OBA-NEFTCALA 5,OBA-NEFTCALA 5,OBA-NEFTCALA 5,39.37662,49.243564,130.07
OBA-SABIRABAD 16,OBA-SABIRABAD 16,OBA-SABIRABAD 16,40.0146168076646,48.5197781381052,131.11
OBA-NEFTCHALA 12,OBA-NEFTCHALA 12,OBA-NEFTCHALA 12,39.465439297919,49.0369398302709,131.44
OBA-SHABRAN 2,OBA-SHABRAN 2,OBA-SHABRAN 2,41.259565,48.902591,131.49
OBA-NEFTCHALA 6,OBA-NEFTCHALA 6,OBA-NEFTCHALA 6,39.482072,49.00195,131.83
OBA-NEFTCALA 8,OBA-NEFTCALA 8,OBA-NEFTCALA 8,39.423914,49.100384,131.99
OBA-NEFTCHALA 16,OBA-NEFTCHALA 16,OBA-NEFTCHALA 16,39.352066391136,49.2479699829112,132.29
OBA-SABIRABAD 3,OBA-SABIRABAD 3,OBA-SABIRABAD 3,40.0495190413473,48.4794686190206,133.12
SABIRABAD 18,SABIRABAD 18,SABIRABAD 18,40.0043516106792,48.4889722,133.96
OBA-AGSU 1,OBA-AGSU 1,OBA-AGSU 1,40.5561,48.406205,134.06
OBA-AGSU 8,OBA-AGSU 8,OBA-AGSU 8,40.5588385962034,48.4032168952441,134.35
OBA-SABIRABAD 30,OBA-SABIRABAD 30,OBA-SABIRABAD 30,40.0088905618484,48.4816889382258,134.38
OBA-SABIRABAD 31,OBA-SABIRABAD 31,OBA-SABIRABAD 31,40.0170083377473,48.4755727021708,134.57
OBA-NEFTCALA 4,OBA-NEFTCALA 4,OBA-NEFTCALA 4,39.438929,49.019966,134.67
OBA-AGSU 6,OBA-AGSU 6,OBA-AGSU 6,40.5749809526091,48.4016090085774,134.71
OBA-SABIRABAD 24,OBA-SABIRABAD 24,OBA-SABIRABAD 24,40.0139758280038,48.4724194418499,134.94
OBA-SABIRABAD 32,OBA-SABIRABAD 32,OBA-SABIRABAD 32,40.0066029574514,48.4756615352704,134.95
OBA-NEFTCHALA 7,OBA-NEFTCHALA 7,OBA-NEFTCHALA 7,39.336579,49.217247,135.06
OBA-SABIRABAD 35,OBA-SABIRABAD 35,OBA-SABIRABAD 35,40.0082943421649,48.4709843730102,135.26
OBA-AGSU 3,OBA-AGSU 3,OBA-AGSU 3,40.580474,48.395099,135.34
OBA-AGSU 7,OBA-AGSU 7,OBA-AGSU 7,40.5649016576646,48.3913860507305,135.42
OBA-AGSU 10,OBA-AGSU 10,OBA-AGSU 10,40.5677585014193,48.3914162508433,135.46
OBA-SABIRABAD 21,OBA-SABIRABAD 21,OBA-SABIRABAD 21,40.0041839473279,48.4696389000037,135.52
OBA-SABIRABAD 27,OBA-SABIRABAD 27,OBA-SABIRABAD 27,40.0135272228602,48.4650342038011,135.55
OBA-SABIRABAD 33,OBA-SABIRABAD 33,OBA-SABIRABAD 33,40.0022343967525,48.4688300928635,135.66
OBA-SABIRABAD 20,OBA-SABIRABAD 20,OBA-SABIRABAD 20,40.0073753293399,48.4662703402399,135.67
OBA-SABIRABAD 5,OBA-SABIRABAD 5,OBA-SABIRABAD 5,40.027369461561,48.4564281957743,135.75
OBA-AGSU 5,OBA-AGSU 5,OBA-AGSU 5,40.5656684147931,48.3873321558843,135.77
OBA-SAATLI 10,OBA-SAATLI 10,OBA-SAATLI 10,39.9185617652924,48.5039539966475,136.3
OBA-SABIRABAD 29,OBA-SABIRABAD 29,OBA-SABIRABAD 29,39.9924174451432,48.4645687063539,136.37
OBA-SABIRABAD 34,OBA-SABIRABAD 34,OBA-SABIRABAD 34,39.9909203109119,48.4638863513638,136.48
OBA-SABIRABAD 25,OBA-SABIRABAD 25,OBA-SABIRABAD 25,39.9936521033269,48.4585603226306,136.8
OBA-SABIRABAD 15,OBA-SABIRABAD 15,OBA-SABIRABAD 15,40.0358419791759,48.4373929190997,137
OBA-SABIRABAD 2,OBA-SABIRABAD 2,OBA-SABIRABAD 2,39.978965,48.447346,138.26
OBA-SHABRAN 12,OBA-SHABRAN 12,OBA-SHABRAN 12,41.3303953777528,48.8752727809749,138.81
OBA-SABIRABAD 22,OBA-SABIRABAD 22,OBA-SABIRABAD 22,40.0573374751803,48.3855525497893,140.51
OBA-SALYAN 33,OBA-SALYAN 33,OBA-SALYAN 33,39.4321666325013,48.8418364664281,144.95
SAATLI 5,SAATLI 5,SAATLI 5,39.939546769821,48.3768836880944,145.43
OBA-SAATLI 3,OBA-SAATLI 3,OBA-SAATLI 3,39.9381,48.372786,145.81
OBA-KURDEMIR 15,OBA-KURDEMIR 15,OBA-KURDEMIR 15,40.3034254304551,48.2622079522445,145.82
OBA-SAATLI 6,OBA-SAATLI 6,OBA-SAATLI 6,39.9382909226327,48.3671653124477,146.25
OBA-QUBA 15,OBA-QUBA 15,OBA-QUBA 15,41.341367,48.75666,146.52
OBA-SAATLI 1,OBA-SAATLI 1,OBA-SAATLI 1,39.938518,48.361913,146.66
OBA-SALYAN 13,OBA-SALYAN 13,OBA-SALYAN 13,39.421779,48.825156,146.76
OBA-SAATLI 12,OBA-SAATLI 12,OBA-SAATLI 12,39.9365009924167,48.3613324220901,146.79
OBA-QUBA 10,OBA-QUBA 10,OBA-QUBA 10,41.34627,48.725935,148.72
OBA-QUBA 25,OBA-QUBA 25,OBA-QUBA 25,41.2540672857242,48.5941555417869,150.15
OBA-XACMAZ 23,OBA-XACMAZ 23,OBA-XACMAZ 23,41.4606772279788,48.8171184202392,152.91
OBA-XACMAZ 1,OBA-XACMAZ 1,OBA-XACMAZ 1,41.468911,48.817844,153.57
OBA-XACMAZ 4,OBA-XACMAZ 4,OBA-XACMAZ 4,41.46712,48.81208,153.73
OBA-XACMAZ 3,OBA-XACMAZ 3,OBA-XACMAZ 3,41.462673,48.802366,153.87
OBA-KURDEMIR 1,OBA-KURDEMIR 1,OBA-KURDEMIR 1,40.351331,48.161627,153.98
OBA-KURDEMIR 13,OBA-KURDEMIR 13,OBA-KURDEMIR 13,40.350839835468,48.1615774248359,153.98
OBA-KURDEMIR 16,OBA-KURDEMIR 16,OBA-KURDEMIR 16,40.354918421602,48.1598547576722,154.11
OBA-XACMAZ 15,OBA-XACMAZ 15,OBA-XACMAZ 15,41.461938262509,48.7964614711642,154.13
OBA-KURDEMIR 2,OBA-KURDEMIR 2,OBA-KURDEMIR 2,40.347061,48.159203,154.2
OBA-KURDEMIR 10,OBA-KURDEMIR 10,OBA-KURDEMIR 10,40.341259,48.156837,154.44
OBA-XACMAZ 12,OBA-XACMAZ 12,OBA-XACMAZ 12,41.40387,48.704039,154.55
OBA-KURDEMIR 4,OBA-KURDEMIR 4,OBA-KURDEMIR 4,40.339519,48.154874,154.61
OBA-XACMAZ 11,OBA-XACMAZ 11,OBA-XACMAZ 11,41.467189,48.79472,154.67
OBA-KURDEMIR 6,OBA-KURDEMIR 6,OBA-KURDEMIR 6,40.346469,48.152694,154.76
OBA-SAATLI 8,OBA-SAATLI 8,OBA-SAATLI 8,39.8808579992707,48.2897007423275,154.76
OBA-KURDEMIR 3,OBA-KURDEMIR 3,OBA-KURDEMIR 3,40.336112,48.151621,154.91
OBA-XACMAZ 17,OBA-XACMAZ 17,OBA-XACMAZ 17,41.4659850370272,48.7868289134514,154.99
OBA-KURDEMIR 7,OBA-KURDEMIR 7,OBA-KURDEMIR 7,40.332879,48.150053,155.06
OBA-KURDEMIR 9,OBA-KURDEMIR 9,OBA-KURDEMIR 9,40.338207,48.144508,155.5
OBA-QUBA 6,OBA-QUBA 6,OBA-QUBA 6,41.318186,48.581095,155.54
OBA-QUBA 20,OBA-QUBA 20,OBA-QUBA 20,41.318045,48.577032,155.78
OBA-NEFTCHALA 14,OBA-NEFTCHALA 14,OBA-NEFTCHALA 14,39.3174752720473,48.8099174538598,156.44
OBA-KURDEMIR 12,OBA-KURDEMIR 12,OBA-KURDEMIR 12,40.3397905102877,48.1331561564358,156.45
OBA-XACMAZ 22,OBA-XACMAZ 22,OBA-XACMAZ 22,41.47671349353,48.7763440288147,156.47
OBA-NEFTCALA 9,OBA-NEFTCALA 9,OBA-NEFTCALA 9,39.3093608712254,48.8122370291619,157.02
OBA-QUBA 7,OBA-QUBA 7,OBA-QUBA 7,41.394083,48.64,157.57
OBA-BILESUVAR 10,OBA-BILESUVAR 10,OBA-BILESUVAR 10,39.4586975768389,48.5981691635438,157.6
OBA-QUBA 8,OBA-QUBA 8,OBA-QUBA 8,41.325888,48.556332,157.67
QUBA 23,QUBA 23,QUBA 23,41.3343097006925,48.5466792481716,158.89
OBA-XACMAZ 20,OBA-XACMAZ 20,OBA-XACMAZ 20,41.4994722870802,48.7649804411907,159.01
OBA-ISMAYILLI 2,OBA-ISMAYILLI 2,OBA-ISMAYILLI 2,40.781278,48.157244,159.44
OBA-ISMAYILLI 8,OBA-ISMAYILLI 8,OBA-ISMAYILLI 8,40.7784922243723,48.1554187767228,159.51
OBA-BILESUVAR 11,OBA-BILESUVAR 11,OBA-BILESUVAR 11,39.4618757911099,48.5627341866118,159.63
OBA-BILESUVAR 6,OBA-BILESUVAR 6,OBA-BILESUVAR 6,39.461685,48.561175,159.75
OBA-QUBA 11,OBA-QUBA 11,OBA-QUBA 11,41.371787,48.575683,159.8
OBA-ISMAYILLI 6,OBA-ISMAYILLI 6,OBA-ISMAYILLI 6,40.783601,48.153188,159.84
OBA-BILESUVAR 5,OBA-BILESUVAR 5,OBA-BILESUVAR 5,39.461718,48.558772,159.9
OBA-BILESUVAR 12,OBA-BILESUVAR 12,OBA-BILESUVAR 12,39.4586851775819,48.5524351558731,160.53
OBA-QUBA 5,OBA-QUBA 5,OBA-QUBA 5,41.370735,48.553991,161.08
OBA-QUBA 16,OBA-QUBA 16,OBA-QUBA 16,41.34846,48.52684,161.17
OBA-QUBA 26,OBA-QUBA 26,OBA-QUBA 26,41.3604199421222,48.5286677863127,161.91
OBA-QUBA 1,OBA-QUBA 1,OBA-QUBA 1,41.362795,48.528183,162.12
OBA-QUBA 28,OBA-QUBA 28,OBA-QUBA 28,41.3613111553327,48.5260080466271,162.15
OBA-KURDEMIR 8,OBA-KURDEMIR 8,OBA-KURDEMIR 8,40.113739,48.103444,162.27
OBA-XACMAZ 7,OBA-XACMAZ 7,OBA-XACMAZ 7,41.532189,48.749264,162.64
OBA-QUBA 4,OBA-QUBA 4,OBA-QUBA 4,41.362131,48.509538,163.25
OBA-QUBA 24,OBA-QUBA 24,OBA-QUBA 24,41.3577792706226,48.5033672708027,163.33
OBA-QUBA 18,OBA-QUBA 18,OBA-QUBA 18,41.35808,48.497697,163.72
OBA-XUDAT 7,OBA-XUDAT 7,OBA-XUDAT 7,41.54774,48.723,165.36
OBA-QUBA 21,OBA-QUBA 21,OBA-QUBA 21,41.4522820743479,48.5665074301051,166.47
OBA-ISMAYILLI 9,OBA-ISMAYILLI 9,OBA-ISMAYILLI 9,40.6754749102177,48.0382509779098,166.73
OBA-KURDEMIR 14,OBA-KURDEMIR 14,OBA-KURDEMIR 14,40.3286444808326,48.0099982588777,166.94
OBA-XUDAT 5,OBA-XUDAT 5,OBA-XUDAT 5,41.569128,48.726314,167.02
OBA-GOYCAY 11,OBA-GOYCAY 11,OBA-GOYCAY 11,40.6151528055727,48.0133531981751,167.8
OBA-IMISHLI 23,OBA-IMISHLI 23,OBA-IMISHLI 23,39.8903684229607,48.118147941421,168
OBA-XUDAT 8,OBA-XUDAT 8,OBA-XUDAT 8,41.550634,48.659721,169.04
OBA-GOYCAY 15,OBA-GOYCAY 15,OBA-GOYCAY 15,40.5599180461119,47.9753876866153,170.3
OBA-CELILABAD 11,OBA-CELILABAD 11,OBA-CELILABAD 11,39.32583,48.549752,170.79
OBA-IMISHLI 15,OBA-IMISHLI 15,OBA-IMISHLI 15,39.8788376336362,48.071516906849,172.18
OBA-QUSAR 3,OBA-QUSAR 3,OBA-QUSAR 3,41.431282,48.443355,172.45
OBA-IMISHLI 12,OBA-IMISHLI 12,OBA-IMISHLI 12,39.8652844668387,48.0737773140026,172.53
OBA-QUSAR 9,OBA-QUSAR 9,OBA-QUSAR 9,41.4319829136616,48.4418023638774,172.6
OBA-CELILABAD 5,OBA-CELILABAD 5,OBA-CELILABAD 5,39.315641,48.52955,172.82
OBA-IMISHLI 22,OBA-IMISHLI 22,OBA-IMISHLI 22,39.875294926297,48.0642687418022,172.9
OBA-QUSAR 1,OBA-QUSAR 1,OBA-QUSAR 1,41.418992,48.41736,173.21
OBA-IMISHLI 8,OBA-IMISHLI 8,OBA-IMISHLI 8,39.8683590611804,48.0637717960594,173.21
OBA-IMISHLI,OBA-IMISHLI,OBA-IMISHLI,39.869837,48.061772,173.31
OBA-IMISHLI 4,OBA-IMISHLI 4,OBA-IMISHLI 4,39.869395,48.061779,173.32
OBA-QUSAR 10,OBA-QUSAR 10,OBA-QUSAR 10,41.4281597471254,48.4250104165293,173.38
OBA-IMISHLI 6,OBA-IMISHLI 6,OBA-IMISHLI 6,39.870128,48.060639,173.39
OBA-IMISHLI 10,OBA-IMISHLI 10,OBA-IMISHLI 10,39.8622313722136,48.0627574840414,173.53
OBA-IMISHLI 2,OBA-IMISHLI 2,OBA-IMISHLI 2,39.86711,48.060156,173.54
OBA-IMISHLI 21,OBA-IMISHLI 21,OBA-IMISHLI 21,39.8700957158078,48.0573099865084,173.65
OBA-XUDAT 3,OBA-XUDAT 3,OBA-XUDAT 3,41.631121,48.699789,173.76
OBA-XUDAT 1,OBA-XUDAT 1,OBA-XUDAT 1,41.624258,48.685466,173.92
OBA-NABRAN 1,OBA-NABRAN 1,OBA-NABRAN 1,41.6759217446824,48.7732492193139,174.04
OBA-XUDAT 6,OBA-XUDAT 6,OBA-XUDAT 6,41.632677,48.687114,174.56
OBA-IMISHLI 9,OBA-IMISHLI 9,OBA-IMISHLI 9,39.8608958207352,48.0502743270719,174.58
OBA-IMISHLI 17,OBA-IMISHLI 17,OBA-IMISHLI 17,39.8648793216362,48.0482381301268,174.58
OBA-XUDAT 9,OBA-XUDAT 9,OBA-XUDAT 9,41.628787,48.678513,174.67
OBA-XUDAT 2,OBA-XUDAT 2,OBA-XUDAT 2,41.630559,48.67884,174.81
OBA-XUDAT 4,OBA-XUDAT 4,OBA-XUDAT 4,41.632053,48.67332,175.22
OBA-CELILABAD 10,OBA-CELILABAD 10,OBA-CELILABAD 10,39.337278,48.429681,177.39
OBA-CELILABAD 18,OBA-CELILABAD 18,OBA-CELILABAD 18,39.2222257969525,48.5792408475646,177.41
OBA-CELILABAD 21,OBA-CELILABAD 21,OBA-CELILABAD 21,39.2612526125719,48.5226272222361,177.55
OBA-IMISHLI 14,OBA-IMISHLI 14,OBA-IMISHLI 14,39.6979503048785,48.1017473476731,177.85
OBA-CELILABAD 17,OBA-CELILABAD 17,OBA-CELILABAD 17,39.266410923034,48.502719884781,178.33
OBA-IMISHLI 11,OBA-IMISHLI 11,OBA-IMISHLI 11,39.7169168978961,48.0771927712692,178.8
OBA-CEBRAYIL 3,OBA-CEBRAYIL 3,OBA-CEBRAYIL 3,39.673999988851,48.0976786842262,179.37
OBA-GOYCAY 12,OBA-GOYCAY 12,OBA-GOYCAY 12,40.5541292148824,47.8603627833755,179.92
OBA-CELILABAD 3,OBA-CELILABAD 3,OBA-CELILABAD 3,39.235934,48.516891,179.93
OBA-MASALLI 28,OBA-MASALLI 28,OBA-MASALLI 28,39.1115026833352,48.7065245304721,179.98
OBA-CELILABAD 12,OBA-CELILABAD 12,OBA-CELILABAD 12,39.213865,48.541632,180.27
OBA-CELILABAD 4,OBA-CELILABAD 4,OBA-CELILABAD 4,39.225205,48.519787,180.62
OBA-CEBRAYIL 2,OBA-CEBRAYIL 2,OBA-CEBRAYIL 2,39.701027,48.06039,180.86
OBA-QUSAR 5,OBA-QUSAR 5,OBA-QUSAR 5,41.470413,48.34349,181.6
OBA-MASALLI 21,OBA-MASALLI 21,OBA-MASALLI 21,39.1138187192212,48.6637866978194,182.01
OBA-QEBELE 4,OBA-QEBELE 4,OBA-QEBELE 4,40.946431,47.941994,182.09
OBA-CELILABAD 16,OBA-CELILABAD 16,OBA-CELILABAD 16,39.2136808582387,48.5056437347739,182.39
OBA-MASALLI 7,OBA-MASALLI 7,OBA-MASALLI 7,39.041703,48.779214,182.7
OBA-GOYCAY 8,OBA-GOYCAY 8,OBA-GOYCAY 8,40.570268,47.82807,182.8
OBA-YALAMA 2,OBA-YALAMA 2,OBA-YALAMA 2,41.694841,48.627688,183.04
OBA-CELILABAD 15,OBA-CELILABAD 15,OBA-CELILABAD 15,39.2166318435116,48.4890963173919,183.13
OBA-CELILABAD 19,OBA-CELILABAD 19,OBA-CELILABAD 19,39.2092477330658,48.4981345632191,183.19
OBA-CELILABAD 14,OBA-CELILABAD 14,OBA-CELILABAD 14,39.2582390757964,48.4303070029331,183.39
OBA-CELILABAD 22,OBA-CELILABAD 22,OBA-CELILABAD 22,39.207852353311,48.4909400134915,183.73
OBA-CELILABAD 1,OBA-CELILABAD 1,OBA-CELILABAD 1,39.20754,48.489676,183.83
OBA-CELILABAD 6,OBA-CELILABAD 6,OBA-CELILABAD 6,39.206432,48.483422,184.29
OBA-GOYTEPE 1,OBA-GOYTEPE 1,OBA-GOYTEPE 1,39.1165745861982,48.5991723456772,185.23
OBA-GOYTEPE 3,OBA-GOYTEPE 3,OBA-GOYTEPE 3,39.1189872910552,48.594207084657,185.29
OBA-CELILABAD 20,OBA-CELILABAD 20,OBA-CELILABAD 20,39.1921823907262,48.4842726118615,185.4
OBA-MASALLI 25,OBA-MASALLI 25,OBA-MASALLI 25,39.0219053766493,48.758579760599,185.52
OBA-GOYTEPE 2,OBA-GOYTEPE 2,OBA-GOYTEPE 2,39.1118400819817,48.6008503711642,185.55
OBA-IMISHLI 16,OBA-IMISHLI 16,OBA-IMISHLI 16,39.7641834843198,47.9561039901915,186.05
OBA-IMISHLI 13,OBA-IMISHLI 13,OBA-IMISHLI 13,39.7425598126839,47.9600472835447,186.7
OBA-MASALLI 22,OBA-MASALLI 22,OBA-MASALLI 22,39.0919672217907,48.603917953833,187.1
OBA-MASALLI 29,OBA-MASALLI 29,OBA-MASALLI 29,39.0842609848202,48.6114116340224,187.38
OBA-QEBELE 16,OBA-QEBELE 16,OBA-QEBELE 16,40.8353847186395,47.8288434682698,187.71
OBA-IMISHLI 18,OBA-IMISHLI 18,OBA-IMISHLI 18,39.7372296870565,47.9466107510063,187.99
OBA-MASALLI 31,OBA-MASALLI 31,OBA-MASALLI 31,39.0383361008613,48.6765896423277,188.07
OBA-GOYTEPE 4,OBA-GOYTEPE 4,OBA-GOYTEPE 4,39.129787096137,48.5246473074005,188.23
OBA-MASALLI 18,OBA-MASALLI 18,OBA-MASALLI 18,39.036106,48.671357,188.53
OBA-MASALLI 20,OBA-MASALLI 20,OBA-MASALLI 20,39.0371036031546,48.6674240731793,188.64
OBA-MASALLI 24,OBA-MASALLI 24,OBA-MASALLI 24,39.0307133946113,48.6725775907249,188.96
OBA-MASALLI 3,OBA-MASALLI 3,OBA-MASALLI 3,39.027537,48.678,188.97
OBA-MASALLI 4,OBA-MASALLI 4,OBA-MASALLI 4,39.033116,48.66609,189.07
SDK 1,SDK 1,SDK 1,41.6354381513551,48.4268152978962,189.11
OBA-MASALLI 6,OBA-MASALLI 6,OBA-MASALLI 6,39.03725,48.65806,189.11
OBA-MASALLI 19,OBA-MASALLI 19,OBA-MASALLI 19,39.0112814802256,48.6978402266409,189.46
OBA-MASALLI 30,OBA-MASALLI 30,OBA-MASALLI 30,39.0257416620832,48.6677992576722,189.65
OBA-MASALLI 34,OBA-MASALLI 34,OBA-MASALLI 34,39.0223167344965,48.6707265865084,189.81
OBA-MASALLI 1,OBA-MASALLI 1,OBA-MASALLI 1,39.022578,48.669561,189.84
OBA-GOYCAY 5,OBA-GOYCAY 5,OBA-GOYCAY 5,40.659565,47.75222,190.3
OBA-MASALLI 5,OBA-MASALLI 5,OBA-MASALLI 5,39.02263,48.659088,190.37
OBA-GOYCAY 2,OBA-GOYCAY 2,OBA-GOYCAY 2,40.641108,47.746338,190.51
OBA-YALAMA,OBA-YALAMA,OBA-YALAMA,41.756574,48.586373,190.55
OBA-QEBELE 6,OBA-QEBELE 6,OBA-QEBELE 6,40.975633,47.848613,190.56
OBA-QEBELE 8,OBA-QEBELE 8,OBA-QEBELE 8,40.982006,47.849973,190.68
OBA-GOYCAY 13,OBA-GOYCAY 13,OBA-GOYCAY 13,40.637677150993,47.7428312982029,190.76
OBA-GOYCAY 14,OBA-GOYCAY 14,OBA-GOYCAY 14,40.650987573595,47.7436231554592,190.88
QEBELE 12,QEBELE 12,QEBELE 12,40.9686453337359,47.8409596872585,190.92
OBA-GOYCAY 4,OBA-GOYCAY 4,OBA-GOYCAY 4,40.648967,47.7428,190.92
OBA-MASALLI 35,OBA-MASALLI 35,OBA-MASALLI 35,39.0193625305444,48.6513163288361,191.06
OBA-QEBELE 7,OBA-QEBELE 7,OBA-QEBELE 7,40.975729,47.841961,191.09
OBA-GOYCAY 10,OBA-GOYCAY 10,OBA-GOYCAY 10,40.6519909294691,47.7397927049076,191.22
OBA-MASALLI 26,OBA-MASALLI 26,OBA-MASALLI 26,39.0186525218162,48.6483233344393,191.27
OBA-QEBELE 15,OBA-QEBELE 15,OBA-QEBELE 15,40.947021992488,47.8258416303637,191.37
OBA-MASALLI 12,OBA-MASALLI 12,OBA-MASALLI 12,39.01029,48.65168,191.85
OBA-QEBELE 14,OBA-QEBELE 14,OBA-QEBELE 14,40.9285563835797,47.8029976121825,192.59
OBA-ZERDAB 3,OBA-ZERDAB 3,OBA-ZERDAB 3,40.228709,47.70737,193.48
OBA-ZERDAB 1,OBA-ZERDAB 1,OBA-ZERDAB 1,40.221777,47.708022,193.52
OBA-MASALLI 27,OBA-MASALLI 27,OBA-MASALLI 27,38.9998350821258,48.604395522989,195.21
OBA-UCAR 5,OBA-UCAR 5,OBA-UCAR 5,40.420578,47.67192,195.27
OBA-MASALLI 8,OBA-MASALLI 8,OBA-MASALLI 8,38.955979,48.676438,195.57
OBA-MASALLI 33,OBA-MASALLI 33,OBA-MASALLI 33,38.9633746000615,48.6589120403617,195.75
OBA-UCAR 10,OBA-UCAR 10,OBA-UCAR 10,40.5145043626938,47.6619149966665,196.37
OBA-UCAR 11,OBA-UCAR 11,OBA-UCAR 11,40.505,47.658444,196.61
OBA-LENKERAN 19,OBA-LENKERAN 19,OBA-LENKERAN 19,38.878082,48.807265,196.85
OBA-UCAR 4,OBA-UCAR 4,OBA-UCAR 4,40.509532,47.655479,196.88
OBA-MASALLI 17,OBA-MASALLI 17,OBA-MASALLI 17,38.9257707228969,48.7058862822738,196.95
OBA-UCAR 7,OBA-UCAR 7,OBA-UCAR 7,40.5104606867366,47.653509345768,197.05
OBA-UCAR 2,OBA-UCAR 2,OBA-UCAR 2,40.520088,47.652427,197.2
OBA-QEBELE 13,OBA-QEBELE 13,OBA-QEBELE 13,41.0084631169849,47.779899418802,197.2
OBA-MASALLI 16,OBA-MASALLI 16,OBA-MASALLI 16,38.9226,48.706486,197.21
OBA-UCAR 6,OBA-UCAR 6,OBA-UCAR 6,40.51434,47.649804,197.39
OBA-UCAR1,OBA-UCAR1,OBA-UCAR1,40.52481,47.65005,197.43
OBA-BEYLEQAN 20,OBA-BEYLEQAN 20,OBA-BEYLEQAN 20,39.8036038691459,47.7894215402699,197.67
OBA-LENKERAN 12,OBA-LENKERAN 12,OBA-LENKERAN 12,38.890085,48.76114,197.75
OBA-BEYLEQAN 15,OBA-BEYLEQAN 15,OBA-BEYLEQAN 15,39.7163535912809,47.8322350584393,197.88
OBA-MASALLI 14,OBA-MASALLI 14,OBA-MASALLI 14,38.907452,48.68907,199.45
OBA-MASALLI 23,OBA-MASALLI 23,OBA-MASALLI 23,38.8943407659491,48.7078192369515,199.79
OBA-UCAR 9,OBA-UCAR 9,OBA-UCAR 9,40.4964734413898,47.6169873494259,200.07
OBA-BEYLEQAN 10,OBA-BEYLEQAN 10,OBA-BEYLEQAN 10,39.773095,47.76122,201.12
OBA-LENKERAN 17,OBA-LENKERAN 17,OBA-LENKERAN 17,38.855182,48.75123,201.51
OBA-LENKERAN 22,OBA-LENKERAN 22,OBA-LENKERAN 22,38.8232675046233,48.7470543858567,204.74
OBA-LENKERAN 27,OBA-LENKERAN 27,OBA-LENKERAN 27,38.7741258989256,48.8403515860977,205.55
OBA-LENKERAN 36,OBA-LENKERAN 36,OBA-LENKERAN 36,38.7945597810138,48.789827108903,205.66
OBA-LENKERAN 34,OBA-LENKERAN 34,OBA-LENKERAN 34,38.7665126259444,48.8418291849399,206.24
OBA-LENKERAN 28,OBA-LENKERAN 28,OBA-LENKERAN 28,38.7659515544189,48.8400375137695,206.37
OBA-LENKERAN 41,OBA-LENKERAN 41,OBA-LENKERAN 41,38.757089,48.8399521,207.25
OBA-LENKERAN 33,OBA-LENKERAN 33,OBA-LENKERAN 33,38.8146993915792,48.7080764484906,207.3
OBA-BEYLEQAN 14,OBA-BEYLEQAN 14,OBA-BEYLEQAN 14,39.8722125739398,47.6374951937366,207.5
OBA-LENKERAN 38,OBA-LENKERAN 38,OBA-LENKERAN 38,38.7498706800415,48.8476666999985,207.65
OBA-LENKERAN 30,OBA-LENKERAN 30,OBA-LENKERAN 30,38.7494661880805,48.8339662541382,208.24
OBA-LENKERAN 21,OBA-LENKERAN 21,OBA-LENKERAN 21,38.7408643829437,48.8324809554796,209.14
OBA-LENKERAN 32,OBA-LENKERAN 32,OBA-LENKERAN 32,38.7344234347012,48.842164092055,209.39
OBA-LENKERAN 40,OBA-LENKERAN 40,OBA-LENKERAN 40,38.717389,48.837889,211.25
OBA-AGDASH 12,OBA-AGDASH 12,OBA-AGDASH 12,40.6470761284917,47.4989141693108,211.32
OBA-BEYLEQAN 9,OBA-BEYLEQAN 9,OBA-BEYLEQAN 9,39.6301967647652,47.7100517278653,211.33
OBA-OGUZ 3,OBA-OGUZ 3,OBA-OGUZ 3,41.03194767813,47.6054719634603,211.89
OBA-BEYLEQAN 3,OBA-BEYLEQAN 3,OBA-BEYLEQAN 3,39.772958,47.62396,212.12
OBA-BEYLEQAN 19,OBA-BEYLEQAN 19,OBA-BEYLEQAN 19,39.7754023379456,47.622240197918,212.16
OBA-BEYLEQAN 7,OBA-BEYLEQAN 7,OBA-BEYLEQAN 7,39.772854,47.62119,212.34
OBA-AGDASH 1,OBA-AGDASH 1,OBA-AGDASH 1,40.648898297061,47.4852818075044,212.48
OBA-BEYLEQAN 21,OBA-BEYLEQAN 21,OBA-BEYLEQAN 21,39.639944,47.687806,212.62
OBA-BEYLEQAN 4,OBA-BEYLEQAN 4,OBA-BEYLEQAN 4,39.769137,47.618836,212.67
OBA-BEYLEQAN18,OBA-BEYLEQAN18,OBA-BEYLEQAN18,39.769646025041,47.6160790398629,212.87
OBA-AGDASH 14,OBA-AGDASH 14,OBA-AGDASH 14,40.6465326154511,47.4776756693108,213.09
OBA-BEYLEQAN 2,OBA-BEYLEQAN 2,OBA-BEYLEQAN 2,39.771043,47.611999,213.15
OBA-BEYLEQAN 12,OBA-BEYLEQAN 12,OBA-BEYLEQAN 12,39.7702843042676,47.6123245175832,213.15
OBA-BEYLEQAN 11,OBA-BEYLEQAN 11,OBA-BEYLEQAN 11,39.642076,47.678303,213.27
OBA-AGDAS 9,OBA-AGDAS 9,OBA-AGDAS 9,40.6415588148853,47.4748010763918,213.27
OBA-AGDASH 6,OBA-AGDASH 6,OBA-AGDASH 6,40.642364,47.473522,213.39
OBA-AGDASH 13,OBA-AGDASH 13,OBA-AGDASH 13,40.6435611738486,47.4735251005965,213.4
OBA-LENKERAN 35,OBA-LENKERAN 35,OBA-LENKERAN 35,38.7212655503004,48.7732007423299,213.49
OBA-AGDASH 4,OBA-AGDASH 4,OBA-AGDASH 4,40.6417585193317,47.4713006311664,213.56
OBA-AGDAS 8,OBA-AGDAS 8,OBA-AGDAS 8,40.6417640029121,47.4708451483014,213.6
OBA-AGDASH 15,OBA-AGDASH 15,OBA-AGDASH 15,40.645889,47.470694,213.67
OBA-AGDASH 11,OBA-AGDASH 11,OBA-AGDASH 11,40.655130218277,47.4710557973583,213.76
OBA-BEYLEQAN 17,OBA-BEYLEQAN 17,OBA-BEYLEQAN 17,39.6605708987037,47.6593852665423,213.92
OBA-BEYLEQAN 13,OBA-BEYLEQAN 13,OBA-BEYLEQAN 13,39.7680971342032,47.6022668974895,214.04
OBA-LENKERAN 29,OBA-LENKERAN 29,OBA-LENKERAN 29,38.6881863060362,48.824788945537,214.65
OBA-AGDASH 16,OBA-AGDASH 16,OBA-AGDASH 16,40.649028,47.452111,215.26
OBA-LENKERAN 39,OBA-LENKERAN 39,OBA-LENKERAN 39,38.7166385361202,48.7354497644178,215.52
OBA-FUZULI 15,OBA-FUZULI 15,OBA-FUZULI 15,39.615741183247,47.6585091184476,216.02
OBA-OGUZ 5,OBA-OGUZ 5,OBA-OGUZ 5,40.9604710343032,47.5177007423277,216.58
OBA-AGDAS 7,OBA-AGDAS 7,OBA-AGDAS 7,40.53849,47.422203,216.74
OBA-AGCABEDI 14,OBA-AGCABEDI 14,OBA-AGCABEDI 14,40.049091,47.467055,216.76
OBA-LENKERAN 20,OBA-LENKERAN 20,OBA-LENKERAN 20,38.658897,48.841327,216.92
OBA-AGCABEDI 15,OBA-AGCABEDI 15,OBA-AGCABEDI 15,40.044307,47.4645,217.07
OBA-AGCABEDI 16,OBA-AGCABEDI 16,OBA-AGCABEDI 16,40.05261,47.45983,217.28
OBA-AGCABEDI 24,OBA-AGCABEDI 24,OBA-AGCABEDI 24,40.0499510706174,47.4600794374349,217.32
OBA-AGCABEDI 2,OBA-AGCABEDI 2,OBA-AGCABEDI 2,40.04807,47.456783,217.63
OBA-AGCABEDI 9,OBA-AGCABEDI 9,OBA-AGCABEDI 9,40.043128,47.455749,217.83
OBA-LENKERAN 13,OBA-LENKERAN 13,OBA-LENKERAN 13,38.660974,48.803622,218.18
OBA-AGCABEDI 4,OBA-AGCABEDI 4,OBA-AGCABEDI 4,40.033649,47.453409,218.23
OBA-AGCABEDI 10,OBA-AGCABEDI 10,OBA-AGCABEDI 10,40.046655,47.445917,218.57
OBA-AGCABEDI 27,OBA-AGCABEDI 27,OBA-AGCABEDI 27,40.041399338294,47.4442522226324,218.83
OBA-AGCABEDI 17,OBA-AGCABEDI 17,OBA-AGCABEDI 17,40.05295,47.44082,218.86
OBA-AGCABEDI 30,OBA-AGCABEDI 30,OBA-AGCABEDI 30,40.054035069357,47.4348781711617,219.34
OBA-OGUZ 4,OBA-OGUZ 4,OBA-OGUZ 4,40.9718813842629,47.4874069617297,219.37
OBA-LENKERAN 31,OBA-LENKERAN 31,OBA-LENKERAN 31,38.6466605317054,48.8030135792642,219.63
OBA-FUZULI 16,OBA-FUZULI 16,OBA-FUZULI 16,39.5882345031647,47.6281496288361,219.66
OBA-AGCABEDI 29,OBA-AGCABEDI 29,OBA-AGCABEDI 29,40.0303258419472,47.4362632595253,219.74
OBA-AGCABEDI 23,OBA-AGCABEDI 23,OBA-AGCABEDI 23,39.9275044192628,47.4671043792748,219.78
OBA-AGCABEDI 11,OBA-AGCABEDI 11,OBA-AGCABEDI 11,40.058127,47.418022,220.66
OBA-XOCAVEND 1,OBA-XOCAVEND 1,OBA-XOCAVEND 1,39.747988,47.52914,220.68
OBA-AGCABEDI 12,OBA-AGCABEDI 12,OBA-AGCABEDI 12,40.040055,47.418894,220.97
OBA-AGCABEDI 20,OBA-AGCABEDI 20,OBA-AGCABEDI 20,39.975082,47.426719,221.85
OBA-FUZULI 11,OBA-FUZULI 11,OBA-FUZULI 11,39.7364531071472,47.5106638846952,222.61
OBA-ASTARA 5,OBA-ASTARA 5,OBA-ASTARA 5,38.607985,48.821237,222.77
OBA-YARDIMLI 1,OBA-YARDIMLI 1,OBA-YARDIMLI 1,38.907125,48.243341,222.86
OBA-ASTARA 12,OBA-ASTARA 12,OBA-ASTARA 12,38.5976592482736,48.8402510960883,223.08
OBA-LENKERAN 3,OBA-LENKERAN 3,OBA-LENKERAN 3,38.60499,48.811099,223.46
OBA-ASTARA 19,OBA-ASTARA 19,OBA-ASTARA 19,38.602917,48.813222,223.58
OBA-ASTARA 13,OBA-ASTARA 13,OBA-ASTARA 13,38.602063260134,48.8072352972082,223.9
OBA-ASTARA 11,OBA-ASTARA 11,OBA-ASTARA 11,38.591615574461,48.8214419130635,224.4
OBA-OGUZ 7,OBA-OGUZ 7,OBA-OGUZ 7,41.0702216901776,47.4650628202377,224.41
OBA-OGUZ 1,OBA-OGUZ 1,OBA-OGUZ 1,41.068379,47.462966,224.51
OBA-OGUZ 6,OBA-OGUZ 6,OBA-OGUZ 6,41.0594990477332,47.4586001598168,224.55
OBA-ASTARA 9,OBA-ASTARA 9,OBA-ASTARA 9,38.592898,48.804577,224.91
OBA-LERIK 3,OBA-LERIK 3,OBA-LERIK 3,38.771254,48.419236,225.18
OBA-FUZULI 3,OBA-FUZULI 3,OBA-FUZULI 3,39.5581921121719,47.5646142834882,226.01
OBA-FUZULI 14,OBA-FUZULI 14,OBA-FUZULI 14,39.5642511262528,47.5550211117248,226.47
OBA-BERDE 18,OBA-BERDE 18,OBA-BERDE 18,40.217506,47.310467,227.12
OBA-ASTARA 16,OBA-ASTARA 16,OBA-ASTARA 16,38.5564271879078,48.8237339059127,227.84
OBA-SHEKI 12,OBA-SHEKI 12,OBA-SHEKI 12,40.8756456469742,47.3442716934293,228.4
OBA-AGCABEDI 28,OBA-AGCABEDI 28,OBA-AGCABEDI 28,40.0981854790489,47.3160824073809,228.42
BERDE 20,BERDE 20,BERDE 20,40.3247635379666,47.271946942979,229.44
OBA-AGCABEDI 22,OBA-AGCABEDI 22,OBA-AGCABEDI 22,40.0591170190059,47.3003865568067,230.48
OBA-ASTARA 15,OBA-ASTARA 15,OBA-ASTARA 15,38.5325143228426,48.8079404834062,230.83
OBA-BERDE 29,OBA-BERDE 29,OBA-BERDE 29,40.3282275929053,47.2487898907802,231.38
OBA-ASTARA 4,OBA-ASTARA 4,OBA-ASTARA 4,38.535672,48.777365,231.67
OBA-BERDE 22,OBA-BERDE 22,OBA-BERDE 22,40.2518073407939,47.2470161698478,232.11
OBA-ASTARA 7,OBA-ASTARA 7,OBA-ASTARA 7,38.509235,48.829096,232.39
OBA-FUZULI 10,OBA-FUZULI 10,OBA-FUZULI 10,39.5159813963692,47.49111265077,233.72
OBA-ASTARA 17,OBA-ASTARA 17,OBA-ASTARA 17,38.4924345977314,48.8318861084741,233.99
OBA-FUZULI 7,OBA-FUZULI 7,OBA-FUZULI 7,39.509972,47.490514,234.06
OBA-ASTARA 3,OBA-ASTARA 3,OBA-ASTARA 3,38.47043,48.870559,234.85
OBA-YEVLAX 4,OBA-YEVLAX 4,OBA-YEVLAX 4,40.708248,47.220096,235.49
OBA-YEVLAX 11,OBA-YEVLAX 11,OBA-YEVLAX 11,40.7138557,47.2162676,235.89
OBA-BERDE 26,OBA-BERDE 26,OBA-BERDE 26,40.2780668842498,47.1960121674745,236.19
OBA-SHEKI 22,OBA-SHEKI 22,OBA-SHEKI 22,40.8579605696195,47.2425095896767,236.36
OBA-ASTARA 2,OBA-ASTARA 2,OBA-ASTARA 2,38.451177,48.875419,236.65
OBA-ASTARA 14,OBA-ASTARA 14,OBA-ASTARA 14,38.4511411598,48.8738274488641,236.71
OBA-ASTARA 18,OBA-ASTARA 18,OBA-ASTARA 18,38.4655412230283,48.8100438552784,237.5
FUZULI 8,FUZULI 8,FUZULI 8,39.5686530035019,47.4045341423292,238.02
OBA-AGCABEDI 25,OBA-AGCABEDI 25,OBA-AGCABEDI 25,40.069836965379,47.1961922476032,239
OBA-YEVLAX 15,OBA-YEVLAX 15,OBA-YEVLAX 15,40.6133922987518,47.1580761718443,239.57
OBA-AGCABEDI 19,OBA-AGCABEDI 19,OBA-AGCABEDI 19,40.0647202485453,47.1896296793439,239.65
OBA-FUZULI 17,OBA-FUZULI 17,OBA-FUZULI 17,39.508361,47.414306,240.03
OBA-AGDAM 16,OBA-AGDAM 16,OBA-AGDAM 16,40.1578005010516,47.1665448711255,240.04
OBA-YEVLAX 18,OBA-YEVLAX 18,OBA-YEVLAX 18,40.6057977752372,47.1515195262109,240.06
OBA-YEVLAX 9,OBA-YEVLAX 9,OBA-YEVLAX 9,40.616893,47.15169,240.14
OBA-YEVLAX 1,OBA-YEVLAX 1,OBA-YEVLAX 1,40.603699,47.150239,240.15
OBA-YEVLAX 3,OBA-YEVLAX 3,OBA-YEVLAX 3,40.612729,47.15042,240.21
OBA-AGDAM 7,OBA-AGDAM 7,OBA-AGDAM 7,40.155887,47.163259,240.34
OBA-AGDAM 13,OBA-AGDAM 13,OBA-AGDAM 13,40.1572255266754,47.1619998998926,240.43
OBA-YEVLAX 12,OBA-YEVLAX 12,OBA-YEVLAX 12,40.6148875322928,47.1470409978646,240.51
OBA-BERDE 13,OBA-BERDE 13,OBA-BERDE 13,40.360718,47.13852,240.56
OBA-FUZULI 12,OBA-FUZULI 12,OBA-FUZULI 12,39.5089277628493,47.4054003736981,240.7
OBA-YEVLAX 2,OBA-YEVLAX 2,OBA-YEVLAX 2,40.613239,47.144131,240.74
OBA-BERDE 16,OBA-BERDE 16,OBA-BERDE 16,40.385850439772,47.1346300734424,240.81
OBA-BERDE 23,OBA-BERDE 23,OBA-BERDE 23,40.3799216433667,47.1344110413834,240.84
OBA-AGCABEDI 26,OBA-AGCABEDI 26,OBA-AGCABEDI 26,39.9823260658585,47.194885719618,240.95
OBA-YEVLAX 13,OBA-YEVLAX 13,OBA-YEVLAX 13,40.6067041067634,47.1390651000156,241.11
OBA-BERDE 11,OBA-BERDE 11,OBA-BERDE 11,40.3611447047009,47.1290001026552,241.36
OBA-BERDE 1,OBA-BERDE 1,OBA-BERDE 1,40.384497,47.127755,241.39
OBA-BERDE 25,OBA-BERDE 25,OBA-BERDE 25,40.4023827332147,47.127118558987,241.41
OBA-BERDE 5,OBA-BERDE 5,OBA-BERDE 5,40.36666,47.12708,241.51
OBA-BERDE 15,OBA-BERDE 15,OBA-BERDE 15,40.370688,47.126776,241.52
OBA-BERDE 14,OBA-BERDE 14,OBA-BERDE 14,40.319792,47.122991,242.08
OBA-BERDE 21,OBA-BERDE 21,OBA-BERDE 21,40.3913997531873,47.1183516001044,242.17
OBA-BERDE LISEY,OBA-BERDE LISEY,OBA-BERDE LISEY,40.378047,47.1174751,242.28
OBA-BERDE 10,OBA-BERDE 10,OBA-BERDE 10,40.37514,47.113559,242.62
OBA-BERDE 3,OBA-BERDE 3,OBA-BERDE 3,40.449337,47.112343,242.63
OBA-YEVLAX 14,OBA-YEVLAX 14,OBA-YEVLAX 14,40.5028711636245,47.113314697918,242.66
OBA-BERDE 28,OBA-BERDE 28,OBA-BERDE 28,40.3558782564227,47.1112973460337,242.88
OBA-AGDAM 14,OBA-AGDAM 14,OBA-AGDAM 14,40.100093036892,47.1339307866118,243.69
OBA-BERDE 27,OBA-BERDE 27,OBA-BERDE 27,40.2822955362366,47.1045499354987,243.9
OBA-YEVLAX 6,OBA-YEVLAX 6,OBA-YEVLAX 6,40.505015,47.093148,244.37
OBA-BERDE 12,OBA-BERDE 12,OBA-BERDE 12,40.362776,47.086393,244.97
OBA-AGDAM 10,OBA-AGDAM 10,OBA-AGDAM 10,40.1207589744162,47.1113812689647,245.24
OBA-BERDE 24,OBA-BERDE 24,OBA-BERDE 24,40.4596514739438,47.0812422954288,245.27
OBA-AGDAM 3,OBA-AGDAM 3,OBA-AGDAM 3,40.12144,47.10523,245.75
OBA-MINGECEVIR 7,OBA-MINGECEVIR 7,OBA-MINGECEVIR 7,40.751962,47.098817,246.27
OBA-AGDAM 4,OBA-AGDAM 4,OBA-AGDAM 4,40.240785,47.076097,246.67
OBA-YEVLAX 17,OBA-YEVLAX 17,OBA-YEVLAX 17,40.5127128514772,47.0619122704025,247.03
OBA-AGDAM 6,OBA-AGDAM 6,OBA-AGDAM 6,40.142314,47.083963,247.22
OBA-MINGECEVIR 22,OBA-MINGECEVIR 22,OBA-MINGECEVIR 22,40.7575356923378,47.0867858998024,247.36
OBA-FUZULI 5,OBA-FUZULI 5,OBA-FUZULI 5,39.4479795636313,47.3403818649852,248.66
OBA-FUZULI 6,OBA-FUZULI 6,OBA-FUZULI 6,39.447736,47.338843,248.79
OBA-FUZULI 9,OBA-FUZULI 9,OBA-FUZULI 9,39.4494628381017,47.3365761929276,248.88
OBA-MINGECEVIR 23,OBA-MINGECEVIR 23,OBA-MINGECEVIR 23,40.7529054548724,47.064977904747,249.11
OBA-MINGECEVIR 12,OBA-MINGECEVIR 12,OBA-MINGECEVIR 12,40.761827,47.06616,249.15
OBA-FUZULI 13,OBA-FUZULI 13,OBA-FUZULI 13,39.4497936193835,47.3319406547778,249.22
OBA-MINGECEVIR 10,OBA-MINGECEVIR 10,OBA-MINGECEVIR 10,40.758116,47.064374,249.24
OBA-MINGECEVIR 19,OBA-MINGECEVIR 19,OBA-MINGECEVIR 19,40.7722270652171,47.0651659198984,249.4
OBA-MINGECEVIR 4,OBA-MINGECEVIR 4,OBA-MINGECEVIR 4,40.761179,47.061146,249.56
OBA-MINGECEVIR 13,OBA-MINGECEVIR 13,OBA-MINGECEVIR 13,40.759935,47.059013,249.71
OBA-MINGECEVIR 21,OBA-MINGECEVIR 21,OBA-MINGECEVIR 21,40.7660519462717,47.0598836835909,249.74
OBA-MINGECEVIR 8,OBA-MINGECEVIR 8,OBA-MINGECEVIR 8,40.768585,47.058563,249.89
OBA-MINGECEVIR 20,OBA-MINGECEVIR 20,OBA-MINGECEVIR 20,40.766175345633,47.0562778,250.04
OBA-AGDAM 15,OBA-AGDAM 15,OBA-AGDAM 15,40.0239312160719,47.072006474462,250.31
OBA-AGDAM 9,OBA-AGDAM 9,OBA-AGDAM 9,40.0174200439006,47.0732916519645,250.34
OBA-MINGECEVIR 14,OBA-MINGECEVIR 14,OBA-MINGECEVIR 14,40.769795,47.052619,250.41
OBA-MINGECEVIR 9,OBA-MINGECEVIR 9,OBA-MINGECEVIR 9,40.772374,47.052662,250.45
OBA-MINGECEVIR 3,OBA-MINGECEVIR 3,OBA-MINGECEVIR 3,40.764218,47.045967,250.87
OBA-MINGECEVIR 15,OBA-MINGECEVIR 15,OBA-MINGECEVIR 15,40.773406,47.0475,250.89
OBA-MINGECEVIR 18,OBA-MINGECEVIR 18,OBA-MINGECEVIR 18,40.7580923175349,47.0444951366145,250.9
OBA-MINGECEVIR 16,OBA-MINGECEVIR 16,OBA-MINGECEVIR 16,40.762717,47.044485,250.97
OBA-SHEKI 20,OBA-SHEKI 20,OBA-SHEKI 20,41.1823166890788,47.1803055999979,251.01
OBA-SHEKI 18,OBA-SHEKI 18,OBA-SHEKI 18,41.2006654239433,47.1888451883614,251.02
OBA-AGDAM 12,OBA-AGDAM 12,OBA-AGDAM 12,40.0507296156331,47.0532335477032,251.35
OBA-MINGECEVIR 2,OBA-MINGECEVIR 2,OBA-MINGECEVIR 2,40.771665,47.041061,251.4
TERTER 9,TERTER 9,TERTER 9,40.4411454818023,47.0085661978593,251.41
OBA-AGDAM 8,OBA-AGDAM 8,OBA-AGDAM 8,40.109127,47.0389681,251.52
OBA-SHEKI 3,OBA-SHEKI 3,OBA-SHEKI 3,41.170421,47.16742,251.6
OBA-SHEKI 1,OBA-SHEKI 1,OBA-SHEKI 1,41.203613,47.179909,251.84
OBA-SHEKI 10,OBA-SHEKI 10,OBA-SHEKI 10,41.201356,47.177779,251.92
OBA-SHEKI 15,OBA-SHEKI 15,OBA-SHEKI 15,41.1871927786112,47.1709096197821,251.93
OBA-YEVLAX 10,OBA-YEVLAX 10,OBA-YEVLAX 10,40.686634,47.01959,251.98
OBA-SHEKI 21,OBA-SHEKI 21,OBA-SHEKI 21,41.2105205545447,47.1804417626345,252.06
OBA-SHEKI 2,OBA-SHEKI 2,OBA-SHEKI 2,41.200513,47.171258,252.4
OBA-SHEKI 8,OBA-SHEKI 8,OBA-SHEKI 8,40.99295,47.087158,252.43
OBA-SHEKI 17,OBA-SHEKI 17,OBA-SHEKI 17,41.2082886735407,47.1743952423277,252.45
OBA-SHEKI 5,OBA-SHEKI 5,OBA-SHEKI 5,41.2269019709255,47.1804547909186,252.68
OBA-SHEKI 11,OBA-SHEKI 11,OBA-SHEKI 11,41.201972,47.165757,252.89
OBA-SHEKI 19,OBA-SHEKI 19,OBA-SHEKI 19,41.1957679,47.1621161,252.94
OBA-YEVLAX 5,OBA-YEVLAX 5,OBA-YEVLAX 5,40.631413,46.98918,253.94
OBA-MINGECEVIR,OBA-MINGECEVIR,OBA-MINGECEVIR,40.769922,47.000294,254.77
OBA-TERTER 11,OBA-TERTER 11,OBA-TERTER 11,40.3268833257257,46.9694433555417,255.04
OBA-SHEKI 14,OBA-SHEKI 14,OBA-SHEKI 14,41.2101978707995,47.1416162602997,255.1
OBA-MINGECEVIR 11,OBA-MINGECEVIR 11,OBA-MINGECEVIR 11,40.768597,46.995069,255.18
OBA-YEVLAX 16,OBA-YEVLAX 16,OBA-YEVLAX 16,40.7151998723505,46.9754597291311,256.04
OBA-TERTER 5,OBA-TERTER 5,OBA-TERTER 5,40.434708,46.95049,256.33
OBA-TERTER 15,OBA-TERTER 15,OBA-TERTER 15,40.3387126579531,46.9520485419819,256.45
OBA-FUZULI 19,OBA-FUZULI 19,OBA-FUZULI 19,39.5986411183379,47.1523273350481,256.72
OBA-TERTER 13,OBA-TERTER 13,OBA-TERTER 13,40.3403971978359,46.9450871116385,257.03
OBA-AGDAM SARICALI,OBA-AGDAM SARICALI,OBA-AGDAM SARICALI,40.0070328615024,46.9847855389761,257.96
OBA-TERTER 12,OBA-TERTER 12,OBA-TERTER 12,40.3447436850554,46.9322738249083,258.09
OBA-TERTER 8,OBA-TERTER 8,OBA-TERTER 8,40.3408703973956,46.9322521426913,258.11
OBA-TERTER 3,OBA-TERTER 3,OBA-TERTER 3,40.340231,46.932233,258.12
OBA-TERTER 6,OBA-TERTER 6,OBA-TERTER 6,40.340057,46.931456,258.18
OBA-TERTER,OBA-TERTER,OBA-TERTER,40.348689,46.930665,258.21
OBA-GORANBOY 20,OBA-GORANBOY 20,OBA-GORANBOY 20,40.4800107549152,46.926624857134,258.38
OBA-TERTER 14,OBA-TERTER 14,OBA-TERTER 14,40.3351181165008,46.9288014776946,258.43
OBA-TERTER 7,OBA-TERTER 7,OBA-TERTER 7,40.3428822533955,46.927028645042,258.54
OBA-AGDAM KENGERLI,OBA-AGDAM KENGERLI,OBA-AGDAM KENGERLI,40.0309522789294,46.9679056336839,258.89
OBA-TERTER 10,OBA-TERTER 10,OBA-TERTER 10,40.339341430919,46.9132474039692,259.73
OBA-GORANBOY 16,OBA-GORANBOY 16,OBA-GORANBOY 16,40.4980767639623,46.9071729965694,260.07
OBA-GORANBOY 2,OBA-GORANBOY 2,OBA-GORANBOY 2,40.500757,46.904709,260.28
OBA-AGDAM QK,OBA-AGDAM QK,OBA-AGDAM QK,40.1016415162946,46.8837751271833,264.7
OBA-GORANBOY 12,OBA-GORANBOY 12,OBA-GORANBOY 12,40.5751658609154,46.8484473227537,265.36
OBA-AGDAM XIDIRLI,OBA-AGDAM XIDIRLI,OBA-AGDAM XIDIRLI,40.0078524860647,46.8877598856789,266.06
OBA-SHEKI 6,OBA-SHEKI 6,OBA-SHEKI 6,41.270465,47.012884,267.5
OAB-NAFTALAN 3,OAB-NAFTALAN 3,OAB-NAFTALAN 3,40.5059633671522,46.815270173426,267.86
OBA-NAFTALAN 2,OBA-NAFTALAN 2,OBA-NAFTALAN 2,40.5082260523825,46.8152929153429,267.86
OBA-NAFTALAN 1,OBA-NAFTALAN 1,OBA-NAFTALAN 1,40.508717,46.813332,268.03
OBA-GORANBOY 1,OBA-GORANBOY 1,OBA-GORANBOY 1,40.606557,46.786784,270.77
OBA-SHEKI 16,OBA-SHEKI 16,OBA-SHEKI 16,41.3020998876674,46.985396534129,270.88
OBA-GORANBOY 9,OBA-GORANBOY 9,OBA-GORANBOY 9,40.596129,46.78191,271.11
OBA-GORANBOY 10,OBA-GORANBOY 10,OBA-GORANBOY 10,40.602555,46.780168,271.3
OBA-GORANBOY 18,OBA-GORANBOY 18,OBA-GORANBOY 18,40.4295901781103,46.7691688855555,271.68
OBA-GORANBOY 5,OBA-GORANBOY 5,OBA-GORANBOY 5,40.541457,46.76672,272.08
OBA-ESGERAN 1,OBA-ESGERAN 1,OBA-ESGERAN 1,39.939325,46.8273269,272.59
OBA-SUQOVUSHAN 1,OBA-SUQOVUSHAN 1,OBA-SUQOVUSHAN 1,40.3219989976823,46.753189209606,273.37
OBA-GORANBOY 22,OBA-GORANBOY 22,OBA-GORANBOY 22,40.5852372893718,46.7293250364713,275.47
OBA-CEBRAYIL 4,OBA-CEBRAYIL 4,OBA-CEBRAYIL 4,39.4005218061339,47.0227698345693,275.57
OBA-XOCALI 4,OBA-XOCALI 4,OBA-XOCALI 4,39.9119289,46.7991131,275.59
OBA-XOCALI 1,OBA-XOCALI 1,OBA-XOCALI 1,39.9054382915734,46.7994628177141,275.71
OBA-XOCALI 3,OBA-XOCALI 3,OBA-XOCALI 3,39.9292301636796,46.7771665618988,277.01
OBA-QAX 4,OBA-QAX 4,OBA-QAX 4,41.4264829490259,46.9450254544567,279.17
OBA-QAX 7,OBA-QAX 7,OBA-QAX 7,41.4183686161293,46.9302712189621,279.95
OBA-XANKENDI 2,OBA-XANKENDI 2,OBA-XANKENDI 2,39.825083,46.766806,280.5
OBA-QAX 2,OBA-QAX 2,OBA-QAX 2,41.418703,46.922658,280.55
OBA-QAX 9,OBA-QAX 9,OBA-QAX 9,41.416111,46.9205,280.61
OBA-QAX 6,OBA-QAX 6,OBA-QAX 6,41.4195610583433,46.9171559711642,281.01
OBA-QAX 8,OBA-QAX 8,OBA-QAX 8,41.4227376125087,46.9164972989162,281.2
OBA-QAX 3,OBA-QAX 3,OBA-QAX 3,41.422163,46.914467,281.33
OBA-XANKENDI 3,OBA-XANKENDI 3,OBA-XANKENDI 3,39.8205,46.757444,281.4
OBA-XANKENDI 1,OBA-XANKENDI 1,OBA-XANKENDI 1,39.8233289815858,46.7521967319624,281.75
OBA-XOCALI 2,OBA-XOCALI 2,OBA-XOCALI 2,39.8725914955196,46.729163819251,282.37
OBA-GORANBOY 15,OBA-GORANBOY 15,OBA-GORANBOY 15,40.4451014413581,46.6349879797866,283.02
OBA-GORANBOY 14,OBA-GORANBOY 14,OBA-GORANBOY 14,40.7002555122781,46.6070292309199,286.74
OBA-GORANBOY 3,OBA-GORANBOY 3,OBA-GORANBOY 3,40.41852,46.573089,288.29
OBA-GORANBOY 17,OBA-GORANBOY 17,OBA-GORANBOY 17,40.6961654007692,46.5710001999219,289.72
OBA-GORANBOY 13,OBA-GORANBOY 13,OBA-GORANBOY 13,40.6988730578114,46.5673466286339,290.05
OBA-GORANBOY 4,OBA-GORANBOY 4,OBA-GORANBOY 4,40.6922774094369,46.5644350517439,290.23
OBA-GORANBOY 21,OBA-GORANBOY 21,OBA-GORANBOY 21,40.6904224792627,46.5629124567392,290.34
OBA-SHEMKIR 40,OBA-SHEMKIR 40,OBA-SHEMKIR 40,40.6904469403639,46.562903571379,290.34
OBA-GORANBOY 23,OBA-GORANBOY 23,OBA-GORANBOY 23,40.6524058685971,46.5540257667083,290.73
OBA-GORANBOY 19,OBA-GORANBOY 19,OBA-GORANBOY 19,40.6476266629683,46.5320419341149,292.54
OBA-SAMUX 9,OBA-SAMUX 9,OBA-SAMUX 9,40.7153389993261,46.4699138128771,298.4
OBA-ZAQATALA 18,OBA-ZAQATALA 18,OBA-ZAQATALA 18,41.4791812650297,46.7086861332857,299.6
OBA-SAMUX 8,OBA-SAMUX 8,OBA-SAMUX 8,40.7532049659251,46.4300846487068,302.17
OBA-ZAQATALA 23,OBA-ZAQATALA 23,OBA-ZAQATALA 23,41.534861,46.702833,302.47
OBA-GENCE 91,OBA-GENCE 91,OBA-GENCE 91,40.6842381005216,46.4134442206746,302.83
OBA-GOYGOL 8,OBA-GOYGOL 8,OBA-GOYGOL 8,40.6351365387629,46.405007354732,303.13
OBA-ZAQATALA 21,OBA-ZAQATALA 21,OBA-ZAQATALA 21,41.5699297286717,46.7085290339793,303.61
OBA-SAMUX 12,OBA-SAMUX 12,OBA-SAMUX 12,40.7583556480803,46.4095789134915,303.95
OBA-LACIN 3,OBA-LACIN 3,OBA-LACIN 3,39.6375258315338,46.550410912971,303.98
OBA-ZAQATALA 20,OBA-ZAQATALA 20,OBA-ZAQATALA 20,41.4612085562749,46.6375705670064,304.34
OBA-SAMUX 10,OBA-SAMUX 10,OBA-SAMUX 10,40.7652944952677,46.4057895032353,304.36
OBA-GENCE 53,OBA-GENCE 53,OBA-GENCE 53,40.7211160973238,46.3989559759312,304.42
OBA-GENCE 68,OBA-GENCE 68,OBA-GENCE 68,40.681250093091,46.3916817381248,304.63
OBA-GENCE 48,OBA-GENCE 48,OBA-GENCE 48,40.6875583902879,46.388735313488,304.94
OBA-GENCE 82,OBA-GENCE 82,OBA-GENCE 82,40.6786213484278,46.3875641871635,304.95
OBA-GENCE 69,OBA-GENCE 69,OBA-GENCE 69,40.6862524629318,46.3873113338734,305.05
OBA-GENCE 2,OBA-GENCE 2,OBA-GENCE 2,40.68047,46.38577,305.12
OBA-GENCE 14,OBA-GENCE 14,OBA-GENCE 14,40.683063,46.383157,305.36
OBA-GENCE 84,OBA-GENCE 84,OBA-GENCE 84,40.6586252895386,46.3802397828024,305.4
OBA-GENCE 51,OBA-GENCE 51,OBA-GENCE 51,40.664388,46.379168,305.54
OBA-GENCE 44,OBA-GENCE 44,OBA-GENCE 44,40.69972,46.382799,305.55
OBA-GENCE 23,OBA-GENCE 23,OBA-GENCE 23,40.679528,46.380514,305.56
OBA-LACIN 2,OBA-LACIN 2,OBA-LACIN 2,39.6353724968954,46.5319105518952,305.57
OBA-GENCE 9,OBA-GENCE 9,OBA-GENCE 9,40.695106,46.380035,305.74
OBA-ZAQATALA 12,OBA-ZAQATALA 12,OBA-ZAQATALA 12,41.56936771106,46.6791253822421,305.82
OBA-GENCE 46,OBA-GENCE 46,OBA-GENCE 46,40.649696,46.372797,305.95
OBA-GENCE 16,OBA-GENCE 16,OBA-GENCE 16,40.67703,46.374516,306.04
OBA-GENCE 52,OBA-GENCE 52,OBA-GENCE 52,40.676204,46.372936,306.16
OBA-GENCE 41,OBA-GENCE 41,OBA-GENCE 41,40.711387,46.376794,306.17
OBA-LACIN 1,OBA-LACIN 1,OBA-LACIN 1,39.590366986889,46.542686987434,306.21
OBA-GENCE 77,OBA-GENCE 77,OBA-GENCE 77,40.6770345927474,46.3719625089239,306.25
OBA-ZAQATALA 16,OBA-ZAQATALA 16,OBA-ZAQATALA 16,41.4778940818223,46.6208301458459,306.32
OBA-ZENGILAN 1,OBA-ZENGILAN 1,OBA-ZENGILAN 1,39.174583,46.767583,306.35
OBA-GENCE 40,OBA-GENCE 40,OBA-GENCE 40,40.674491,46.369638,306.42
OBA-ZAQATALA 13,OBA-ZAQATALA 13,OBA-ZAQATALA 13,41.4932772196855,46.6274686571393,306.45
OBA-GENCE 72,OBA-GENCE 72,OBA-GENCE 72,40.6561299880318,46.3673181180664,306.47
OBA-GENCE 12,OBA-GENCE 12,OBA-GENCE 12,40.656215,46.366813,306.51
OBA-GENCE 71,OBA-GENCE 71,OBA-GENCE 71,40.6681199055897,46.3676620855943,306.54
OBA-GENCE 28,OBA-GENCE 28,OBA-GENCE 28,40.68956,46.369276,306.59
OBA-GENCE 3,OBA-GENCE 3,OBA-GENCE 3,40.668928,46.366682,306.63
OBA-GENCE 80,OBA-GENCE 80,OBA-GENCE 80,40.6830470785027,46.3662219082933,306.79
OBA-GENCE79,OBA-GENCE79,OBA-GENCE79,40.6975924975868,46.3670504428999,306.85
OBA-GENCE 60,OBA-GENCE 60,OBA-GENCE 60,40.7154851575252,46.3691282837031,306.86
OBA-GENCE 74,OBA-GENCE 74,OBA-GENCE 74,40.6601293812772,46.3624540651337,306.91
OBA-GENCE 45,OBA-GENCE 45,OBA-GENCE 45,40.68863,46.36517,306.93
OBA-GENCE 4,OBA-GENCE 4,OBA-GENCE 4,40.709743,46.367264,306.96
OBA-GENCE 47,OBA-GENCE 47,OBA-GENCE 47,40.670043,46.3627,306.97
OBA-GENCE 90,OBA-GENCE 90,OBA-GENCE 90,40.7069087778733,46.3667378362481,306.97
OBA-GENCE 62,OBA-GENCE 62,OBA-GENCE 62,40.712548144962,46.3669614711367,307.01
OBA-GENCE 8,OBA-GENCE 8,OBA-GENCE 8,40.666162,46.361403,307.05
OBA-GENCE 6,OBA-GENCE 6,OBA-GENCE 6,40.6806,46.362884,307.05
OBA-GENCE 81,OBA-GENCE 81,OBA-GENCE 81,40.6638407542225,46.3592436576734,307.21
OBA-GENCE 78,OBA-GENCE 78,OBA-GENCE 78,40.637139584648,46.3538610030042,307.45
OBA-GENCE 39,OBA-GENCE 39,OBA-GENCE 39,40.67803,46.357309,307.49
OBA-GENCE 33,OBA-GENCE 33,OBA-GENCE 33,40.673027,46.356704,307.5
OBA-SAMUX 11,OBA-SAMUX 11,OBA-SAMUX 11,40.754111698304,46.3662427151931,307.53
OBA-GENCE 56,OBA-GENCE 56,OBA-GENCE 56,40.7115076594621,46.3592308267032,307.65
OBA-GENCE 13,OBA-GENCE 13,OBA-GENCE 13,40.68172,46.3557,307.66
OBA-GENCE 59,OBA-GENCE 59,OBA-GENCE 59,40.6583294798983,46.3529254730166,307.69
OBA-GENCE 30,OBA-GENCE 30,OBA-GENCE 30,40.69803,46.355044,307.87
OBA-GENCE 67,OBA-GENCE 67,OBA-GENCE 67,40.7024868545968,46.3550913232502,307.91
OBA-SAMUX 7,OBA-SAMUX 7,OBA-SAMUX 7,40.7666174037763,46.3631224103864,307.94
OBA-GENCE 18,OBA-GENCE 18,OBA-GENCE 18,40.64699,46.347899,308.03
OBA-GENCE 73,OBA-GENCE 73,OBA-GENCE 73,40.6340074129992,46.3455157994865,308.14
OBA-GENCE 65,OBA-GENCE 65,OBA-GENCE 65,40.7191082191843,46.3539661528701,308.17
OBA-GENCE 10,OBA-GENCE 10,OBA-GENCE 10,40.695559,46.350866,308.19
OBA-GENCE 61,OBA-GENCE 61,OBA-GENCE 61,40.6449107758348,46.3441940910435,308.33
OBA-GENCE 19,OBA-GENCE 19,OBA-GENCE 19,40.720532,46.35209,308.34
OBA-GOYGOL 10,OBA-GOYGOL 10,OBA-GOYGOL 10,40.5430199171276,46.3361248383544,308.45
OBA-GENCE 29,OBA-GENCE 29,OBA-GENCE 29,40.68524,46.346447,308.47
OBA-GENCE 11,OBA-GENCE 11,OBA-GENCE 11,40.640645,46.34115,308.55
OBA-GENCE 1,OBA-GENCE 1,OBA-GENCE 1,40.672916,46.342571,308.69
OBA-GOYGOL 6,OBA-GOYGOL 6,OBA-GOYGOL 6,40.5871638188749,46.3353745270767,308.7
OBA-GENCE 32,OBA-GENCE 32,OBA-GENCE 32,40.661285,46.340293,308.78
OBA-GENCE 50,OBA-GENCE 50,OBA-GENCE 50,40.632485,46.335239,308.99
OBA-GENCE 75,OBA-GENCE 75,OBA-GENCE 75,40.6709370431703,46.3384059707769,309.02
OBA-GENCE 54,OBA-GENCE 54,OBA-GENCE 54,40.7156822892732,46.3410185788478,309.22
OBA-GENCE 76,OBA-GENCE 76,OBA-GENCE 76,40.6708700584607,46.3353576286956,309.28
OBA-GOYGOL 3,OBA-GOYGOL 3,OBA-GOYGOL 3,40.570202,46.325247,309.48
OBA-GENCE 27,OBA-GENCE 27,OBA-GENCE 27,40.680142,46.332783,309.57
OBA-GENCE 86,OBA-GENCE 86,OBA-GENCE 86,40.6676742813667,46.3310511134915,309.61
OBA-GENCE 64,OBA-GENCE 64,OBA-GENCE 64,40.6623993321884,46.3297719997103,309.68
OBA-ZAQATALA 14,OBA-ZAQATALA 14,OBA-ZAQATALA 14,41.6152240437448,46.6554956134064,309.72
OBA-GENCE 42,OBA-GENCE 42,OBA-GENCE 42,40.707783,46.333165,309.8
OBA-ZAQATALA 11,OBA-ZAQATALA 11,OBA-ZAQATALA 11,41.6045468254492,46.6467878101356,309.88
OBA-GENCE 63,OBA-GENCE 63,OBA-GENCE 63,40.7082603425029,46.3318740825529,309.91
OBA-GENCE 36,OBA-GENCE 36,OBA-GENCE 36,40.674817,46.328036,309.93
OBA-GOYGOL,OBA-GOYGOL,OBA-GOYGOL,40.588893,46.320913,309.93
OBA-GOYGOL 2,OBA-GOYGOL 2,OBA-GOYGOL 2,40.591492,46.320613,309.97
OBA-GENCE 7,OBA-GENCE 7,OBA-GENCE 7,40.67579,46.326321,310.08
OBA-GOYGOL 11,OBA-GOYGOL 11,OBA-GOYGOL 11,40.5863459509793,46.3169892711638,310.25
OBA-GENCE 85,OBA-GENCE 85,OBA-GENCE 85,40.6632868830056,46.3200650783469,310.5
OBA-GENCE 66,OBA-GENCE 66,OBA-GENCE 66,40.710177687611,46.3231001195734,310.67
OBA-ZAQATALA 19,OBA-ZAQATALA 19,OBA-ZAQATALA 19,41.6348235144609,46.6549188088399,310.68
OBA-ZAQATALA 7,OBA-ZAQATALA 7,OBA-ZAQATALA 7,41.6170404894207,46.6435087940229,310.71
OBA-GENCE 34,OBA-GENCE 34,OBA-GENCE 34,40.715801,46.322235,310.8
OBA-GENCE 26,OBA-GENCE 26,OBA-GENCE 26,40.662464,46.316206,310.82
OBA-ZAQATALA 3,OBA-ZAQATALA 3,OBA-ZAQATALA 3,41.63208,46.65124,310.83
OBA-GOYGOL 9,OBA-GOYGOL 9,OBA-GOYGOL 9,40.6299736971592,46.3130832999907,310.84
OBA-ZAQATALA 9,OBA-ZAQATALA 9,OBA-ZAQATALA 9,41.634341,46.65074,310.97
OBA-ZAQATALA 6,OBA-ZAQATALA 6,OBA-ZAQATALA 6,41.624858,46.637389,311.53
OBA-SAMUX 2,OBA-SAMUX 2,OBA-SAMUX 2,40.788254,46.321862,311.67
OBA-ZAQATALA 8,OBA-ZAQATALA 8,OBA-ZAQATALA 8,41.634289,46.640027,311.77
OBA-ZAQATALA 1,OBA-ZAQATALA 1,OBA-ZAQATALA 1,41.62961,46.632701,312.11
OBA-GOYGOL 7,OBA-GOYGOL 7,OBA-GOYGOL 7,40.7181452264206,46.2962684599196,313
OBA-ZAQATALA 17,OBA-ZAQATALA 17,OBA-ZAQATALA 17,41.6303509073993,46.6198519820027,313.11
OBA-GOYGOL 5,OBA-GOYGOL 5,OBA-GOYGOL 5,40.6501927790893,46.2729699045695,314.36
OBA-GOYGOL 4,OBA-GOYGOL 4,OBA-GOYGOL 4,40.67518,46.27432,314.45
OBA-ZAQATALA 22,OBA-ZAQATALA 22,OBA-ZAQATALA 22,41.5329229,46.5240605,316.09
OBA-SAMUX 5,OBA-SAMUX 5,OBA-SAMUX 5,40.8093123574171,46.259729800185,317.14
OBA-SEMKIR 29,OBA-SEMKIR 29,OBA-SEMKIR 29,40.7849973203415,46.2430833536917,318.22
OBA-SEMKIR 22,OBA-SEMKIR 22,OBA-SEMKIR 22,40.844752,46.215055,321.37
OBA-ZAQATALA 15,OBA-ZAQATALA 15,OBA-ZAQATALA 15,41.5513843956301,46.4216290124747,324.76
OBA-SEMKIR 2,OBA-SEMKIR 2,OBA-SEMKIR 2,40.9059600672276,46.1813746134631,325.14
OBA-SEMKIR 10,OBA-SEMKIR 10,OBA-SEMKIR 10,40.906864,46.181381,325.15
OBA-SEMKIR 24,OBA-SEMKIR 24,OBA-SEMKIR 24,40.7729636841505,46.1461173972445,326.19
OBA-SEMKIR 13,OBA-SEMKIR 13,OBA-SEMKIR 13,40.836309,46.148926,326.77
OBA-SHEMKIR 42,OBA-SHEMKIR 42,OBA-SHEMKIR 42,40.8357551396504,46.1448032739,327.1
OBA-SHEMKIR 38,OBA-SHEMKIR 38,OBA-SHEMKIR 38,40.7796836441811,46.1318103634618,327.47
OBA-SHEMKIR43,OBA-SHEMKIR43,OBA-SHEMKIR43,40.7579966800867,46.120374364513,328.18
OBA-SHEMKIR 50,OBA-SHEMKIR 50,OBA-SHEMKIR 50,40.7713065616483,46.1123978685501,328.99
OBA-SEMKIR 16,OBA-SEMKIR 16,OBA-SEMKIR 16,40.771345,46.111536,329.07
OBA-SHEMKIR 36,OBA-SHEMKIR 36,OBA-SHEMKIR 36,40.7807979530989,46.1095511133936,329.34
OBA-DASHKESEN 1,OBA-DASHKESEN 1,OBA-DASHKESEN 1,40.522015,46.086229,329.51
OBA-DASKESEN 2,OBA-DASKESEN 2,OBA-DASKESEN 2,40.5210491632451,46.0802627647405,330.01
OBA-BALAKEN 8,OBA-BALAKEN 8,OBA-BALAKEN 8,41.622222,46.388974,330.29
OBA-BALAKEN 3,OBA-BALAKEN 3,OBA-BALAKEN 3,41.708509,46.433157,330.83
OBA-BALAKEN 11,OBA-BALAKEN 11,OBA-BALAKEN 11,41.7060656474383,46.4250630218992,331.33
OBA-SEMKIR 14,OBA-SEMKIR 14,OBA-SEMKIR 14,40.86037,46.094832,331.63
OBA-BALAKEN 10,OBA-BALAKEN 10,OBA-BALAKEN 10,41.7178115095102,46.4155015220075,332.6
OBA-BALAKEN 2,OBA-BALAKEN 2,OBA-BALAKEN 2,41.71652,46.413954,332.65
OBA-BALAKEN 9,OBA-BALAKEN 9,OBA-BALAKEN 9,41.7138477714172,46.3972615495635,333.79
OBA-BALAKEN 4,OBA-BALAKEN 4,OBA-BALAKEN 4,41.723818,46.40278,333.84
OBA-BALAKEN 12,OBA-BALAKEN 12,OBA-BALAKEN 12,41.7382971862776,46.4092038402084,334.04
OBA-BALAKEN 14,OBA-BALAKEN 14,OBA-BALAKEN 14,41.7213348661269,46.3956029018452,334.26
OBA-SHEMKIR 46,OBA-SHEMKIR 46,OBA-SHEMKIR 46,40.831383764033,46.0525904440143,334.74
OBA-SEMKIR 27,OBA-SEMKIR 27,OBA-SEMKIR 27,40.8320923617251,46.0424287356944,335.6
OBA-SHEMKIR 34,OBA-SHEMKIR 34,OBA-SHEMKIR 34,40.8279420594952,46.0334841024507,336.29
OBA-SEMKIR 28,OBA-SEMKIR 28,OBA-SEMKIR 28,40.8245713769518,46.0321323043913,336.36
OBA-SHEMKIR 39,OBA-SHEMKIR 39,OBA-SHEMKIR 39,40.9045539137108,46.0450313410382,336.45
OBA-SEMKIR 7,OBA-SEMKIR 7,OBA-SEMKIR 7,40.82404,46.029065,336.61
OBA-SHEMKIR 47,OBA-SHEMKIR 47,OBA-SHEMKIR 47,40.8607497337069,46.0324450481678,336.83
OBA-SHEMKIR 41,OBA-SHEMKIR 41,OBA-SHEMKIR 41,40.8465961798757,46.0267626846323,337.11
OBA-SEMKIR 5,OBA-SEMKIR 5,OBA-SEMKIR 5,40.88935,46.032633,337.24
OBA-SHEMKIR 33,OBA-SHEMKIR 33,OBA-SHEMKIR 33,40.8776575949164,46.0292221999914,337.35
OBA-SEMKIR 4,OBA-SEMKIR 4,OBA-SEMKIR 4,40.84399,46.02169,337.49
OBA-SHEMKIR 30,OBA-SHEMKIR 30,OBA-SHEMKIR 30,40.8291887751531,46.0177849343575,337.62
OBA-SEMKIR 3,OBA-SEMKIR 3,OBA-SEMKIR 3,40.858778,46.022543,337.63
OBA-SHEMKIR 49,OBA-SHEMKIR 49,OBA-SHEMKIR 49,40.8055858042484,46.0117954006429,337.82
OBA-SHEMKIR 44,OBA-SHEMKIR 44,OBA-SHEMKIR 44,40.8430225217465,46.0155367007509,337.99
OBA-BALAKEN 13,OBA-BALAKEN 13,OBA-BALAKEN 13,41.7109248140782,46.2683535256444,343.41
OBA-SHEMKIR 35,OBA-SHEMKIR 35,OBA-SHEMKIR 35,40.845892637653,45.9272178134032,345.41
OBA-SHEMKIR 31,OBA-SHEMKIR 31,OBA-SHEMKIR 31,40.9041471232939,45.8883503711638,349.48
OBA-GEDEBEY 6,OBA-GEDEBEY 6,OBA-GEDEBEY 6,40.685212,45.826851,352.16
OBA-SHEMKIR 32,OBA-SHEMKIR 32,OBA-SHEMKIR 32,40.9128968260775,45.8494476048015,352.85
OBA-GEDEBEY 7,OBA-GEDEBEY 7,OBA-GEDEBEY 7,40.5764190895343,45.8090685944669,353.07
OBA-GEDEBEY 1,OBA-GEDEBEY 1,OBA-GEDEBEY 1,40.577743,45.807804,353.18
OBA-GEDEBEY 2,OBA-GEDEBEY 2,OBA-GEDEBEY 2,40.65959,45.808329,353.55
OBA-SEMKIR 21,OBA-SEMKIR 21,OBA-SEMKIR 21,40.888061,45.82651,354.39
OBA-TOVUZ 10,OBA-TOVUZ 10,OBA-TOVUZ 10,40.924,45.820228,355.46
OBA-TOVUZ 19,OBA-TOVUZ 19,OBA-TOVUZ 19,40.9292667894109,45.8211790994791,355.46
OBA-GEDEBEY 8,OBA-GEDEBEY 8,OBA-GEDEBEY 8,40.5030362842867,45.7560122424303,357.4
OBA-TOVUZ 31,OBA-TOVUZ 31,OBA-TOVUZ 31,40.9431521205513,45.7998308952418,357.46
OBA-TOVUZ 15,OBA-TOVUZ 15,OBA-TOVUZ 15,40.899607,45.763312,359.83
OBA-TOVUZ 23,OBA-TOVUZ 23,OBA-TOVUZ 23,40.9425858762722,45.7507278691436,361.53
OBA-TOVUZ 13,OBA-TOVUZ 13,OBA-TOVUZ 13,40.9482630880044,45.7364783248181,362.8
OBA-TOVUZ 2,OBA-TOVUZ 2,OBA-TOVUZ 2,40.947345,45.734045,362.99
OBA-TOVUZ 26,OBA-TOVUZ 26,OBA-TOVUZ 26,40.9465083331735,45.7299251048136,363.32
OBA-TOVUZ 18,OBA-TOVUZ 18,OBA-TOVUZ 18,40.9220751268906,45.6649405432173,368.35
OBA-TOVUZ 16,OBA-TOVUZ 16,OBA-TOVUZ 16,40.975335,45.663857,369.27
OBA-GEDEBEY 4,OBA-GEDEBEY 4,OBA-GEDEBEY 4,40.608063,45.609869,370
OBA-TOVUZ 22,OBA-TOVUZ 22,OBA-TOVUZ 22,40.9925685955697,45.6324432701451,372.17
OBA-TOVUZ 1,OBA-TOVUZ 1,OBA-TOVUZ 1,40.979401,45.621969,372.82
OBA-TOVUZ 20,OBA-TOVUZ 20,OBA-TOVUZ 20,40.9954707622576,45.624365630593,372.89
OBA-TOVUZ 28,OBA-TOVUZ 28,OBA-TOVUZ 28,40.9855270290753,45.6216199032281,372.95
OBA-TOVUZ 27,OBA-TOVUZ 27,OBA-TOVUZ 27,40.9875777715676,45.6210692363261,373.03
OBA-TOVUZ 5,OBA-TOVUZ 5,OBA-TOVUZ 5,40.9840136351232,45.6177516285183,373.25
OBA-TOVUZ 33,OBA-TOVUZ 33,OBA-TOVUZ 33,40.9993482711561,45.6193986891734,373.37
OBA-TOVUZ 3,OBA-TOVUZ 3,OBA-TOVUZ 3,40.990102,45.616778,373.43
OBA-TOVUZ 25,OBA-TOVUZ 25,OBA-TOVUZ 25,40.9673664230854,45.6118431030266,373.47
OBA-TOVUZ 17,OBA-TOVUZ 17,OBA-TOVUZ 17,40.99175,45.61187,373.86
OBA-TOVUZ 6,OBA-TOVUZ 6,OBA-TOVUZ 6,41.0223207425888,45.6074014085965,374.76
OBA-TOVUZ 24,OBA-TOVUZ 24,OBA-TOVUZ 24,40.9759818831782,45.5864946326908,375.71
OBA-ORDUBAD 3,OBA-ORDUBAD 3,OBA-ORDUBAD 3,38.9013225676715,46.0168148662627,377.9
OBA-AGSTAFA 8,OBA-AGSTAFA 8,OBA-AGSTAFA 8,41.0970898408835,45.5192714952114,383.44
OBA-ORDUBAD 2,OBA-ORDUBAD 2,OBA-ORDUBAD 2,38.9325481335165,45.9243666841157,383.46
OBA-AGSTAFA 11,OBA-AGSTAFA 11,OBA-AGSTAFA 11,41.120937,45.46089,388.73
OBA-AGSTAFA 7,OBA-AGSTAFA 7,OBA-AGSTAFA 7,41.108242409619,45.4468289134835,389.64
OBA-AGSTAFA 9,OBA-AGSTAFA 9,OBA-AGSTAFA 9,41.1145946697206,45.4469825966002,389.75
OBA-AGSTAFA 10,OBA-AGSTAFA 10,OBA-AGSTAFA 10,41.1536997627193,45.4532228719758,390.03
OBA-AGSTAFA 3,OBA-AGSTAFA 3,OBA-AGSTAFA 3,41.1114,45.438958,390.35
OBA-ORDUBAD 1,OBA-ORDUBAD 1,OBA-ORDUBAD 1,38.9452752850726,45.8264777268657,390.43
OBA-QAZAX 20,OBA-QAZAX 20,OBA-QAZAX 20,41.0939304790049,45.3974400734205,393.44
OBA-QAZAX 2,OBA-QAZAX 2,OBA-QAZAX 2,41.096963,45.38439,394.57
OBA-QAZAX 18,OBA-QAZAX 18,OBA-QAZAX 18,41.1023655473776,45.3828858048546,394.8
OBA-QAZAX 4,OBA-QAZAX 4,OBA-QAZAX 4,41.09346,45.367003,395.94
OBA-QAZAX 9,OBA-QAZAX 9,OBA-QAZAX 9,41.093106,45.36673,395.96
OBA-QAZAX 22,OBA-QAZAX 22,OBA-QAZAX 22,41.0859476185566,45.3610492576722,396.29
OBA-QAZAX 1,OBA-QAZAX 1,OBA-QAZAX 1,41.089909,45.359454,396.5
OBA-QAZAX21,OBA-QAZAX21,OBA-QAZAX21,41.0908955406126,45.3594966034978,396.51
OBA-QAZAX 10,OBA-QAZAX 10,OBA-QAZAX 10,41.088397,45.355519,396.8
OBA-QAZAX 12,OBA-QAZAX 12,OBA-QAZAX 12,41.08458,45.352957,396.94
OBA-QAZAX 8,OBA-QAZAX 8,OBA-QAZAX 8,41.08951,45.352725,397.05
OBA-QAZAX 16,OBA-QAZAX 16,OBA-QAZAX 16,41.0959630205757,45.3509968405516,397.31
OBA-QAZAX 24,OBA-QAZAX 24,OBA-QAZAX 24,41.131028,45.354028,397.74
OBA-QAZAX 13,OBA-QAZAX 13,OBA-QAZAX 13,41.083856,45.33904,398.07
OBA-BABEK 2,OBA-BABEK 2,OBA-BABEK 2,39.2905493155112,45.506500970564,401.19
OBA-QAZAX 14,OBA-QAZAX 14,OBA-QAZAX 14,41.1151491790108,45.3027281608298,401.66
OBA-QAZAX 19,OBA-QAZAX 19,OBA-QAZAX 19,41.1682854914566,45.3074391614198,402.32
OBA-QAZAX 15,OBA-QAZAX 15,OBA-QAZAX 15,41.1317603807366,45.266189638718,404.99
OBA-BABEK 1,OBA-BABEK 1,OBA-BABEK 1,39.2260912346496,45.4455751018452,408.55
OBA-BABEK 4,OBA-BABEK 4,OBA-BABEK 4,39.1123585421249,45.474907532538,410.72
OBA-BABEK 3,OBA-BABEK 3,OBA-BABEK 3,39.1206569436548,45.4661335355825,411.08
OBA-KENGERLI 1,OBA-KENGERLI 1,OBA-KENGERLI 1,39.4001509798561,45.111301960113,429.77
OBA-SHERUR 1,OBA-SHERUR 1,OBA-SHERUR 1,39.5015535615193,45.0230835603645,434
OBA-SHERUR 3,OBA-SHERUR 3,OBA-SHERUR 3,39.562662,44.992359,434.86
OBA-SHERUR 2,OBA-SHERUR 2,OBA-SHERUR 2,39.5281307867633,44.9863037755726,436.31
OBA-SEDEREK 1,OBA-SEDEREK 1,OBA-SEDEREK 1,39.6134234187791,44.9382727092752,438.04
OBA-SEDEREK 2,OBA-SEDEREK 2,OBA-SEDEREK 2,39.710333,44.88225,440.41
